{
"type": "FeatureCollection",
"name": "subzones",
"crs": { "type": "name", "properties": { "name": "urn:ogc:def:crs:OGC:1.3:CRS84" } },
"features": [
{ "type": "Feature", "properties": { "id": 1, "subzone": "upper Floya" }, "geometry": { "type": "MultiPolygon", "coordinates": [ [ [ [ 18.996547351708934, 69.623551868816207 ], [ 18.995054980650583, 69.624606373373084 ], [ 18.995054980650583, 69.627983492808127 ], [ 19.000848891818293, 69.628762751947676 ], [ 19.003570274336457, 69.628365486148738 ], [ 19.001287824482514, 69.625523291384127 ], [ 19.001287824482514, 69.625523291384127 ], [ 18.996547351708934, 69.623551868816207 ] ] ] ] } },
{ "type": "Feature", "properties": { "id": 2, "subzone": "lower plateau" }, "geometry": { "type": "MultiPolygon", "coordinates": [ [ [ [ 18.993387036526549, 69.632719725512217 ], [ 19.002429049409486, 69.632719725512217 ], [ 19.002429049409486, 69.632719725512217 ], [ 19.003570274336457, 69.628380765739706 ], [ 19.000848891818293, 69.628762751947676 ], [ 18.995054980650583, 69.627968212931847 ], [ 18.992904210595906, 69.628778031253376 ], [ 18.993387036526549, 69.632719725512217 ] ] ] ] } },
{ "type": "Feature", "properties": { "id": 3, "subzone": "south upper floya" }, "geometry": { "type": "MultiPolygon", "coordinates": [ [ [ [ 18.996415671909666, 69.62358243490101 ], [ 18.991411839537555, 69.623414320891229 ], [ 18.982413719921041, 69.625721951745703 ], [ 18.985881287968382, 69.626745787274857 ], [ 18.989436642548569, 69.627509811540776 ], [ 18.992904210595906, 69.628778031253361 ], [ 18.995098873917005, 69.627968212931847 ], [ 18.995011087384157, 69.624560526435417 ], [ 18.996415671909666, 69.62358243490101 ] ] ] ] } },
{ "type": "Feature", "properties": { "id": 4, "subzone": "lower south" }, "geometry": { "type": "MultiPolygon", "coordinates": [ [ [ [ 18.987856484957376, 69.632658619547072 ], [ 18.993387036526549, 69.632704449037377 ], [ 18.992860317329484, 69.628778031253361 ], [ 18.989392749282143, 69.627494531324317 ], [ 18.985881287968382, 69.626745787274857 ], [ 18.982457613187464, 69.625737233235157 ], [ 18.977365994282511, 69.627005558603429 ], [ 18.987856484957376, 69.632658619547072 ] ] ] ] } }
]
}
