{"type":"FeatureCollection","crs":{"type":"name","properties":{"name":"EPSG:4326"}},"features":[{"type":"Feature","id":1,"geometry":{"type":"LineString","coordinates":[[18.9923145157703,69.6272684004486],[18.9927017282404,69.627160182036],[18.9928251247704,69.6271260856584],[18.9930293650056,69.6271008845956],[18.9930634063802,69.6270653050455],[18.9930804278604,69.6270282429113],[18.9931229795582,69.6269778385049],[18.9933229631151,69.626951154595],[18.9934165735201,69.6268933378661],[18.9934038098518,69.6268533106215],[18.9934633799548,69.6268088361488],[18.9935612438287,69.6267717742031],[18.993599539074,69.6267169222073],[18.9936718726825,69.6266961675175],[18.9936335793959,69.6266531752609],[18.993693148713,69.6265923933346],[18.9937484626091,69.6265494012492]]},"properties":{"OBJECTID":1,"GlobalID":"a8440499-a6e6-4ef4-bd09-3b2f337423e1"}},{"type":"Feature","id":2,"geometry":{"type":"LineString","coordinates":[[19.0032532814484,69.6333743014035],[19.0033724982419,69.633469174062],[19.0034193302696,69.6334988212272],[19.0034534117618,69.6335684961983]]},"properties":{"OBJECTID":2,"GlobalID":"6a477cb4-9fc8-4203-8f33-be21ef2e4ae5"}},{"type":"Feature","id":3,"geometry":{"type":"LineString","coordinates":[[19.003410733725,69.6333120284711],[19.0034405793911,69.6334276607412],[19.0034661469935,69.6334943712047],[19.0034789238009,69.6335121603333],[19.00351299337,69.633555150547]]},"properties":{"OBJECTID":3,"GlobalID":"743aebb2-a2ac-4e0a-a05b-67c48d30d2a7"}},{"type":"Feature","id":4,"geometry":{"type":"LineString","coordinates":[[19.0044537511297,69.633804153692],[19.0043856884414,69.6338812470568],[19.0043261211152,69.6339242427177],[19.0042793203902,69.6339627901412]]},"properties":{"OBJECTID":4,"GlobalID":"458c5448-0240-4cc5-a1f8-e38747047b43"}},{"type":"Feature","id":5,"geometry":{"type":"LineString","coordinates":[[18.9989394957929,69.6336283361353],[18.9986372994069,69.6336253797018],[18.9984840714813,69.6336164889114],[18.9981861422008,69.633665418632],[18.9979860935952,69.6336491161279],[18.9975604744411,69.6337010127439],[18.9974115059309,69.6337113932593]]},"properties":{"OBJECTID":5,"GlobalID":"63389e5a-2063-4a41-8fa5-e8f7962b293c"}},{"type":"Feature","id":6,"geometry":{"type":"LineString","coordinates":[[18.9991693470531,69.6336772513553],[18.999280030268,69.6337543372631],[18.9992545071986,69.6338121550384],[18.9993141013317,69.6338343904852],[18.9993609273919,69.6338595912883],[18.9993651983838,69.6339159256491],[18.9994290477023,69.6339322309742]]},"properties":{"OBJECTID":6,"GlobalID":"2ed8109c-f43a-4cf9-aaa6-77942f167239"}},{"type":"Feature","id":7,"geometry":{"type":"LineString","coordinates":[[18.9994928931683,69.6339337114088],[18.9995950517219,69.6339574278638],[18.9995780311616,69.6339752182631]]},"properties":{"OBJECTID":7,"GlobalID":"549db406-b30e-4b6d-a919-ec29575451eb"}},{"type":"Feature","id":8,"geometry":{"type":"LineString","coordinates":[[19.0001611280995,69.6338995913459],[19.0001483749698,69.6339529613221],[19.0001867020003,69.6340196718299],[19.0001994755096,69.6340344962311],[19.0002377912271,69.6340626620774],[19.0001782180845,69.6341160337619],[19.0002378095619,69.6341234440237]]},"properties":{"OBJECTID":8,"GlobalID":"f3cd8832-f4fe-42f4-bead-1385f7669698"}},{"type":"Feature","id":9,"geometry":{"type":"LineString","coordinates":[[18.9958980840213,69.6309949353382],[18.9960938546067,69.631052750023]]},"properties":{"OBJECTID":9,"GlobalID":"5e53f47d-6c6d-47b4-84c1-65a9b8fa327d"}},{"type":"Feature","id":10,"geometry":{"type":"LineString","coordinates":[[18.9974812545616,69.6311772561164],[18.9976514947247,69.6312261746383],[18.9977110785542,69.6312409982258],[18.9976089401104,69.6312454478818],[18.9975578671706,69.6312261766194]]},"properties":{"OBJECTID":10,"GlobalID":"82b65084-daa6-4a3d-84c2-3a5c60f538e0"}},{"type":"Feature","id":11,"geometry":{"type":"LineString","coordinates":[[18.9926700198099,69.6323099096756],[18.9931126635508,69.6318088310841],[18.9937510556508,69.6311061332778],[18.9946362236806,69.6301276895863],[18.9946702672801,69.6300980396798]]},"properties":{"OBJECTID":11,"GlobalID":"d011884d-68a6-4ff3-8627-ac7d0580644e"}},{"type":"Feature","id":12,"geometry":{"type":"LineString","coordinates":[[18.9920742976371,69.6308956104667],[18.994406422386,69.630129172859]]},"properties":{"OBJECTID":12,"GlobalID":"b62d90ed-3567-49bc-883a-65b4d0ecf68f"}},{"type":"Feature","id":13,"geometry":{"type":"LineString","coordinates":[[18.9915337544061,69.6314797045757],[18.991606105805,69.6314619156674],[18.9916954771021,69.6314767416949],[18.9917295263225,69.6314530222981],[18.9916827152338,69.6314218894525],[18.9916146241588,69.6313996512513],[18.9916103707051,69.631377413865],[18.991623141045,69.6313507292334],[18.9916954937689,69.6313151504248],[18.9917295410775,69.6313077384045],[18.9917806114809,69.6313018090721],[18.9919253207695,69.6311772817054]]},"properties":{"OBJECTID":13,"GlobalID":"2aced994-bfea-4f2b-8ea0-7a1d3d8abd15"}},{"type":"Feature","id":14,"geometry":{"type":"LineString","coordinates":[[18.9939893997623,69.6343809494005],[18.993687194133,69.6342149107984],[18.9936233490157,69.6341215139993],[18.9935722735693,69.6340266347052],[18.9934445839615,69.6339584400287],[18.9932019754743,69.6338457702432],[18.9928955278303,69.6336693527937],[18.9928274311884,69.6335848505907]]},"properties":{"OBJECTID":14,"GlobalID":"1d88acf1-2690-4738-9ccd-c25845aaea8d"}},{"type":"Feature","id":15,"geometry":{"type":"LineString","coordinates":[[18.9965815831029,69.6345128690019],[18.9967731048411,69.6343779595334],[18.9970369708832,69.6341629942398],[18.9973519134043,69.6339821247463],[18.9973731877313,69.6339376497025]]},"properties":{"OBJECTID":15,"GlobalID":"6b968fc2-2172-4842-8f52-ea1bb2ba1b2a"}},{"type":"Feature","id":16,"geometry":{"type":"LineString","coordinates":[[18.9924649814486,69.632660316297],[18.9925501084962,69.6325743326267],[18.9925671335899,69.6325609903577]]},"properties":{"OBJECTID":16,"GlobalID":"7f3028fb-bcdf-4d34-a073-c729b7808a3a"}},{"type":"Feature","id":17,"geometry":{"type":"LineString","coordinates":[[18.9903411613728,69.6328530101203],[18.9904943974241,69.6327551688609],[18.990456097898,69.63272107088],[18.990588051391,69.6326276765946]]},"properties":{"OBJECTID":17,"GlobalID":"8b7a92aa-b688-4f3e-ab11-792cf4f741f8"}},{"type":"Feature","id":18,"geometry":{"type":"LineString","coordinates":[[18.9905582280236,69.6328263295343],[18.9905369575813,69.6327610996266],[18.9906859322306,69.6326884604324],[18.9907582987996,69.6325995124003]]},"properties":{"OBJECTID":18,"GlobalID":"d0241598-c179-40c5-a4a8-5c949d48a181"}},{"type":"Feature","id":19,"geometry":{"type":"LineString","coordinates":[[18.990771045312,69.6327492439895],[18.990375245071,69.6326410148964]]},"properties":{"OBJECTID":19,"GlobalID":"d8e28216-8ce7-4a12-a141-5f6807322eaa"}},{"type":"Feature","id":20,"geometry":{"type":"LineString","coordinates":[[18.9908519138531,69.6327314555283],[18.9909413092911,69.6326054454957]]},"properties":{"OBJECTID":20,"GlobalID":"850f5f88-b818-4055-8e09-de581fa17e69"}},{"type":"Feature","id":21,"geometry":{"type":"LineString","coordinates":[[18.9910349182342,69.6327922406036],[18.9910732490661,69.6325950702204]]},"properties":{"OBJECTID":21,"GlobalID":"7174fe52-5b3c-4577-ac3a-60c99394aafd"}},{"type":"Feature","id":22,"geometry":{"type":"LineString","coordinates":[[18.9913668998993,69.6327522184339],[18.9914009585073,69.6326677170629],[18.9913413797329,69.6326128641388],[18.9914222486335,69.6325832155086],[18.9914222520305,69.6325535657361]]},"properties":{"OBJECTID":22,"GlobalID":"c3f6def0-677b-4b12-83be-4cbf2a716fd4"}},{"type":"Feature","id":23,"geometry":{"type":"LineString","coordinates":[[18.9922096150151,69.6326751389677],[18.9918989195365,69.6326840307046],[18.9916393017157,69.6326469653996]]},"properties":{"OBJECTID":23,"GlobalID":"f7b5f638-7104-4a0f-94a9-bee4fbf9edca"}},{"type":"Feature","id":24,"geometry":{"type":"LineString","coordinates":[[18.991383932768,69.6326795767326],[18.9911030366046,69.632633615397]]},"properties":{"OBJECTID":24,"GlobalID":"17a861f5-60c8-45d0-9c68-3907f0826b4a"}},{"type":"Feature","id":25,"geometry":{"type":"LineString","coordinates":[[18.9913498808836,69.6327062610443],[18.9910774981661,69.6326484398808]]},"properties":{"OBJECTID":25,"GlobalID":"5df0531b-3edf-4ef5-be36-8baafb2fae70"}},{"type":"Feature","id":26,"geometry":{"type":"LineString","coordinates":[[18.9931943440443,69.6287640513389],[18.9935900880366,69.6287447802635],[18.9936837049387,69.6287284730603]]},"properties":{"OBJECTID":26,"GlobalID":"a9c3ffae-c292-4e4a-a424-015f1e86031d"}},{"type":"Feature","id":27,"geometry":{"type":"LineString","coordinates":[[18.9960666880597,69.6270624302948],[18.9963007185683,69.6271306218427],[18.9965432552435,69.6271543383036],[18.9966879305157,69.6272002932782],[18.9968368576567,69.6272180807879],[18.9970496087729,69.6272269721421],[18.9971815123952,69.6272180748679],[18.9972751184405,69.6271928708464]]},"properties":{"OBJECTID":27,"GlobalID":"00590480-23c7-4787-8a26-58ca3fd8a0be"}}]}