{"type":"FeatureCollection","crs":{"type":"name","properties":{"name":"EPSG:4326"}},"features":[{"type":"Feature","id":1,"geometry":{"type":"LineString","coordinates":[[18.9979390273584,69.6359349918228],[18.9976963713218,69.6358163984725],[18.997534588616,69.6356607408915],[18.9974579662327,69.6356488826198],[18.9973515349798,69.6355643830637],[18.9972365932057,69.6354917435033],[18.9967981456991,69.635404284848]]},"properties":{"OBJECTID":1,"GlobalID":"1b983e04-5dfb-44f2-99f5-edc91d70c09f"}},{"type":"Feature","id":2,"geometry":{"type":"LineString","coordinates":[[18.9965555254542,69.6354650708189],[18.9970024531635,69.6353316393554],[18.9972110198906,69.6352841958249],[18.9973727545942,69.6351863484542],[18.9974919102624,69.6350203074398],[18.9977132195797,69.6348483341507],[18.9977429921708,69.6347238045792],[18.9978153350237,69.634630406261],[18.9980111186917,69.6345577598169],[18.9982707505627,69.6344984539276]]},"properties":{"OBJECTID":2,"GlobalID":"56f5c830-afd2-4a6e-941a-7f9d7834e8af"}},{"type":"Feature","id":3,"geometry":{"type":"LineString","coordinates":[[18.9992049386282,69.6341391949121],[18.9991410562324,69.6339924306738],[18.9990090425613,69.6337181745679],[18.9989579430801,69.633618849451],[18.9989919609401,69.6334854246369],[18.999191980759,69.6333905394854],[18.9994345745497,69.6333475397952],[18.9996260887737,69.6332897165974],[18.9997622664351,69.6332141052293],[18.9999665142761,69.6330421297595],[19.0001026708607,69.6329042536938],[19.0005154390672,69.6326596282002],[19.0006941512033,69.6325247150425]]},"properties":{"OBJECTID":3,"GlobalID":"94e3f0a1-3156-4c1f-892a-36de3cdbe3fa"}},{"type":"Feature","id":4,"geometry":{"type":"LineString","coordinates":[[19.0011579164596,69.6321021876924],[19.0014004879127,69.6320488079307],[19.0015579562911,69.6320428711545],[19.0016686030712,69.6320206289736],[19.0017792386037,69.6319687369949],[19.0018345464642,69.6319168474676],[19.0019877487616,69.6318871907196],[19.0023111821922,69.6318441833576],[19.0026686579056,69.6317922787822],[19.0028984335779,69.6316899755642],[19.003123940236,69.6315624700103],[19.0032686075006,69.6314898205055],[19.0034473091194,69.6313919667673],[19.0037366594144,69.6312926241881],[19.0040685613355,69.6311858662451],[19.0042047234941,69.6311384187393],[19.0045366251052,69.6310405548393],[19.004898290831,69.630898213878],[19.0049323013063,69.6308300173897],[19.0050343841677,69.6307262369262],[19.0051364691736,69.6306283863489],[19.0052641037836,69.6305616662656],[19.0053023674276,69.6304919869475],[19.0053576597334,69.630434166398],[19.0054852884664,69.6303600337294],[19.0055532859751,69.6301910258415],[19.005578764267,69.6300902151099],[19.0055574337605,69.6299938549435],[19.0054892950761,69.6299019453234],[19.0054935022657,69.6298129958901],[19.0054636462112,69.6296884690367],[19.0054550806664,69.629587660554],[19.0056252504186,69.6294987001358],[19.0058762893736,69.629440866274]]},"properties":{"OBJECTID":4,"GlobalID":"3b622974-b13a-48ae-9f2b-94c54c6571fe"}},{"type":"Feature","id":5,"geometry":{"type":"LineString","coordinates":[[19.0007154267057,69.632509889346],[19.0009409634647,69.632407588812],[19.0009494552891,69.6323468065193],[19.0010515402015,69.6321703864633],[19.001140893589,69.632105153372]]},"properties":{"OBJECTID":5,"GlobalID":"4fc25bd7-773e-488c-b73a-5cf2f5ed960b"}},{"type":"Feature","id":6,"geometry":{"type":"LineString","coordinates":[[18.9959791595765,69.6354856371161],[18.9960302265652,69.6353640725151],[18.9961025719727,69.635205445439],[18.9961281030795,69.635128355763],[18.9962089695089,69.635052747818],[18.9961067971588,69.6349163603633],[18.996140834617,69.6347814535677],[18.9960982559283,69.6346554427073],[18.9960301379215,69.6345190547474],[18.9960471525316,69.6344123154404],[18.9958683633156,69.634216629287],[18.9955533548211,69.6337852288145],[18.9954724766676,69.6336784904848],[18.9953830824856,69.6335124526843],[18.9951191792211,69.6332574669281],[18.9950553181862,69.6329416974878],[18.9949616770137,69.632826064057],[18.9950127360283,69.6325606984059],[18.9950850817417,69.6324317214737],[18.9951148679283,69.6323279471145],[18.9951957290641,69.6322760594457],[18.995161679636,69.6322538223826],[18.9949105710541,69.6321663572688],[18.9947786321471,69.6320892686285],[18.9947318098787,69.631926195187],[18.9947828764257,69.6318150083318],[18.9946892423528,69.6317127171161],[18.9947275424835,69.6316385925346],[18.9947573317126,69.631591152772],[18.994816907968,69.6314547635677],[18.9948807411605,69.6313584014967],[18.9949360544149,69.6311034132343],[18.9949317930276,69.6309877791911],[18.9949317872883,69.6308691801453],[18.9949147595209,69.6307668885661],[18.9949785897645,69.6306601490449],[18.9949573042608,69.6305163478268],[18.9950126129934,69.630228744792],[18.9950126076721,69.6301249706214],[18.9949998353141,69.6300137840877],[18.9952040944007,69.6298862887374],[18.9953147333936,69.6298121634915],[18.9954721820313,69.6297365552848],[18.9955104795652,69.6297098701586]]},"properties":{"OBJECTID":6,"GlobalID":"777257c4-47fb-40d0-87e3-58a057718d1a"}},{"type":"Feature","id":7,"geometry":{"type":"LineString","coordinates":[[18.9952152313317,69.634983447556],[18.9950790134022,69.6348455772645],[18.9949385397355,69.6346884345491],[18.9948236095537,69.6345861436088],[18.9947895521095,69.6344630973288],[18.9947938032224,69.6343474632682],[18.9949427663723,69.634126571714],[18.9949172243488,69.6340539299801],[18.9949640427749,69.6340242799281],[18.9949129633489,69.6339634982584],[18.9948065504276,69.6338715846488],[18.9946490617932,69.6337559514132],[18.9944064491468,69.6336373533535],[18.9943426033504,69.6335721240853],[18.9942404513055,69.6334891050303],[18.9941766068276,69.6334461130166],[18.9941766061899,69.6334060858429],[18.994129786499,69.6333260315787],[18.9941425543609,69.6332696970156]]},"properties":{"OBJECTID":7,"GlobalID":"4ae68aa3-6e3a-4c5b-b083-7fca8c25f0e4"}},{"type":"Feature","id":8,"geometry":{"type":"LineString","coordinates":[[18.9953045194146,69.6335617412433],[18.9951470354464,69.6335276452762],[18.9949086822742,69.6334757598264],[18.9946235125572,69.6334490765577],[18.9943170625485,69.6334312878096],[18.9941766065676,69.6334298056496]]},"properties":{"OBJECTID":8,"GlobalID":"3d0942b8-18de-4fb5-9533-3b31a3d69f0f"}},{"type":"Feature","id":9,"geometry":{"type":"LineString","coordinates":[[18.9943043151189,69.6343771150754],[18.9942830318228,69.6343252280618],[18.9942149267409,69.6341992167678]]},"properties":{"OBJECTID":9,"GlobalID":"f8eee9bf-dca9-43d2-853b-b732f18a8da6"}},{"type":"Feature","id":10,"geometry":{"type":"LineString","coordinates":[[18.9938999551697,69.6346009714049],[18.9939935962665,69.6344438276225],[18.9941042618192,69.6342985436676],[18.9943128199388,69.634031695398],[18.994295792124,69.6339249563221],[18.9942659962417,69.6338523144957],[18.994214918101,69.633729268124],[18.9941808665238,69.6336581087774],[18.994155327927,69.6336002917986],[18.9941212771258,69.6335558172207],[18.994146813356,69.6334624204388],[18.9941595817387,69.6334387006091]]},"properties":{"OBJECTID":10,"GlobalID":"fe3c7415-bbc1-4587-b5e8-15aca55534fd"}},{"type":"Feature","id":11,"geometry":{"type":"LineString","coordinates":[[18.9936232817771,69.6348945039295],[18.9936871301231,69.6348322394931],[18.9937765172686,69.634682508258],[18.9939042116248,69.6345965239392]]},"properties":{"OBJECTID":11,"GlobalID":"5c36d2b1-6930-4f10-8a99-b34f5860cf18"}},{"type":"Feature","id":12,"geometry":{"type":"LineString","coordinates":[[18.9943298648807,69.6348322387342],[18.9946065351788,69.6347373584731]]},"properties":{"OBJECTID":12,"GlobalID":"e176f0ea-502c-4bb3-abbb-372bbfd19398"}},{"type":"Feature","id":13,"geometry":{"type":"LineString","coordinates":[[18.9948364114236,69.6352517804558],[18.9943171021198,69.6351109464565],[18.9937807734262,69.6350397878217]]},"properties":{"OBJECTID":13,"GlobalID":"e6df792d-6714-4e1e-8444-1ab1acd90809"}},{"type":"Feature","id":14,"geometry":{"type":"LineString","coordinates":[[18.9951982395542,69.6355038007893],[18.9949385782775,69.6354059585169],[18.9945171674091,69.6352918092342],[18.9941170440513,69.6351806238609],[18.9938318522151,69.6350575776721],[18.9932997851299,69.6348959857934],[18.9930018317557,69.6347877630679],[18.9927421877672,69.6347210497277],[18.9926315209708,69.6346810218443],[18.9924229503472,69.6347195650157],[18.9918908784965,69.6348233341941],[18.9914737300098,69.6349093134754],[18.9913843421942,69.6349137597322],[18.9902734509884,69.6345179164603],[18.9899372224207,69.6343429756907]]},"properties":{"OBJECTID":14,"GlobalID":"2b26c51e-1770-420f-805b-5e12efa1b534"}},{"type":"Feature","id":15,"geometry":{"type":"LineString","coordinates":[[18.9924825456793,69.6346498885334],[18.9926400344425,69.6346721269726]]},"properties":{"OBJECTID":15,"GlobalID":"2c09c67b-15a9-4c2a-bb57-45bd081531a6"}},{"type":"Feature","id":16,"geometry":{"type":"LineString","coordinates":[[18.9924229549709,69.6346484055854],[18.9920143335724,69.6346335770041],[18.9916184818553,69.6346217126054],[18.9913971461862,69.6346098497969]]},"properties":{"OBJECTID":16,"GlobalID":"c3c4d6ae-6bca-46a2-850a-5a7b04bd3900"}},{"type":"Feature","id":17,"geometry":{"type":"LineString","coordinates":[[18.9931167575184,69.6347907285309],[18.9928571149204,69.6346839881852],[18.9924144480174,69.634556491253],[18.9916185102661,69.6343459697755],[18.9913801544899,69.6343103869078],[18.9910694437566,69.6342496002911],[18.9908268400252,69.6341680594532],[18.9906736364964,69.6339886756528],[18.9905374592582,69.6338196694485],[18.9904353259959,69.633704033385],[18.9904268183811,69.6336729009575],[18.9904779090778,69.6335765401767],[18.9903119495679,69.6333645410306],[18.9902864362133,69.6332207391039],[18.9902226207043,69.6330591465172],[18.9901673069206,69.6329642660792],[18.990120510584,69.6328427010031],[18.9900609353911,69.6327834001693],[18.9899800848838,69.6326974140444],[18.9899247608286,69.6326692455229],[18.9898098661082,69.6325654686806],[18.9898226343202,69.632565468975]]},"properties":{"OBJECTID":17,"GlobalID":"efbd82e0-620d-4b5d-8898-844b9224b018"}},{"type":"Feature","id":18,"geometry":{"type":"LineString","coordinates":[[18.9907780681027,69.6343676613997],[18.9909653677288,69.6342431355075],[18.9912037475776,69.6340711705589],[18.9913569960096,69.6339066165605],[18.9918422399791,69.6336768370208],[18.9920720883175,69.6335730652928]]},"properties":{"OBJECTID":18,"GlobalID":"d54a41da-0a8a-4d1a-9989-89eb470adea2"}},{"type":"Feature","id":19,"geometry":{"type":"LineString","coordinates":[[18.9903992419594,69.6343913742516],[18.9903865008452,69.6342164403451],[18.9903397328448,69.6338962218711],[18.9904248915916,69.6336960875707]]},"properties":{"OBJECTID":19,"GlobalID":"61e2f9af-6e23-49a8-bb81-8a656427d75d"}},{"type":"Feature","id":20,"geometry":{"type":"LineString","coordinates":[[18.9925325388368,69.6334558338546],[18.9926389513657,69.6333431655067],[18.9929071001477,69.6331919533405],[18.9931922687401,69.6330748380666],[18.9933497491288,69.6329858892949],[18.9934604102077,69.6329251075618],[18.9936264003382,69.6328628433523],[18.9938306946152,69.63272941957],[18.9939370966335,69.632594513139],[18.9941882035513,69.6325011161021]]},"properties":{"OBJECTID":20,"GlobalID":"179f98b3-b24c-485c-b29f-0f77497ed3a2"}},{"type":"Feature","id":21,"geometry":{"type":"LineString","coordinates":[[18.9941626784027,69.6332660799488],[18.9943371799409,69.6331371030947],[18.9943967624704,69.6329814416866],[18.9944520855379,69.6327368309972],[18.9944733641134,69.6326701189661],[18.9943456781953,69.6325278005219]]},"properties":{"OBJECTID":21,"GlobalID":"03d89665-43ef-4b47-a7df-96db62f13bab"}},{"type":"Feature","id":22,"geometry":{"type":"LineString","coordinates":[[18.9941328848646,69.633260150049],[18.9941371393939,69.6331385860299],[18.9941754429767,69.6330051620455],[18.9941924653594,69.6328658081435],[18.9942563043373,69.6327101467703],[18.9943031190433,69.6325974775703],[18.9943243977968,69.6325233531154]]},"properties":{"OBJECTID":22,"GlobalID":"c6327405-dbc5-4b7d-8483-bac1ee49659a"}},{"type":"Feature","id":23,"geometry":{"type":"LineString","coordinates":[[18.9942903489921,69.6325070458341],[18.9941754333635,69.6323632447375],[18.9941626613289,69.6320771245617],[18.994043493638,69.632011895241],[18.99407328469,69.6319422182679],[18.9941669142719,69.631856233827],[18.9941839369779,69.6317865568566],[18.9940392343821,69.6315715962631],[18.9938775114074,69.6314426198546],[18.9938647440483,69.6313017834698],[18.99385623259,69.6312039392428],[18.9938860232201,69.6310838576968],[18.9940902989502,69.6309370912557],[18.9941924349736,69.6308051496628],[18.9944094724564,69.6306346630285],[18.9944477706747,69.6305190288338],[18.9946222466089,69.6303366821654],[18.9946903341381,69.6302699699092],[18.9947711870828,69.6301795377548],[18.994924383101,69.6300683503321],[18.9949541695675,69.6300164630733]]},"properties":{"OBJECTID":23,"GlobalID":"603c27ab-6f09-41c7-8a52-370392641cf2"}},{"type":"Feature","id":24,"geometry":{"type":"LineString","coordinates":[[18.9954818357687,69.6297021717088],[18.9954648113382,69.6296680746316],[18.9953626689046,69.6295079667729],[18.9952818011478,69.6292841116937],[18.9952094534384,69.6291877504955],[18.9952349807683,69.6291047309686],[18.995111571166,69.6290365373696],[18.9951413530637,69.628935727967],[18.9950860305504,69.6288779112894],[18.9950860276368,69.6288230592221],[18.9949328286208,69.6286585039347],[18.9949881438355,69.6285858616897],[18.9951625939637,69.6283012228205]]},"properties":{"OBJECTID":24,"GlobalID":"1fe73454-383f-481d-8513-48a8069401e4"}},{"type":"Feature","id":25,"geometry":{"type":"LineString","coordinates":[[18.9951479050849,69.6282814591247],[18.9951351383175,69.6282607043728],[18.9951819431426,69.6282177118931],[18.9953521510521,69.6282177106359],[18.9953478917355,69.6281539636709],[18.9954840574419,69.6281509975742],[18.9957053252109,69.6281287582045],[18.9955691573494,69.6281005922184],[18.9958372346117,69.6281154144584],[18.9956882972137,69.628038326587],[18.9959180791832,69.6280739039106],[18.9959904164872,69.6280679731415],[18.9960031786006,69.6280323932773],[18.9959861560003,69.6280116386381],[18.9960074283874,69.6279760586759],[18.9960201905633,69.6279419612987],[18.9960414659866,69.6279389960733]]},"properties":{"OBJECTID":25,"GlobalID":"44aa89a3-ac5d-4fa5-a630-3fbccab82343"}},{"type":"Feature","id":26,"geometry":{"type":"LineString","coordinates":[[18.9964031425425,69.6278470771811],[18.9965095160369,69.6278085309882],[18.9965605790348,69.6278218726379],[18.9967137583266,69.6277833256279],[18.9967392870667,69.6277685003476]]},"properties":{"OBJECTID":26,"GlobalID":"69bfe262-464a-4ab0-913a-9252d0ec7988"}},{"type":"Feature","id":27,"geometry":{"type":"LineString","coordinates":[[18.9958542143377,69.6276499129618],[18.9959435682357,69.6276187797334],[18.9959520640358,69.627463118368],[18.9960669368546,69.6273252456355],[18.9960456494859,69.6271977518917]]},"properties":{"OBJECTID":27,"GlobalID":"b7e39925-7749-4a6e-9c6d-6d7fdec92655"}},{"type":"Feature","id":28,"geometry":{"type":"LineString","coordinates":[[18.9960243732492,69.627184409744],[18.9960243642239,69.6270895304913]]},"properties":{"OBJECTID":28,"GlobalID":"d22fecd4-c572-41ae-b671-225753979777"}},{"type":"Feature","id":29,"geometry":{"type":"LineString","coordinates":[[18.9960606508633,69.6269761202182],[18.9960521332653,69.6268960659473],[18.9959797918466,69.6268145299162],[18.9960861604231,69.626770054037],[18.9961031740767,69.6267092718119],[18.9962052865281,69.6266603484482],[18.9960989072639,69.6265877078162],[18.9961669817561,69.626553609761],[18.996056353431,69.626534338735]]},"properties":{"OBJECTID":29,"GlobalID":"cf6b42e5-8d24-4fd7-8445-db4342027c7f"}},{"type":"Feature","id":30,"geometry":{"type":"LineString","coordinates":[[18.9960691164397,69.6265180312136],[18.9960988959448,69.6264720737222],[18.9961669685752,69.6264231507839],[18.9964222510058,69.6263534705176],[18.9964009747286,69.6263341984593],[18.9961967400101,69.6263015863687],[18.9961754615898,69.6262585944677],[18.9961116367431,69.6262304279599],[18.99623077037,69.6262230140583],[18.9963328827948,69.6261978104405],[18.9963328826339,69.6261963279521],[18.9963711713572,69.6261563002576],[18.9963711674362,69.6261207205366],[18.9962775590315,69.6260895895072],[18.9963924311111,69.6260288059711],[18.9963541329322,69.6259798843661],[18.996469010322,69.6259724703635],[18.9964477320355,69.6259324434718],[18.9965923940894,69.6259398538596],[18.9966136607825,69.6258820365017],[18.9967455500401,69.6258242174651],[18.9967285249744,69.6257752956122],[18.9968561567995,69.6257041341652],[18.996847647411,69.6257041343018]]},"properties":{"OBJECTID":30,"GlobalID":"a1219b2a-acb5-44d4-9fc1-5fe9e1e908be"}},{"type":"Feature","id":31,"geometry":{"type":"LineString","coordinates":[[18.9973582155553,69.6257352576249],[18.9975964938898,69.6258256847252],[18.9978007300623,69.6258805325155],[18.9980134778741,69.6259413098234],[18.9981624047413,69.6259976409213],[18.9982645353141,69.6260806578106],[18.9982645550954,69.6261799845041],[18.9981199096927,69.62627041971],[18.9979710112703,69.6263771622636],[18.9979199612137,69.6264201555591],[18.9978433837465,69.6264735268152],[18.997766805114,69.6265224505749],[18.9978604210791,69.626572853139],[18.9979923286129,69.6266084299069]]},"properties":{"OBJECTID":31,"GlobalID":"aa900886-caf0-4ead-a461-5e023bc1c152"}},{"type":"Feature","id":32,"geometry":{"type":"LineString","coordinates":[[18.998707255162,69.6270961507034],[18.9987029838171,69.6270220264303],[18.9987795517442,69.626927145145],[18.9989156919596,69.6268500520228],[18.9990263115404,69.6268144691857],[18.9991326662084,69.6267388592367],[18.9991411706468,69.6267166216724]]},"properties":{"OBJECTID":32,"GlobalID":"338638c1-98d0-44fb-9066-1955fffc3afd"}},{"type":"Feature","id":34,"geometry":{"type":"LineString","coordinates":[[18.9945117971972,69.6246575190223],[18.9945203045208,69.6245804295735],[18.9949457428156,69.6243669495521],[18.9949797778608,69.6243580544455],[18.9953456574492,69.6243402623022],[18.9954988126858,69.6242809615704],[18.9956689855525,69.6242335204635],[18.9959327534934,69.6241771832948],[18.9964773029681,69.6240674725244],[18.9967665924528,69.6240081687854]]},"properties":{"OBJECTID":34,"GlobalID":"f6138ad0-4dc3-4a02-92f9-5c34ff8120d4"}},{"type":"Feature","id":35,"geometry":{"type":"LineString","coordinates":[[18.9967327062303,69.6251941601009],[18.9967156993774,69.6252860746424],[18.9967071979384,69.6253483392849],[18.9967497532123,69.6254194980767]]},"properties":{"OBJECTID":35,"GlobalID":"5f34b663-f909-43ca-a7c9-db589cbe71fe"}},{"type":"Feature","id":36,"geometry":{"type":"LineString","coordinates":[[18.9973198422246,69.6252089750158],[18.9973453831127,69.6252949588579],[18.9972773124685,69.6253157149613],[18.9973453959805,69.6253779782008],[18.9973368949785,69.6254313479381],[18.9973624320625,69.6254906469867],[18.9972433120863,69.6255588436625],[18.9973028833036,69.6255973872586]]},"properties":{"OBJECTID":36,"GlobalID":"78fea0c9-7cb5-4825-90c0-670c6ed8b628"}},{"type":"Feature","id":37,"geometry":{"type":"LineString","coordinates":[[18.9992915096792,69.6290463052727],[18.9994872315971,69.6289514200122],[18.99959784139,69.6288417124242],[18.9995127102239,69.6287468359522],[18.9996063063858,69.6286697436202],[18.9996062788599,69.6285659695061],[18.9994020019099,69.6284710967677],[18.9994275174057,69.628408831503],[18.9994104744829,69.6283228477619],[18.9994530098383,69.6282576169897],[18.9994104464407,69.628213143692],[18.9994700053733,69.6281597722865],[18.9994700015444,69.6281449474122],[18.9995465870301,69.628115295246],[18.9994019020204,69.6280797200852],[18.9995550841634,69.6280648904029],[18.9994784720398,69.627990768451],[18.9994784613117,69.6279492588023],[18.9994188809954,69.6279166459363],[18.9994614231806,69.6278810649118],[18.9995465148805,69.6278395525821],[18.9996741549813,69.6277891439112],[18.9996826405886,69.6276972294134],[18.999699660156,69.6276942638846],[18.999716674928,69.6276735085049]]},"properties":{"OBJECTID":37,"GlobalID":"b7457b86-851a-4f99-b6b7-cb6bb8dd83f1"}},{"type":"Feature","id":38,"geometry":{"type":"LineString","coordinates":[[18.9996658553457,69.6285763449899],[18.9999168878753,69.6284755275081],[19.000116857887,69.6283836063953],[19.0002062115872,69.628362848417]]},"properties":{"OBJECTID":38,"GlobalID":"f7cabc97-6e36-4199-bb67-a84e9a814c32"}},{"type":"Feature","id":39,"geometry":{"type":"LineString","coordinates":[[18.9996872882113,69.6291574793158],[18.999704311347,69.6291634087067],[18.9997384387934,69.6294732474156]]},"properties":{"OBJECTID":39,"GlobalID":"2e81d9db-601b-429b-9d02-31c12ac87b29"}},{"type":"Feature","id":40,"geometry":{"type":"LineString","coordinates":[[18.9964282936749,69.6344144568663],[18.9965261809369,69.6343299536038],[18.9967432220401,69.6340660673819],[18.9968453657774,69.6340023186983],[18.9969858091462,69.6338926121661],[18.9972709660852,69.6337858677181],[18.9974156628879,69.6336806082289]]},"properties":{"OBJECTID":40,"GlobalID":"7300cbfa-3db7-4449-b399-da4cb4adbe77"}},{"type":"Feature","id":41,"geometry":{"type":"LineString","coordinates":[[18.9959728795364,69.6346561085115],[18.9958792290655,69.6345760553246],[18.9958749652538,69.6345004485176],[18.995896230097,69.6343225497765]]},"properties":{"OBJECTID":41,"GlobalID":"ce471750-91af-47d8-bba4-5da765f111b0"}},{"type":"Feature","id":42,"geometry":{"type":"LineString","coordinates":[[18.9881109856325,69.6257517223151],[18.988336514598,69.6256420255176],[18.9884556648935,69.6255693873338],[18.9885960986716,69.6254537575187],[18.9887535387516,69.6253811203233],[18.9888343840698,69.6253514729425],[18.9890598863345,69.6253218296997],[18.989357720693,69.6252729157485],[18.9896768257724,69.6252284492971],[18.9897151181104,69.6252240027781]]},"properties":{"OBJECTID":42,"GlobalID":"23402a3a-bb9a-4903-9068-c14690c28d56"}},{"type":"Feature","id":43,"geometry":{"type":"LineString","coordinates":[[18.9884471469782,69.6256020018463],[18.988732228585,69.6255293686926],[18.98895348176,69.6254849005512],[18.9892385536998,69.6254404338942],[18.9895108567379,69.6254137563271],[18.9896300032853,69.6253337049104],[18.9897491522363,69.6252373460257]]},"properties":{"OBJECTID":43,"GlobalID":"c1351695-27c4-4f9f-955d-efa504542090"}},{"type":"Feature","id":44,"geometry":{"type":"LineString","coordinates":[[18.9878088821934,69.6258169414182],[18.9881067309233,69.6257517221713]]},"properties":{"OBJECTID":44,"GlobalID":"5ffad14d-b7c8-4427-82b2-52d6f701defd"}},{"type":"Feature","id":45,"geometry":{"type":"LineString","coordinates":[[18.9877961180262,69.6258169409644],[18.9876003994484,69.6258213813621],[18.987532328855,69.6258050714569],[18.9873834154996,69.6257991359091],[18.9872557621221,69.62583619328],[18.9870600364392,69.6258613879414],[18.9867622077428,69.6258539633899],[18.9866813448231,69.6259206720916],[18.986417541155,69.6259473456635],[18.9864728428942,69.6259755153772],[18.9863111627429,69.6259740258425],[18.986166480269,69.6260303540566],[18.9858728991314,69.6260362706075],[18.9857069637789,69.6260347803189],[18.9854729408504,69.6260614538885],[18.9853920755084,69.6261222320463],[18.9853324812719,69.6261889411871],[18.9852261033469,69.6262082082612],[18.9850729017881,69.6262763950848],[18.9850132841717,69.626394991299],[18.985085587202,69.6264646720666],[18.9851323305708,69.6266084760487],[18.9851238208062,69.6266084756174],[18.9851238282372,69.6265906857283],[18.9849621081682,69.6266722144479],[18.9848557039025,69.6267463334645],[18.9847705690208,69.6268308309763],[18.9847450239743,69.6268664094086]]},"properties":{"OBJECTID":45,"GlobalID":"91c3cbac-89d1-433b-a17f-40fda698599f"}},{"type":"Feature","id":46,"geometry":{"type":"LineString","coordinates":[[18.9771755386772,69.6261735156373],[18.9773500319442,69.6261142326181],[18.9777032077839,69.6260772035452],[18.9779456137912,69.6262314051632],[18.9779839204997,69.6262136187629],[18.9782051418499,69.6262521836653],[18.9783199879555,69.6262981512523],[18.978532750751,69.6262685203332],[18.9786518685339,69.6262922506935],[18.9788518209105,69.6263263654306],[18.9792219405794,69.6263990391791],[18.9792687212603,69.6264316579477],[18.9794899572926,69.626455396294],[18.9798600902354,69.6265147262536],[18.9799706786169,69.6265725523339],[18.9801238242389,69.6266185217838],[18.9802429121679,69.6266941382632],[18.980357738423,69.6267816142613],[18.9804512588399,69.6269194932551],[18.9806170787016,69.6271151949054],[18.9806808209299,69.6272471415208],[18.9808551849159,69.6273954038418]]},"properties":{"OBJECTID":46,"GlobalID":"12f502ff-1207-4024-b09f-5f826f6c8e3c"}},{"type":"Feature","id":47,"geometry":{"type":"LineString","coordinates":[[18.9802429466962,69.6266407685589],[18.9804513863256,69.6267193568726],[18.9808938857091,69.6267371804387],[18.9811832115835,69.6267505442708],[18.981404438965,69.6267980000479],[18.9816724999343,69.6267965366235],[18.9820298941828,69.6268306587107],[18.9822298561351,69.626866252052],[18.9826468627613,69.6268232873211],[18.9831956880472,69.6269419213222],[18.9832807601581,69.626995296228],[18.9835147574254,69.6270471975718],[18.9838338710348,69.6270664887539],[18.9841146959128,69.6270739172707],[18.984250839521,69.6271080221865],[18.9845061318648,69.6271228611066],[18.9847018398223,69.6271717937924],[18.9849018176221,69.6271881116816],[18.9850592531808,69.6271866372891]]},"properties":{"OBJECTID":47,"GlobalID":"0682aa0a-d5e3-444b-a5bf-0bdce0c7ee9b"}},{"type":"Feature","id":48,"geometry":{"type":"LineString","coordinates":[[18.9808628893659,69.6274009663108],[18.9809733790392,69.6276322432387],[18.9811987589491,69.62786501099],[18.9813731448742,69.6279910353902],[18.9817517537122,69.6281659961794],[18.9821005920996,69.628323164221],[18.9822154324655,69.628415086412]]},"properties":{"OBJECTID":48,"GlobalID":"52b2865b-bf05-47cb-bec0-a06c78492cc6"}},{"type":"Feature","id":49,"geometry":{"type":"LineString","coordinates":[[18.9811904634907,69.6275077299292],[18.9816797478709,69.6275907844882],[18.9818116070295,69.6276752957049],[18.9821008841244,69.6277998448237],[18.9823646790443,69.6278413722577],[18.9823901767223,69.6279021560857],[18.9823901759149,69.6279036385769]]},"properties":{"OBJECTID":49,"GlobalID":"56466bf7-32e7-44b0-9a6f-82f166900e15"}},{"type":"Feature","id":50,"geometry":{"type":"LineString","coordinates":[[18.9822877618718,69.6284328811391],[18.9825728103622,69.628532226799],[18.9828834009606,69.6286167486915],[18.9830195258778,69.628702741717],[18.9832747956351,69.6287991193688],[18.983487519405,69.62888511667],[18.9836874852662,69.6289577705433],[18.9838619090438,69.6290541425678]]},"properties":{"OBJECTID":50,"GlobalID":"1e1accc2-d5f9-4855-9682-20d02ad25e48"}},{"type":"Feature","id":51,"geometry":{"type":"LineString","coordinates":[[18.9849044927709,69.6290126897236],[18.9846577406344,69.6288777701744],[18.984402478358,69.6287487797655],[18.9842025242952,69.6286494418754]]},"properties":{"OBJECTID":51,"GlobalID":"81eee6c5-5471-4d8e-9d7f-65cff0a2a33d"}},{"type":"Feature","id":52,"geometry":{"type":"LineString","coordinates":[[18.9834196564941,69.6284359178639],[18.9832112010085,69.6283336133229],[18.982951696552,69.6282090679597],[18.9828283181597,69.6281660679195],[18.9827007023579,69.6280904527134],[18.982539046944,69.6280133527024],[18.9823901847962,69.627887331174]]},"properties":{"OBJECTID":52,"GlobalID":"45bf322c-70ca-4544-9751-6c068df8dbc7"}},{"type":"Feature","id":53,"geometry":{"type":"LineString","coordinates":[[18.9948778532496,69.631155040082],[18.9945288791462,69.6311654191053],[18.994324601065,69.63115207733],[18.994111811534,69.6311253929326]]},"properties":{"OBJECTID":53,"GlobalID":"7a851d68-3895-4b08-bb3c-adda18dd7c6e"}},{"type":"Feature","id":54,"geometry":{"type":"LineString","coordinates":[[18.9996445269591,69.6273059192986],[18.9994019874665,69.62729110207],[18.9991807150329,69.6272421866618],[18.9990573270756,69.6272718400196],[18.9990062565324,69.6272273668564],[18.998844558528,69.6271917916965],[18.9987381652834,69.627108775292]]},"properties":{"OBJECTID":54,"GlobalID":"23de0604-1751-4ccf-b367-f979793c90c6"}},{"type":"Feature","id":55,"geometry":{"type":"LineString","coordinates":[[18.99678191083,69.6242998320837],[18.9971647431312,69.6238521142309],[18.9979048897517,69.6232620692881],[18.9982025774488,69.6227076119158],[18.9985257990189,69.6222747174711],[18.9988064703968,69.6218507185242],[18.9988489433862,69.6215512547274],[18.9989084682804,69.6214207941376]]},"properties":{"OBJECTID":55,"GlobalID":"71ca3845-b94f-4699-b92d-ac6e05ef9deb"}},{"type":"Feature","id":56,"geometry":{"type":"LineString","coordinates":[[18.9984647184007,69.6196926457144],[18.9981073521091,69.619295347047],[18.997937167275,69.619019607813]]},"properties":{"OBJECTID":56,"GlobalID":"2402b022-669f-4c4b-a92d-7405a261aa9b"}},{"type":"Feature","id":57,"geometry":{"type":"LineString","coordinates":[[18.9986750478542,69.6176359810174],[18.9989471129839,69.6170370483895],[18.9991086317725,69.6166249120566],[18.9993892135607,69.6161742274355],[18.9995847547913,69.6158243542259],[18.9997633141415,69.6156108703269],[19.0002564612629,69.6150267536098],[19.0004179930707,69.6147984447572],[19.0005879889205,69.614442641408],[19.0005709009666,69.6141757939978],[19.0006473921253,69.6140008575554],[19.0009619667682,69.6136806283291],[19.0010979592462,69.6134256350374],[19.0012339571565,69.6131973264465],[19.0013359486203,69.6130105288027],[19.0013698937261,69.6127911190756],[19.0014293339069,69.6125213036879],[19.0016673629122,69.6122692708141],[19.0019988531704,69.6118037551791],[19.0020668421583,69.611688118073],[19.0020753128187,69.6115962033828],[19.0021348121252,69.6115220763157]]},"properties":{"OBJECTID":57,"GlobalID":"be349457-3484-4bb7-ad77-2a0fd7706d6d"}},{"type":"Feature","id":58,"geometry":{"type":"LineString","coordinates":[[19.0029620059084,69.6112504359466],[19.0028173135964,69.6109183654288],[19.0029363088849,69.6107849356799],[19.002876744935,69.6106841293148],[19.0029957302318,69.610529944683],[19.0029106675336,69.6104558243725],[19.0030721915363,69.6103609371861],[19.0029871221208,69.6102690270427],[19.0030976373828,69.6102037920982],[19.0032421143885,69.610016991287],[19.0033525903811,69.6098628068506],[19.0034801135227,69.6098094307188],[19.0036670596024,69.6095307130613],[19.0035820024673,69.6094654879986]]},"properties":{"OBJECTID":58,"GlobalID":"1b0c9488-797d-4130-b42d-0570cec2bdea"}},{"type":"Feature","id":59,"geometry":{"type":"LineString","coordinates":[[19.0034118960024,69.6093498626335],[19.0034798597776,69.6092105051791]]},"properties":{"OBJECTID":59,"GlobalID":"a18c25e3-9d68-4ef3-91a6-1d589d600d91"}},{"type":"Feature","id":60,"geometry":{"type":"LineString","coordinates":[[19.0036073481961,69.6090859694938],[19.003411736592,69.6089703454443],[19.0032586501533,69.6088784388668],[19.0032926534224,69.6088606472885]]},"properties":{"OBJECTID":60,"GlobalID":"1073823a-919c-425f-9c7f-5a8423e08a08"}},{"type":"Feature","id":61,"geometry":{"type":"LineString","coordinates":[[19.0030970456179,69.6087450228734],[19.0030034303276,69.6085285840316],[19.0030034030469,69.6084603895285],[19.0030288784104,69.6083803338691],[19.0030883453466,69.608255801863],[19.0031562898476,69.6080719698487],[19.0030457059038,69.6079385512478],[19.0030711674102,69.6078258808172],[19.003317695521,69.6077369192245],[19.0036236694851,69.6074908103491],[19.0036491261871,69.607375174863],[19.003615049543,69.6072150677985],[19.0036065057971,69.6071172239504],[19.0037169864117,69.6070134439349],[19.0037169057933,69.6068266502903],[19.0037593045021,69.6065716599014],[19.0038952463159,69.6063759640999],[19.0038951642818,69.60618917045],[19.003963137628,69.6061002174474],[19.0040310655404,69.6059104551475],[19.004379582168,69.6058155566196],[19.0046259948341,69.6055427645989]]},"properties":{"OBJECTID":61,"GlobalID":"70981eba-aa2c-442a-9fa3-ea2ce2b0b374"}},{"type":"Feature","id":62,"geometry":{"type":"LineString","coordinates":[[18.9989470659384,69.633511785205],[18.9986661228658,69.6333783693449],[18.9985937517552,69.6333101769217],[18.9983553845724,69.6332197515119]]},"properties":{"OBJECTID":62,"GlobalID":"7e492fa9-dd5e-4abd-9d1e-e993c7a2917a"}},{"type":"Feature","id":63,"geometry":{"type":"LineString","coordinates":[[18.998317349494,69.6345021037047],[18.9985344164039,69.6344472459785],[18.9988451170006,69.6343642180762],[18.9991132444408,69.6342545061604],[18.9992025985039,69.6341344220142]]},"properties":{"OBJECTID":63,"GlobalID":"a8737719-8e1c-4b2b-9ffb-461eb3ec65a7"}},{"type":"Feature","id":64,"geometry":{"type":"LineString","coordinates":[[19.0012538153653,69.633109948982],[19.0014921636808,69.633117351183],[19.0017603009672,69.633112891827],[19.002036935635,69.6330698870221],[19.0022624976589,69.6330328141871],[19.0025774410561,69.6330031490687],[19.0028285676808,69.6330357510826],[19.0030073300841,69.6330446367527],[19.0033350483106,69.6330312769545],[19.0034882598258,69.6330090313093],[19.0036585065396,69.6330105043539],[19.0038117404707,69.6330371804604],[19.0039394469571,69.6330831302189],[19.0040671611181,69.6331439047402],[19.0041991437464,69.6332283986862],[19.0042587638553,69.6332965894998],[19.0044715949865,69.6333380863266],[19.0046758842911,69.6333202839943],[19.0048886864352,69.6333039633745],[19.0050589285362,69.6332920926819],[19.0052887780385,69.6333187625674],[19.0053824331924,69.6333528535948],[19.0055186305516,69.6333498796061],[19.0056590857341,69.6333498701956],[19.0058506280782,69.633372094462],[19.0060336456187,69.6333720818306],[19.0065103159564,69.6333275734775],[19.006655036113,69.6333423878139],[19.0069104208767,69.6333616412721],[19.0071530392804,69.6333838602968],[19.0074424738439,69.6334016279035],[19.0075148230283,69.6333912448806],[19.0077573774003,69.6333141365767],[19.0077403525639,69.633314137927],[19.0077105610329,69.6333171052558],[19.0077488630438,69.6333111722822]]},"properties":{"OBJECTID":64,"GlobalID":"cb04368a-0bf2-494e-9976-7c8a7276ade6"}},{"type":"Feature","id":65,"geometry":{"type":"LineString","coordinates":[[19.0044336858379,69.634134183418],[19.0047698975128,69.6340526260416],[19.0048890539638,69.6340111089675],[19.0050507811933,69.6339844139483],[19.0051742001673,69.6339562387794],[19.0053103902149,69.6339325101448],[19.0054040005242,69.6338791345134],[19.0055274029257,69.6338227918772],[19.0056635851239,69.6337872030894],[19.0058550962236,69.6337471629556],[19.0059444531339,69.6337026822451],[19.0059912562016,69.6336745117845],[19.0061317040891,69.6336581946511],[19.0063274833415,69.6336418734721],[19.0064594032472,69.633600354436],[19.0066381289937,69.633538077098],[19.0069360175166,69.6334580008979],[19.0071147286438,69.6333764507757],[19.0072593990451,69.6333112104193],[19.007314692206,69.6332519067756],[19.0075317258151,69.6332014854752]]},"properties":{"OBJECTID":65,"GlobalID":"9327995b-32de-4a56-83d0-fe12e86bd270"}},{"type":"Feature","id":66,"geometry":{"type":"LineString","coordinates":[[19.0079264969666,69.6331975725441],[19.0079350093379,69.6331975718603],[19.0081606071281,69.6332272032853],[19.0083223847803,69.6332894543672],[19.008496939178,69.633362081623],[19.0086289643963,69.6334806693219],[19.0086332897276,69.6335799954376],[19.0084929046002,69.6336837811652],[19.0083141760539,69.6337356829863],[19.0079397058362,69.6338617247327],[19.0079695138639,69.6338824771196]]},"properties":{"OBJECTID":66,"GlobalID":"27b63bb3-b391-4334-aeb0-c3c5bd4fdd92"}},{"type":"Feature","id":67,"geometry":{"type":"LineString","coordinates":[[19.0083268792747,69.6336393204226],[19.0082162542455,69.633695663956],[19.0080971210105,69.6337594205379],[19.0079524619954,69.6338424514021],[19.0079738204702,69.6339580835009],[19.0080121799151,69.634036652099],[19.0080207648585,69.6341448727976],[19.0080974462807,69.6342441930535]]},"properties":{"OBJECTID":67,"GlobalID":"dcb6fa4d-26ff-44ad-b67b-db65dc5aaecf"}},{"type":"Feature","id":68,"geometry":{"type":"LineString","coordinates":[[19.0013428170454,69.6350155058503],[19.001598210801,69.6350169771611],[19.0018152961562,69.6350199323418],[19.0018706229208,69.6349976925127],[19.001977037803,69.6350006525535],[19.0020536597346,69.6350110263649],[19.0022239136015,69.634990263463],[19.0023728945729,69.6349947036991],[19.002555926779,69.6349961771393],[19.0026964040572,69.6350228548127],[19.0027559951917,69.6350213692926]]},"properties":{"OBJECTID":68,"GlobalID":"60048af3-29bc-4495-b4e7-b5a5e4d28b35"}},{"type":"Feature","id":69,"geometry":{"type":"LineString","coordinates":[[19.0025899779452,69.6349932104636],[19.0027942747087,69.634951690498],[19.0029687596152,69.6348745921983],[19.0030666428867,69.6348360424227],[19.0031730381684,69.6347960096531],[19.0033645597271,69.6347485597709],[19.0034879705266,69.6346877710843],[19.0036326554632,69.6346106737792],[19.0038752231038,69.6345024385672],[19.0040114088662,69.6344594386141],[19.0040071410574,69.6344357190919],[19.0041262608931,69.6343111833324],[19.0041475278273,69.6342800498821],[19.0042581776117,69.6342459461588],[19.0042624194514,69.6342162961937],[19.0043134778684,69.6341792310046]]},"properties":{"OBJECTID":69,"GlobalID":"3357f8b3-61cc-4cda-b211-1d37bcd304a0"}},{"type":"Feature","id":70,"geometry":{"type":"LineString","coordinates":[[18.9919209031716,69.6334860811962],[18.9924061134687,69.6335246305196],[18.9928062042109,69.6334786761893],[18.9932275725464,69.6334979505037],[18.9937468357678,69.633469784264],[18.993883035694,69.6334490294492]]},"properties":{"OBJECTID":70,"GlobalID":"bcb2f4e1-7897-4295-b4e4-7a70ca1c5a39"}},{"type":"Feature","id":71,"geometry":{"type":"LineString","coordinates":[[18.9925891396419,69.6334060328552],[18.9928147167139,69.6334786762391]]},"properties":{"OBJECTID":71,"GlobalID":"91d52880-e5dc-43da-b447-a687385d3d43"}},{"type":"Feature","id":72,"geometry":{"type":"LineString","coordinates":[[18.9931722409986,69.6335053627437],[18.9927976872257,69.6335705904075],[18.9924699531997,69.6335898605121],[18.9925465739423,69.6334608846128]]},"properties":{"OBJECTID":72,"GlobalID":"254094ad-70ee-4f2e-ba88-e1200a5c1d06"}},{"type":"Feature","id":73,"geometry":{"type":"LineString","coordinates":[[18.9927593961271,69.6332681625795],[18.9929211277913,69.6333674902127],[18.9934191042558,69.6334860911589]]},"properties":{"OBJECTID":73,"GlobalID":"f5e77c01-dfb4-4756-8e04-8b26578a129b"}},{"type":"Feature","id":74,"geometry":{"type":"LineString","coordinates":[[18.9899293856875,69.6343380764491],[18.9894612329311,69.6340741824395],[18.9892186585064,69.6338947950813]]},"properties":{"OBJECTID":74,"GlobalID":"4b4ceb88-a2cf-4fe8-ab63-143e0c5a25f5"}},{"type":"Feature","id":75,"geometry":{"type":"LineString","coordinates":[[18.9936963341783,69.6323782702659],[18.9939559520789,69.6323842002754],[18.9941815217408,69.6323827175247],[18.994173009678,69.6323827175399]]},"properties":{"OBJECTID":75,"GlobalID":"920bbb5b-b780-46a5-b1bf-a66d64b979e7"}},{"type":"Feature","id":76,"geometry":{"type":"LineString","coordinates":[[18.9965557064104,69.6258930934726],[18.996368491197,69.6258293490658],[18.9963472100282,69.6257596723918],[18.9962748803442,69.6257626383076],[18.9963386978901,69.6257344702004],[18.9963131655636,69.6256959258343],[18.9964237877444,69.6256974068516],[18.9962961431737,69.62566182882],[18.9963642132912,69.6256173532766],[18.9964280311191,69.6255965975805]]},"properties":{"OBJECTID":76,"GlobalID":"7d5f82c9-00aa-4286-96d7-742234da5e80"}},{"type":"Feature","id":77,"geometry":{"type":"LineString","coordinates":[[18.996836482245,69.6256158638885],[18.9969002982087,69.6255847306036],[18.996815198811,69.6255387748323],[18.9968705054651,69.6255091241815],[18.9967854070108,69.6254676158594],[18.9967513649311,69.6254290716906]]},"properties":{"OBJECTID":77,"GlobalID":"5ed8c1ee-81c2-479d-8275-4cdec375a0a8"}},{"type":"Feature","id":78,"geometry":{"type":"LineString","coordinates":[[18.9973555714859,69.6257359363833],[18.9972151584064,69.6256825694088],[18.997134312401,69.6256351312308],[18.9971130193104,69.6254987426827],[18.997015156701,69.6254587171848],[18.9970917333057,69.6254097937556],[18.9970321623786,69.6253668026193],[18.9970917203635,69.6253193619681],[18.9971385082361,69.6252304118498],[18.9969938469357,69.6251948346187],[18.9968023870205,69.6251696354263]]},"properties":{"OBJECTID":78,"GlobalID":"f9e27b58-e9e1-4f17-9f79-7516d5653fec"}},{"type":"Feature","id":79,"geometry":{"type":"LineString","coordinates":[[18.9953983093639,69.6241541470271],[18.9951260320636,69.6242223433577],[18.9950452019295,69.6242979507581],[18.9949345883583,69.6243276011151],[18.9945729629409,69.6243409449217],[18.9943091891475,69.6243809726815],[18.9942326096882,69.6244209999737]]},"properties":{"OBJECTID":79,"GlobalID":"6a9e0e2a-812f-40e7-a52d-08a2f2982e3f"}},{"type":"Feature","id":80,"geometry":{"type":"LineString","coordinates":[[18.9939560702289,69.6245914862605],[18.9939688337647,69.6245662839532],[18.9940071240897,69.6245277392537],[18.9941049765829,69.6244669572075],[18.9942411184835,69.6244106225421]]},"properties":{"OBJECTID":80,"GlobalID":"1ba75834-dbe9-4a57-826f-a8fb00fa3df9"}},{"type":"Feature","id":81,"geometry":{"type":"LineString","coordinates":[[18.9954280902491,69.6241571117778],[18.9956110300145,69.6241734176489],[18.9956961154258,69.624142284619],[18.9958747966195,69.6241081856365],[18.9960194433676,69.6240859467635],[18.9961130359935,69.6240488834847],[18.9961640857462,69.6240221980886],[18.9963257490194,69.6239999587623],[18.9963980701307,69.6239732730255]]},"properties":{"OBJECTID":81,"GlobalID":"498d62cb-aa28-477b-9fc4-d6a4b6ba2cfb"}},{"type":"Feature","id":82,"geometry":{"type":"LineString","coordinates":[[18.9951643247679,69.6242831251682],[18.9954578792322,69.6242846055847]]},"properties":{"OBJECTID":82,"GlobalID":"0928125e-d7c6-4f5b-b2a5-3ab2e83edbf5"}},{"type":"Feature","id":83,"geometry":{"type":"LineString","coordinates":[[18.9953812943675,69.6241956568423],[18.9955174342586,69.6241852783539],[18.9957429170013,69.6241852763549],[18.9959939234124,69.6241556240142]]},"properties":{"OBJECTID":83,"GlobalID":"c043415a-3850-483c-8cb5-b9f42475ed48"}},{"type":"Feature","id":84,"geometry":{"type":"LineString","coordinates":[[18.9931689802521,69.6248850168748],[18.9929051947224,69.6249680347389],[18.9925988669459,69.6249709974392],[18.9923180673453,69.624962099944],[18.9920542836468,69.624979887004],[18.99183304444,69.625003604171],[18.9914671485363,69.6250362139226],[18.9913139865188,69.6250184217199],[18.9912374028579,69.625030280423],[18.9910587078708,69.6250539972954]]},"properties":{"OBJECTID":84,"GlobalID":"0d1ac884-37a7-4f33-a805-d17e9f9ac3c8"}},{"type":"Feature","id":85,"geometry":{"type":"LineString","coordinates":[[18.9918040733721,69.6307443935859],[18.9918764123008,69.6308288962977],[18.9920551418094,69.6309534273253],[18.9921657871163,69.6310038330702]]},"properties":{"OBJECTID":85,"GlobalID":"5aca9db8-172b-47b2-b1bb-0c4f6acb4efe"}}]}