{
"type": "FeatureCollection",
"name": "track_trails",
"crs": { "type": "name", "properties": { "name": "urn:ogc:def:crs:OGC:1.3:CRS84" } },
"features": [
{ "type": "Feature", "properties": { "id": 174, "group_name": "Group 1", "observation_type": "Track trail", "measurement": "0", "cairn_height": "", "cairn_diameter": "", "surface_condition": "", "trail_architecture": "", "note": "", "wet_trail_condition": "", "gps_accuracy": 3.0, "created_at": "2026-08-15T14:20:47.551435+00:00", "photo_url": null }, "geometry": { "type": "LineString", "coordinates": [ [ 18.9942333, 69.6321136 ], [ 18.9942901, 69.6321104 ], [ 18.9943414, 69.6321003 ], [ 18.9944131, 69.6320819 ], [ 18.9944587, 69.6320699 ], [ 18.9945113, 69.6320546 ], [ 18.9945617, 69.6320458 ], [ 18.9946416, 69.6320386 ], [ 18.9947072, 69.6320273 ] ] } },
{ "type": "Feature", "properties": { "id": 173, "group_name": "Group 1", "observation_type": "Track trail", "measurement": "0.57", "cairn_height": "", "cairn_diameter": "", "surface_condition": "", "trail_architecture": "", "note": "", "wet_trail_condition": "", "gps_accuracy": 3.0, "created_at": "2026-08-15T14:20:23.914809+00:00", "photo_url": null }, "geometry": { "type": "LineString", "coordinates": [ [ 18.9950053, 69.6299887 ], [ 18.9949582, 69.6299995 ], [ 18.9948939, 69.6300118 ], [ 18.994838, 69.6300221 ], [ 18.9947906, 69.6300323 ], [ 18.9947479, 69.6300445 ], [ 18.9947063, 69.6300617 ], [ 18.9946657, 69.6300737 ], [ 18.9946108, 69.6300854 ], [ 18.994558, 69.6300983 ], [ 18.99452, 69.6301125 ], [ 18.9944658, 69.6301234 ], [ 18.9944179, 69.6301305 ], [ 18.9943671, 69.6301382 ], [ 18.9921, 69.630893 ], [ 18.9920183, 69.6309 ], [ 18.9919601, 69.6309033 ], [ 18.9919014, 69.6309129 ], [ 18.9918671, 69.6309286 ] ] } },
{ "type": "Feature", "properties": { "id": 172, "group_name": "Group 1", "observation_type": "Track trail", "measurement": "0", "cairn_height": "", "cairn_diameter": "", "surface_condition": "", "trail_architecture": "", "note": "", "wet_trail_condition": "", "gps_accuracy": 3.0, "created_at": "2026-08-15T14:19:50.794611+00:00", "photo_url": null }, "geometry": { "type": "LineString", "coordinates": [ [ 18.9945541, 69.6317117 ], [ 18.9945216, 69.6317275 ], [ 18.9944682, 69.6317442 ], [ 18.9944225, 69.6317585 ], [ 18.9943628, 69.6317769 ], [ 18.9943155, 69.6317958 ], [ 18.9942681, 69.6318119 ], [ 18.9942135, 69.6318249 ], [ 18.9941685, 69.6318425 ] ] } },
{ "type": "Feature", "properties": { "id": 170, "group_name": "Group 1", "observation_type": "Track trail", "measurement": "0", "cairn_height": "", "cairn_diameter": "", "surface_condition": "", "trail_architecture": "", "note": "", "wet_trail_condition": "", "gps_accuracy": 3.0, "created_at": "2026-08-15T14:19:10.667144+00:00", "photo_url": null }, "geometry": { "type": "LineString", "coordinates": [ [ 18.9941178, 69.6317124 ], [ 18.9941715, 69.6317092 ], [ 18.994232, 69.6316964 ], [ 18.9942986, 69.6316828 ], [ 18.9943546, 69.6316658 ], [ 18.9944143, 69.6316547 ], [ 18.9944618, 69.6316462 ], [ 18.9945137, 69.6316439 ], [ 18.9945651, 69.6316387 ], [ 18.9946201, 69.6316331 ] ] } },
{ "type": "Feature", "properties": { "id": 167, "group_name": "Group 1", "observation_type": "Track trail", "measurement": "0", "cairn_height": "", "cairn_diameter": "", "surface_condition": "", "trail_architecture": "", "note": "", "wet_trail_condition": "", "gps_accuracy": 3.0, "created_at": "2026-08-15T14:13:42.4949+00:00", "photo_url": null }, "geometry": { "type": "LineString", "coordinates": [ [ 18.9946166, 69.6292188 ], [ 18.9945944, 69.6292428 ], [ 18.9945879, 69.6292676 ], [ 18.9946001, 69.6292947 ], [ 18.9946222, 69.6293182 ], [ 18.9946556, 69.6293423 ], [ 18.9946698, 69.6293681 ], [ 18.9946709, 69.6293997 ], [ 18.9946689, 69.6294216 ], [ 18.9947001, 69.629439 ], [ 18.9947133, 69.6294574 ], [ 18.9947139, 69.6294807 ] ] } },
{ "type": "Feature", "properties": { "id": 166, "group_name": "Group 1", "observation_type": "Track trail", "measurement": "0", "cairn_height": "", "cairn_diameter": "", "surface_condition": "", "trail_architecture": "", "note": "", "wet_trail_condition": "", "gps_accuracy": 3.0, "created_at": "2026-08-15T14:13:21.725443+00:00", "photo_url": null }, "geometry": { "type": "LineString", "coordinates": [ [ 18.9952998, 69.6290855 ], [ 18.9952838, 69.6291052 ], [ 18.9952568, 69.6291231 ], [ 18.9952127, 69.6291369 ] ] } },
{ "type": "Feature", "properties": { "id": 165, "group_name": "Group 1", "observation_type": "Track trail", "measurement": "0", "cairn_height": "", "cairn_diameter": "", "surface_condition": "", "trail_architecture": "", "note": "", "wet_trail_condition": "", "gps_accuracy": 3.0, "created_at": "2026-08-15T14:12:55.267525+00:00", "photo_url": null }, "geometry": { "type": "LineString", "coordinates": [ [ 18.9953588, 69.6281942 ], [ 18.9958921, 69.6285343 ], [ 18.9960255, 69.6286191 ], [ 18.9960743, 69.6286339 ], [ 18.9960657, 69.6286669 ], [ 18.9960304, 69.6286841 ], [ 18.9960094, 69.6287016 ], [ 18.995976, 69.6287182 ], [ 18.9959192, 69.6287317 ], [ 18.9958733, 69.6287401 ], [ 18.9958237, 69.6287491 ], [ 18.9957763, 69.6287651 ], [ 18.9957415, 69.6287786 ], [ 18.9957049, 69.6287993 ], [ 18.9956727, 69.6288149 ], [ 18.9956426, 69.6288304 ], [ 18.9956147, 69.62885 ], [ 18.9956016, 69.6288697 ], [ 18.9955927, 69.6288895 ], [ 18.9955969, 69.6289109 ], [ 18.9955833, 69.6289302 ], [ 18.9955432, 69.6289462 ], [ 18.9955124, 69.6289635 ], [ 18.9954882, 69.6289814 ], [ 18.9954487, 69.628995 ], [ 18.99541, 69.629009 ], [ 18.9953836, 69.6290298 ], [ 18.9953496, 69.6290505 ], [ 18.9953516, 69.6290709 ], [ 18.9953767, 69.6290887 ], [ 18.995373, 69.6291093 ], [ 18.9953682, 69.6291279 ], [ 18.9953204, 69.6291426 ], [ 18.9952886, 69.6291568 ], [ 18.995217, 69.6291697 ], [ 18.9951986, 69.6291927 ], [ 18.9952272, 69.6292192 ] ] } },
{ "type": "Feature", "properties": { "id": 164, "group_name": "Group 1", "observation_type": "Track trail", "measurement": "0.65", "cairn_height": "", "cairn_diameter": "", "surface_condition": "", "trail_architecture": "", "note": "", "wet_trail_condition": "", "gps_accuracy": 3.0, "created_at": "2026-08-15T14:12:45.409444+00:00", "photo_url": null }, "geometry": { "type": "LineString", "coordinates": [ [ 18.995916, 69.6280533 ], [ 18.9958664, 69.6280693 ], [ 18.9958266, 69.628083 ], [ 18.9957962, 69.6280997 ], [ 18.9957683, 69.6281152 ], [ 18.9957301, 69.6281297 ], [ 18.9956817, 69.6281229 ], [ 18.9956414, 69.6281103 ], [ 18.9955896, 69.6281003 ], [ 18.9948399, 69.6281613 ], [ 18.994847, 69.6281888 ], [ 18.9948769, 69.628217 ], [ 18.9949401, 69.6282162 ], [ 18.9948945, 69.628225 ] ] } },
{ "type": "Feature", "properties": { "id": 158, "group_name": "Group 1", "observation_type": "Track trail", "measurement": "0", "cairn_height": "", "cairn_diameter": "", "surface_condition": "", "trail_architecture": "", "note": "", "wet_trail_condition": "", "gps_accuracy": 3.0, "created_at": "2026-08-15T14:10:00.303222+00:00", "photo_url": null }, "geometry": { "type": "LineString", "coordinates": [ [ 18.9951828, 69.6282274 ], [ 18.9952497, 69.628237 ], [ 18.995196, 69.6282287 ], [ 18.9951558, 69.6282162 ], [ 18.9951329, 69.6282325 ], [ 18.9950823, 69.6282383 ], [ 18.9949749, 69.6282855 ], [ 18.9950133, 69.6283 ], [ 18.9950588, 69.6283162 ] ] } },
{ "type": "Feature", "properties": { "id": 157, "group_name": "Group 1", "observation_type": "Track trail", "measurement": "0", "cairn_height": "", "cairn_diameter": "", "surface_condition": "", "trail_architecture": "", "note": "", "wet_trail_condition": "", "gps_accuracy": 3.0, "created_at": "2026-08-15T14:08:11.544825+00:00", "photo_url": null }, "geometry": { "type": "LineString", "coordinates": [ [ 18.9960299, 69.6279401 ], [ 18.9960625, 69.6279554 ], [ 18.9960621, 69.6279753 ], [ 18.9960693, 69.6279957 ], [ 18.9960427, 69.6280155 ], [ 18.995982, 69.6280174 ], [ 18.9959304, 69.6280289 ], [ 18.9959244, 69.6280496 ], [ 18.9959409, 69.6280716 ], [ 18.9959158, 69.6280899 ], [ 18.9958557, 69.6280925 ], [ 18.9958043, 69.6281002 ], [ 18.9957914, 69.6281204 ], [ 18.9957888, 69.6281386 ], [ 18.9956151, 69.6281392 ], [ 18.9956801, 69.6281092 ], [ 18.9957343, 69.6281181 ] ] } },
{ "type": "Feature", "properties": { "id": 156, "group_name": "Group 1", "observation_type": "Track trail", "measurement": "0", "cairn_height": "", "cairn_diameter": "", "surface_condition": "", "trail_architecture": "", "note": "", "wet_trail_condition": "", "gps_accuracy": 2.2390000820159899, "created_at": "2026-08-15T14:07:44.689203+00:00", "photo_url": null }, "geometry": { "type": "LineString", "coordinates": [ [ 18.9956111, 69.6278653 ], [ 18.9956212, 69.6278902 ], [ 18.9955862, 69.6279139 ], [ 18.9955403, 69.6279312 ], [ 18.9955148, 69.6279491 ], [ 18.995476, 69.6279645 ], [ 18.995467, 69.6279848 ], [ 18.9955232, 69.6280082 ], [ 18.9955511, 69.6280244 ], [ 18.9954882, 69.628033 ], [ 18.995435, 69.6280357 ], [ 18.9953789, 69.6280434 ], [ 18.9953304, 69.6280562 ], [ 18.9952965, 69.6280742 ], [ 18.9952808, 69.6280918 ], [ 18.994993, 69.6282729 ] ] } },
{ "type": "Feature", "properties": { "id": 155, "group_name": "Group 1", "observation_type": "Track trail", "measurement": "0", "cairn_height": "", "cairn_diameter": "", "surface_condition": "", "trail_architecture": "", "note": "", "wet_trail_condition": "", "gps_accuracy": 3.0090000629425, "created_at": "2026-08-15T14:06:04.128909+00:00", "photo_url": null }, "geometry": { "type": "LineString", "coordinates": [ [ 18.9958873, 69.6278086 ], [ 18.9959182, 69.6278458 ], [ 18.9959241, 69.627865 ], [ 18.9958412, 69.6278614 ], [ 18.9957887, 69.6278613 ], [ 18.9957287, 69.6278565 ], [ 18.995666, 69.6278655 ], [ 18.9956133, 69.6278719 ], [ 18.9955464, 69.6278686 ], [ 18.9954979, 69.6278589 ], [ 18.9954448, 69.6278489 ], [ 18.9953972, 69.6278351 ] ] } },
{ "type": "Feature", "properties": { "id": 154, "group_name": "Group 1", "observation_type": "Track trail", "measurement": "0", "cairn_height": "", "cairn_diameter": "", "surface_condition": "", "trail_architecture": "", "note": "", "wet_trail_condition": "", "gps_accuracy": 3.0, "created_at": "2026-08-15T14:04:57.993887+00:00", "photo_url": null }, "geometry": { "type": "LineString", "coordinates": [ [ 18.9958342, 69.6275848 ], [ 18.9958314, 69.6275583 ], [ 18.9958123, 69.6275336 ], [ 18.99578, 69.6275103 ], [ 18.9957617, 69.6274896 ], [ 18.9957204, 69.6274744 ], [ 18.9956876, 69.6274542 ], [ 18.9956501, 69.6274385 ], [ 18.9956423, 69.627417 ], [ 18.995659, 69.6273955 ], [ 18.9956631, 69.6273695 ], [ 18.9956422, 69.6273524 ], [ 18.995602, 69.6273383 ], [ 18.995593, 69.6273181 ], [ 18.9956198, 69.6273023 ], [ 18.9956278, 69.6272843 ], [ 18.9955779, 69.6272689 ], [ 18.995562, 69.6272462 ], [ 18.9955213, 69.6272303 ] ] } },
{ "type": "Feature", "properties": { "id": 152, "group_name": "Group 1", "observation_type": "Track trail", "measurement": "0", "cairn_height": "", "cairn_diameter": "", "surface_condition": "", "trail_architecture": "", "note": "", "wet_trail_condition": "", "gps_accuracy": 3.0, "created_at": "2026-08-15T14:02:29.015033+00:00", "photo_url": null }, "geometry": { "type": "LineString", "coordinates": [ [ 18.99597, 69.6270916 ], [ 18.9959152, 69.6271076 ], [ 18.9958797, 69.627129 ], [ 18.9958347, 69.6271455 ], [ 18.9957762, 69.6271601 ], [ 18.9957243, 69.627165 ] ] } },
{ "type": "Feature", "properties": { "id": 151, "group_name": "Group 1", "observation_type": "Track trail", "measurement": "0.4", "cairn_height": "", "cairn_diameter": "", "surface_condition": "", "trail_architecture": "", "note": "", "wet_trail_condition": "", "gps_accuracy": 3.0, "created_at": "2026-08-15T14:01:58.364461+00:00", "photo_url": null }, "geometry": { "type": "LineString", "coordinates": [ [ 18.9957463, 69.6262927 ], [ 18.9957699, 69.6263102 ], [ 18.9957942, 69.6263263 ], [ 18.9958291, 69.6263401 ], [ 18.9958739, 69.6263511 ], [ 18.9959202, 69.626365 ], [ 18.9959208, 69.626384 ], [ 18.9959197, 69.6264026 ], [ 18.99588, 69.6264163 ], [ 18.9958709, 69.6264388 ], [ 18.9958563, 69.6264594 ], [ 18.9958651, 69.6264777 ], [ 18.9958338, 69.6264936 ], [ 18.9958279, 69.6265133 ], [ 18.9958017, 69.6265339 ], [ 18.9958175, 69.6265528 ], [ 18.9958443, 69.6265745 ], [ 18.99588, 69.6265923 ], [ 18.9959027, 69.6266094 ], [ 18.995941, 69.6266241 ] ] } },
{ "type": "Feature", "properties": { "id": 149, "group_name": "Group 1", "observation_type": "Track trail", "measurement": "0", "cairn_height": "", "cairn_diameter": "", "surface_condition": "", "trail_architecture": "", "note": "", "wet_trail_condition": "", "gps_accuracy": 3.0, "created_at": "2026-08-15T14:01:00.346316+00:00", "photo_url": null }, "geometry": { "type": "LineString", "coordinates": [ [ 18.9958656, 69.6265866 ], [ 18.9959497, 69.6265562 ], [ 18.9958003, 69.6266605 ], [ 18.9958615, 69.6266329 ], [ 18.9958391, 69.6266116 ], [ 18.9957696, 69.6265988 ], [ 18.995774, 69.6266253 ], [ 18.9957602, 69.6266442 ], [ 18.995693, 69.6266496 ] ] } },
{ "type": "Feature", "properties": { "id": 147, "group_name": "Group 1", "observation_type": "Track trail", "measurement": "0", "cairn_height": "", "cairn_diameter": "", "surface_condition": "", "trail_architecture": "", "note": "", "wet_trail_condition": "", "gps_accuracy": 3.0, "created_at": "2026-08-15T13:58:16.232544+00:00", "photo_url": null }, "geometry": { "type": "LineString", "coordinates": [ [ 18.9967818, 69.625972 ], [ 18.9968198, 69.6259877 ], [ 18.9968225, 69.6260064 ], [ 18.9968121, 69.6260266 ], [ 18.9968046, 69.6260448 ], [ 18.9968215, 69.6260646 ], [ 18.9967997, 69.6260827 ], [ 18.9967859, 69.6261079 ], [ 18.9967635, 69.626131 ], [ 18.9967223, 69.6261446 ], [ 18.9966605, 69.6261616 ], [ 18.9966616, 69.6261808 ], [ 18.9966846, 69.6262043 ], [ 18.9966634, 69.626222 ], [ 18.9966291, 69.6262367 ], [ 18.9966232, 69.6262555 ], [ 18.9966077, 69.6262789 ], [ 18.9965714, 69.6262924 ], [ 18.9965168, 69.6263007 ], [ 18.9964613, 69.6263028 ], [ 18.996434, 69.626321 ], [ 18.9964024, 69.6263378 ] ] } },
{ "type": "Feature", "properties": { "id": 145, "group_name": "Group 1", "observation_type": "Track trail", "measurement": "0", "cairn_height": "", "cairn_diameter": "", "surface_condition": "", "trail_architecture": "", "note": "", "wet_trail_condition": "", "gps_accuracy": 3.0, "created_at": "2026-08-15T13:56:25.60161+00:00", "photo_url": null }, "geometry": { "type": "LineString", "coordinates": [ [ 18.9961664, 69.6255858 ], [ 18.9962191, 69.625597 ], [ 18.9962587, 69.6256148 ], [ 18.9962741, 69.6256331 ], [ 18.9962462, 69.6256509 ], [ 18.9962455, 69.6256729 ], [ 18.9962603, 69.6256913 ], [ 18.996262, 69.6257099 ], [ 18.9962875, 69.6257274 ], [ 18.9962998, 69.6257474 ], [ 18.9963067, 69.6257681 ], [ 18.9963124, 69.6257897 ], [ 18.9963222, 69.6258125 ], [ 18.9963501, 69.6258328 ], [ 18.9963816, 69.6258502 ], [ 18.9964346, 69.6258638 ], [ 18.9965015, 69.6258674 ], [ 18.9965621, 69.625874 ], [ 18.9965773, 69.6258954 ] ] } },
{ "type": "Feature", "properties": { "id": 144, "group_name": "Group 1", "observation_type": "Track trail", "measurement": "0.95", "cairn_height": "", "cairn_diameter": "", "surface_condition": "", "trail_architecture": "", "note": "", "wet_trail_condition": "", "gps_accuracy": 3.78999996185303, "created_at": "2026-08-15T13:55:23.153273+00:00", "photo_url": null }, "geometry": { "type": "LineString", "coordinates": [ [ 18.9987856, 69.6258841 ], [ 18.9988507, 69.6258772 ], [ 18.99892, 69.6258753 ], [ 18.9989842, 69.6258721 ], [ 18.9990579, 69.6258668 ], [ 18.9991334, 69.6258643 ], [ 18.999205, 69.6258647 ], [ 18.999273, 69.6258702 ], [ 18.9993459, 69.6258793 ], [ 18.9994158, 69.6258856 ], [ 18.9994852, 69.6258917 ], [ 18.9995375, 69.6258935 ], [ 18.9996171, 69.6258959 ], [ 18.9996755, 69.6259037 ], [ 18.9997404, 69.6259117 ], [ 18.9998078, 69.6259162 ], [ 18.9998802, 69.6259224 ], [ 18.9999414, 69.6259257 ], [ 19.0000087, 69.6259337 ], [ 19.0000612, 69.625935 ], [ 19.0001192, 69.6259446 ], [ 19.0001637, 69.6259589 ], [ 19.0001931, 69.6259738 ], [ 19.0002342, 69.6259951 ], [ 19.0002597, 69.6260201 ], [ 19.0002644, 69.6260397 ], [ 19.0002961, 69.6260659 ], [ 19.0003281, 69.6260822 ], [ 19.0003626, 69.6260982 ], [ 19.000402, 69.626117 ], [ 19.0004423, 69.6261403 ], [ 19.0004612, 69.6261613 ], [ 19.0004706, 69.6261833 ], [ 19.0004929, 69.6262047 ], [ 19.0005141, 69.6262257 ], [ 19.0005264, 69.626251 ], [ 19.0005343, 69.6262696 ], [ 19.000525, 69.6262918 ], [ 19.0005037, 69.6263101 ], [ 19.0004995, 69.6263333 ], [ 19.0005178, 69.6263538 ], [ 19.0005341, 69.6263714 ], [ 19.0005738, 69.6263848 ], [ 19.0005995, 69.626405 ], [ 19.0006193, 69.6264218 ], [ 19.0006394, 69.62644 ], [ 19.0006547, 69.626458 ], [ 19.0006915, 69.6264779 ], [ 19.0007306, 69.6264922 ], [ 19.0007719, 69.6265109 ], [ 19.0008018, 69.6265267 ], [ 19.0007998, 69.6265504 ], [ 19.0007718, 69.6265667 ], [ 19.0007237, 69.6265788 ], [ 19.0006878, 69.6265957 ], [ 19.0006464, 69.6266171 ], [ 19.0005942, 69.6266319 ], [ 19.0005367, 69.6266523 ], [ 19.0004941, 69.6266667 ], [ 19.0004525, 69.6266852 ], [ 19.0004286, 69.6267116 ], [ 19.0003895, 69.6267423 ], [ 19.0003438, 69.6267597 ], [ 19.0002865, 69.626783 ], [ 19.0002495, 69.6268033 ] ] } },
{ "type": "Feature", "properties": { "id": 142, "group_name": "Group 1", "observation_type": "Track trail", "measurement": "0.84", "cairn_height": "", "cairn_diameter": "", "surface_condition": "", "trail_architecture": "", "note": "", "wet_trail_condition": "", "gps_accuracy": 3.3599998950958301, "created_at": "2026-08-15T13:54:11.878185+00:00", "photo_url": null }, "geometry": { "type": "LineString", "coordinates": [ [ 18.9956015, 69.6251857 ], [ 18.9955736, 69.6252086 ], [ 18.9955038, 69.6252164 ], [ 18.9954455, 69.6252184 ], [ 18.9953875, 69.6252209 ], [ 18.9953302, 69.62522 ], [ 18.9952656, 69.6252183 ], [ 18.995195, 69.6252159 ], [ 18.9951367, 69.6252116 ], [ 18.9950816, 69.6252089 ], [ 18.9948275, 69.6252036 ] ] } },
{ "type": "Feature", "properties": { "id": 140, "group_name": "Group 1", "observation_type": "Track trail", "measurement": "0", "cairn_height": "", "cairn_diameter": "", "surface_condition": "", "trail_architecture": "", "note": "Small parallel trail", "wet_trail_condition": "", "gps_accuracy": 3.0, "created_at": "2026-08-15T13:52:34.847675+00:00", "photo_url": "https://oehndpyzeoywfypqtsjs.supabase.co/storage/v1/object/public/observation-photos/140/1786801954639.jpg" }, "geometry": { "type": "LineString", "coordinates": [ [ 18.9956804, 69.6249642 ], [ 18.9956907, 69.6249368 ], [ 18.9957008, 69.6249182 ], [ 18.9956934, 69.6248985 ], [ 18.9956718, 69.6248812 ], [ 18.995634, 69.6248643 ], [ 18.9955861, 69.6248558 ], [ 18.9955378, 69.624845 ], [ 18.9955218, 69.624826 ], [ 18.9955321, 69.6248045 ], [ 18.995536, 69.6247822 ] ] } },
{ "type": "Feature", "properties": { "id": 139, "group_name": "Group 1", "observation_type": "Track trail", "measurement": "0", "cairn_height": "", "cairn_diameter": "", "surface_condition": "", "trail_architecture": "", "note": "", "wet_trail_condition": "", "gps_accuracy": 3.0009999275207502, "created_at": "2026-08-15T13:52:04.812482+00:00", "photo_url": null }, "geometry": { "type": "LineString", "coordinates": [ [ 18.9956647, 69.6251878 ], [ 18.9956549, 69.6252062 ], [ 18.9956008, 69.6252211 ], [ 18.995544, 69.6252226 ], [ 18.995492, 69.6252211 ], [ 18.9954333, 69.6252185 ], [ 18.9953576, 69.6252174 ], [ 18.9952976, 69.6252111 ], [ 18.995243, 69.6252097 ], [ 18.9951846, 69.6252068 ], [ 18.9951305, 69.6252066 ], [ 18.9950743, 69.6252037 ], [ 18.9950127, 69.6251976 ], [ 18.9949567, 69.6251915 ], [ 18.9948941, 69.6251885 ], [ 18.9948412, 69.6251861 ], [ 18.9947834, 69.625184 ] ] } },
{ "type": "Feature", "properties": { "id": 138, "group_name": "Group 1", "observation_type": "Track trail", "measurement": "1.50", "cairn_height": "", "cairn_diameter": "", "surface_condition": "", "trail_architecture": "", "note": "", "wet_trail_condition": "", "gps_accuracy": 3.78999996185303, "created_at": "2026-08-15T13:52:00.002794+00:00", "photo_url": "https://oehndpyzeoywfypqtsjs.supabase.co/storage/v1/object/public/observation-photos/138/1786801921256.jpg" }, "geometry": { "type": "LineString", "coordinates": [ [ 18.9974878, 69.6254421 ], [ 18.997536, 69.625433 ], [ 18.997578, 69.6254436 ], [ 18.9976438, 69.6254556 ], [ 18.9976861, 69.6254675 ], [ 18.9977314, 69.6254778 ], [ 18.9977839, 69.6254915 ], [ 18.9978261, 69.625505 ], [ 18.9978872, 69.6255223 ], [ 18.9979281, 69.6255364 ], [ 18.9979641, 69.6255509 ], [ 18.9980087, 69.6255667 ], [ 18.9980565, 69.6255824 ], [ 18.9981227, 69.6255977 ], [ 18.9981916, 69.6256066 ], [ 18.9982591, 69.6256125 ], [ 18.9983224, 69.6256194 ], [ 18.9983915, 69.6256327 ], [ 18.9984356, 69.6256517 ], [ 18.998476, 69.6256716 ], [ 18.9985015, 69.6256946 ], [ 18.9985131, 69.6257165 ], [ 18.9985316, 69.6257369 ], [ 18.9985623, 69.6257634 ], [ 18.9985996, 69.6257817 ], [ 18.9986399, 69.6258032 ], [ 18.998675, 69.6258255 ], [ 18.998704, 69.6258461 ], [ 18.9987397, 69.6258677 ], [ 18.9987839, 69.6258814 ] ] } },
{ "type": "Feature", "properties": { "id": 137, "group_name": "Group 1", "observation_type": "Track trail", "measurement": "0", "cairn_height": "", "cairn_diameter": "", "surface_condition": "", "trail_architecture": "", "note": "", "wet_trail_condition": "", "gps_accuracy": 3.0, "created_at": "2026-08-15T13:48:28.567458+00:00", "photo_url": null }, "geometry": { "type": "LineString", "coordinates": [ [ 18.9955717, 69.6245603 ], [ 18.9955263, 69.6245493 ], [ 18.9954582, 69.6245486 ], [ 18.9954043, 69.6245649 ], [ 18.9953628, 69.6245868 ], [ 18.9953371, 69.6246026 ], [ 18.9953079, 69.6246194 ], [ 18.9952773, 69.6246402 ], [ 18.9952428, 69.6246554 ], [ 18.9951843, 69.6246693 ], [ 18.9951411, 69.6246802 ], [ 18.9951068, 69.6246986 ], [ 18.9950789, 69.6247251 ], [ 18.9950725, 69.6247478 ], [ 18.9950723, 69.6247677 ], [ 18.995061, 69.6247931 ], [ 18.9950671, 69.6248132 ], [ 18.9950955, 69.6248358 ], [ 18.9951213, 69.6248551 ] ] } },
{ "type": "Feature", "properties": { "id": 108, "group_name": "Group 1", "observation_type": "Track trail", "measurement": "0.64", "cairn_height": "", "cairn_diameter": "", "surface_condition": "", "trail_architecture": "", "note": "", "wet_trail_condition": "", "gps_accuracy": 3.7750000953674299, "created_at": "2026-08-15T12:45:47.406834+00:00", "photo_url": null }, "geometry": { "type": "LineString", "coordinates": [ [ 18.9971719, 69.6245811 ], [ 18.9971254, 69.6245643 ], [ 18.9971129, 69.6245462 ], [ 18.9971169, 69.6245259 ], [ 18.9971098, 69.6245061 ], [ 18.9970886, 69.6244894 ], [ 18.9970735, 69.6244655 ], [ 18.9970783, 69.6244455 ], [ 18.9970803, 69.6244255 ], [ 18.9969783, 69.6243851 ], [ 18.997009, 69.6243654 ] ] } },
{ "type": "Feature", "properties": { "id": 107, "group_name": "Group 1", "observation_type": "Track trail", "measurement": "0.32", "cairn_height": "", "cairn_diameter": "", "surface_condition": "", "trail_architecture": "", "note": "", "wet_trail_condition": "", "gps_accuracy": 3.0, "created_at": "2026-08-15T12:43:51.766378+00:00", "photo_url": null }, "geometry": { "type": "LineString", "coordinates": [ [ 18.9973679, 69.6251204 ], [ 18.9973743, 69.6250974 ], [ 18.9973787, 69.6250778 ], [ 18.9973851, 69.6250572 ], [ 18.9973889, 69.6250387 ], [ 18.9973608, 69.625023 ], [ 18.9973127, 69.6250126 ], [ 18.9972866, 69.6249968 ], [ 18.9972802, 69.6249784 ], [ 18.9973114, 69.6249603 ], [ 18.9973206, 69.6249393 ], [ 18.997313, 69.6249161 ], [ 18.9973371, 69.6248964 ], [ 18.9973845, 69.6248864 ], [ 18.9973791, 69.6248583 ] ] } },
{ "type": "Feature", "properties": { "id": 105, "group_name": "Group 1", "observation_type": "Track trail", "measurement": "0", "cairn_height": "", "cairn_diameter": "", "surface_condition": "", "trail_architecture": "", "note": "", "wet_trail_condition": "", "gps_accuracy": 3.0, "created_at": "2026-08-15T12:36:55.82377+00:00", "photo_url": null }, "geometry": { "type": "LineString", "coordinates": [ [ 18.9952524, 69.6242564 ], [ 18.9952994, 69.6242652 ], [ 18.9953619, 69.6242676 ], [ 18.9954128, 69.6242742 ], [ 18.9954606, 69.6242913 ], [ 18.9955162, 69.6242875 ], [ 18.9955655, 69.6242742 ], [ 18.9956116, 69.6242653 ], [ 18.9956611, 69.6242538 ], [ 18.9956775, 69.6242304 ] ] } },
{ "type": "Feature", "properties": { "id": 104, "group_name": "Group 1", "observation_type": "Track trail", "measurement": "1", "cairn_height": "", "cairn_diameter": "", "surface_condition": "", "trail_architecture": "", "note": "", "wet_trail_condition": "", "gps_accuracy": 3.0, "created_at": "2026-08-15T12:35:22.247375+00:00", "photo_url": null }, "geometry": { "type": "LineString", "coordinates": [ [ 18.9969639, 69.6250737 ], [ 18.996996, 69.6250552 ], [ 18.9970282, 69.6250389 ], [ 18.9970278, 69.6250201 ], [ 18.9970195, 69.6250019 ], [ 18.9970117, 69.6249832 ], [ 18.9969917, 69.6249658 ], [ 18.9971124, 69.6248869 ], [ 18.997079, 69.6249042 ], [ 18.9970619, 69.6248819 ], [ 18.9970629, 69.6248632 ], [ 18.9970392, 69.6246516 ], [ 18.9970753, 69.6247101 ], [ 18.997068, 69.6247408 ], [ 18.9970672, 69.6247612 ], [ 18.9970563, 69.6247402 ], [ 18.9970809, 69.6247183 ], [ 18.9971004, 69.6246963 ], [ 18.9971049, 69.6246704 ], [ 18.9970972, 69.624651 ], [ 18.9970469, 69.624643 ], [ 18.9970259, 69.6246253 ], [ 18.9970377, 69.6246069 ], [ 18.9970416, 69.6245863 ], [ 18.997021, 69.6245672 ], [ 18.9970267, 69.6245482 ], [ 18.997043, 69.624527 ], [ 18.9970403, 69.6245027 ], [ 18.9970243, 69.6244822 ], [ 18.9970018, 69.6244567 ], [ 18.9969591, 69.6244451 ], [ 18.996933, 69.6244263 ], [ 18.9969108, 69.6244077 ], [ 18.9968837, 69.6243922 ], [ 18.996855, 69.624376 ], [ 18.9968328, 69.6243571 ], [ 18.9968102, 69.6243402 ], [ 18.996779, 69.6243252 ], [ 18.99675, 69.624308 ] ] } },
{ "type": "Feature", "properties": { "id": 103, "group_name": "Group 1", "observation_type": "Track trail", "measurement": "0", "cairn_height": "", "cairn_diameter": "", "surface_condition": "", "trail_architecture": "", "note": "", "wet_trail_condition": "", "gps_accuracy": 3.0, "created_at": "2026-08-15T12:34:27.127351+00:00", "photo_url": null }, "geometry": { "type": "LineString", "coordinates": [ [ 18.9944897, 69.6246458 ], [ 18.9944564, 69.624632 ], [ 18.9944142, 69.6246496 ], [ 18.994368, 69.6246662 ], [ 18.9943276, 69.6246834 ], [ 18.9942919, 69.6247016 ], [ 18.9942467, 69.6247196 ], [ 18.9941907, 69.6247208 ], [ 18.9941321, 69.6247119 ], [ 18.9940651, 69.6247115 ], [ 18.9939974, 69.6247139 ], [ 18.993939, 69.6247187 ], [ 18.993867, 69.624718 ] ] } },
{ "type": "Feature", "properties": { "id": 101, "group_name": "Group 1", "observation_type": "Track trail", "measurement": "0", "cairn_height": "", "cairn_diameter": "", "surface_condition": "", "trail_architecture": "", "note": "Small parallel track", "wet_trail_condition": "", "gps_accuracy": 3.0, "created_at": "2026-08-15T12:33:05.749467+00:00", "photo_url": null }, "geometry": { "type": "LineString", "coordinates": [ [ 18.9945916, 69.6250909 ], [ 18.9945515, 69.6250726 ], [ 18.994529, 69.6250511 ], [ 18.994505, 69.6250314 ], [ 18.9945083, 69.6250114 ], [ 18.9945084, 69.6249933 ], [ 18.9945063, 69.6249738 ], [ 18.9945311, 69.6249551 ], [ 18.9945696, 69.6249397 ], [ 18.9945976, 69.6249227 ], [ 18.9945909, 69.6249023 ] ] } },
{ "type": "Feature", "properties": { "id": 100, "group_name": "Group 1", "observation_type": "Track trail", "measurement": "0", "cairn_height": "", "cairn_diameter": "", "surface_condition": "", "trail_architecture": "", "note": "", "wet_trail_condition": "", "gps_accuracy": 3.0999999046325701, "created_at": "2026-08-15T12:32:05.833807+00:00", "photo_url": null }, "geometry": { "type": "LineString", "coordinates": [ [ 18.9948554, 69.6251869 ], [ 18.9949179, 69.6251921 ], [ 18.9950132, 69.6252044 ], [ 18.9950895, 69.625209 ], [ 18.995145, 69.6252083 ], [ 18.9952089, 69.6252043 ], [ 18.9952695, 69.6252018 ], [ 18.9953398, 69.6251994 ], [ 18.9954033, 69.6251938 ], [ 18.9954565, 69.6251903 ], [ 18.9955122, 69.6251916 ], [ 18.9955737, 69.6251953 ], [ 18.9956338, 69.6251889 ], [ 18.9956938, 69.6251848 ] ] } },
{ "type": "Feature", "properties": { "id": 99, "group_name": "Group 1", "observation_type": "Track trail", "measurement": "0", "cairn_height": "", "cairn_diameter": "", "surface_condition": "", "trail_architecture": "", "note": "", "wet_trail_condition": "", "gps_accuracy": 20.054000854492202, "created_at": "2026-08-15T12:30:53.143239+00:00", "photo_url": null }, "geometry": { "type": "LineString", "coordinates": [ [ 18.9940918, 69.6255342 ], [ 18.9940529, 69.6255092 ], [ 18.9940116, 69.6254926 ], [ 18.9939808, 69.6254757 ], [ 18.993989, 69.6254518 ], [ 18.9940013, 69.6254326 ], [ 18.9940189, 69.6254087 ], [ 18.9940376, 69.6253888 ], [ 18.9940512, 69.6253659 ], [ 18.9940409, 69.6253443 ], [ 18.9940194, 69.6253211 ], [ 18.9940243, 69.6253 ], [ 18.9940441, 69.6252824 ], [ 18.9940327, 69.6252629 ], [ 18.9940188, 69.6252419 ] ] } },
{ "type": "Feature", "properties": { "id": 95, "group_name": "Group 1", "observation_type": "Track trail", "measurement": "0", "cairn_height": "", "cairn_diameter": "", "surface_condition": "", "trail_architecture": "", "note": "", "wet_trail_condition": "", "gps_accuracy": 3.0, "created_at": "2026-08-15T12:26:49.180233+00:00", "photo_url": null }, "geometry": { "type": "LineString", "coordinates": [ [ 18.9963289, 69.6262944 ], [ 18.9962712, 69.6262918 ], [ 18.9962318, 69.6262791 ], [ 18.9961717, 69.6262709 ], [ 18.9961227, 69.6262636 ], [ 18.9960886, 69.626249 ], [ 18.9961338, 69.6262588 ], [ 18.9961597, 69.6262846 ], [ 18.9961299, 69.6263018 ], [ 18.9960876, 69.6263123 ], [ 18.9960388, 69.6263049 ], [ 18.9959844, 69.6263135 ], [ 18.9959379, 69.6263271 ], [ 18.9958745, 69.6263361 ], [ 18.9958225, 69.626336 ], [ 18.9957514, 69.6263258 ], [ 18.9957203, 69.6263101 ], [ 18.9956967, 69.6262817 ], [ 18.9956918, 69.6262578 ], [ 18.9956704, 69.6262369 ], [ 18.9956432, 69.6262211 ], [ 18.9955933, 69.626212 ], [ 18.9956181, 69.626196 ], [ 18.9955697, 69.626184 ], [ 18.9955816, 69.6261643 ], [ 18.995572, 69.6261401 ], [ 18.9955391, 69.6261189 ], [ 18.9955099, 69.6261024 ], [ 18.9954693, 69.6260816 ], [ 18.9954424, 69.6260634 ], [ 18.9954362, 69.626045 ], [ 18.995473, 69.6260311 ], [ 18.995433, 69.6260176 ], [ 18.9954239, 69.6259972 ], [ 18.9954409, 69.6259791 ], [ 18.9954582, 69.6259587 ], [ 18.9954709, 69.6259373 ], [ 18.9954544, 69.6259201 ], [ 18.9954324, 69.6258965 ], [ 18.9954502, 69.625879 ], [ 18.9954086, 69.6258651 ], [ 18.9953731, 69.6258519 ], [ 18.9953576, 69.6258336 ], [ 18.9953774, 69.6258104 ], [ 18.9953955, 69.6257926 ] ] } },
{ "type": "Feature", "properties": { "id": 94, "group_name": "Group 1", "observation_type": "Track trail", "measurement": "0", "cairn_height": "", "cairn_diameter": "", "surface_condition": "", "trail_architecture": "", "note": "", "wet_trail_condition": "", "gps_accuracy": 3.29900002479553, "created_at": "2026-08-15T12:26:20.158194+00:00", "photo_url": null }, "geometry": { "type": "LineString", "coordinates": [ [ 18.9941888, 69.6257256 ], [ 18.9941517, 69.6257096 ], [ 18.9941927, 69.6256866 ], [ 18.9942218, 69.6256636 ], [ 18.9941841, 69.625643 ], [ 18.9941499, 69.6256249 ], [ 18.9941502, 69.6256014 ], [ 18.9941647, 69.6255729 ], [ 18.9941384, 69.6255549 ], [ 18.9941021, 69.6255414 ], [ 18.994059, 69.6255313 ] ] } },
{ "type": "Feature", "properties": { "id": 93, "group_name": "Group 1", "observation_type": "Track trail", "measurement": "0.49", "cairn_height": "", "cairn_diameter": "", "surface_condition": "", "trail_architecture": "", "note": "", "wet_trail_condition": "", "gps_accuracy": 3.0, "created_at": "2026-08-15T12:25:27.96283+00:00", "photo_url": null }, "geometry": { "type": "LineString", "coordinates": [ [ 18.9990318, 69.6267611 ], [ 18.9990341, 69.6267376 ], [ 18.9990621, 69.6267219 ], [ 18.9990168, 69.626706 ], [ 18.9989772, 69.6266919 ], [ 18.9989403, 69.6266781 ], [ 18.998925, 69.626658 ], [ 18.998907, 69.62664 ], [ 18.9989387, 69.626624 ], [ 18.998958, 69.6266066 ], [ 18.9989414, 69.6265881 ], [ 18.9989051, 69.6265748 ], [ 18.998874, 69.6265592 ], [ 18.9988776, 69.6265398 ], [ 18.9988519, 69.6265197 ], [ 18.9988122, 69.6265033 ], [ 18.998765, 69.6264921 ], [ 18.9987291, 69.6264763 ], [ 18.998704, 69.6264551 ], [ 18.9986516, 69.6264453 ], [ 18.9986151, 69.6264301 ], [ 18.9985681, 69.6264206 ], [ 18.9985209, 69.6264062 ], [ 18.9984631, 69.6264023 ], [ 18.9984122, 69.6264055 ], [ 18.9983579, 69.6264046 ], [ 18.9983054, 69.626397 ], [ 18.9982505, 69.6263942 ], [ 18.9981934, 69.6263849 ], [ 18.9981531, 69.6263694 ], [ 18.9981435, 69.6263513 ], [ 18.9981286, 69.6263309 ], [ 18.9981117, 69.6263084 ] ] } },
{ "type": "Feature", "properties": { "id": 92, "group_name": "Group 1", "observation_type": "Track trail", "measurement": "0", "cairn_height": "", "cairn_diameter": "", "surface_condition": "", "trail_architecture": "", "note": "", "wet_trail_condition": "", "gps_accuracy": 6.7699999809265101, "created_at": "2026-08-15T12:24:05.230975+00:00", "photo_url": null }, "geometry": { "type": "LineString", "coordinates": [ [ 18.9930892, 69.6262667 ], [ 18.9931558, 69.6262708 ], [ 18.9931985, 69.6262601 ], [ 18.9932285, 69.6262424 ], [ 18.9932346, 69.626218 ], [ 18.9932305, 69.6261962 ], [ 18.9932069, 69.6261777 ], [ 18.9931887, 69.626151 ], [ 18.9932152, 69.6261326 ], [ 18.9932483, 69.6261171 ], [ 18.9932797, 69.6260991 ], [ 18.9933392, 69.6260894 ], [ 18.9933332, 69.6260659 ], [ 18.9933084, 69.6260446 ], [ 18.9941607, 69.6257124 ] ] } },
{ "type": "Feature", "properties": { "id": 89, "group_name": "Group 1", "observation_type": "Track trail", "measurement": "0", "cairn_height": "", "cairn_diameter": "", "surface_condition": "", "trail_architecture": "", "note": "", "wet_trail_condition": "", "gps_accuracy": 3.0, "created_at": "2026-08-15T12:21:03.123465+00:00", "photo_url": null }, "geometry": { "type": "LineString", "coordinates": [ [ 18.9937199, 69.62655 ], [ 18.9936858, 69.6265333 ], [ 18.9936552, 69.626513 ], [ 18.9936078, 69.6264904 ], [ 18.9935807, 69.6264749 ], [ 18.9935327, 69.6264599 ], [ 18.9934978, 69.6264453 ], [ 18.9934643, 69.6264289 ], [ 18.9934261, 69.6264164 ], [ 18.9933741, 69.62641 ], [ 18.9933254, 69.6264017 ], [ 18.9932886, 69.6263822 ], [ 18.9932721, 69.6263629 ], [ 18.9932837, 69.6263384 ], [ 18.9932986, 69.6263143 ], [ 18.9932983, 69.6262928 ], [ 18.9930804, 69.6262004 ] ] } },
{ "type": "Feature", "properties": { "id": 88, "group_name": "Group 1", "observation_type": "Track trail", "measurement": "0.59", "cairn_height": "", "cairn_diameter": "", "surface_condition": "", "trail_architecture": "", "note": "", "wet_trail_condition": "", "gps_accuracy": 3.0, "created_at": "2026-08-15T12:20:25.350131+00:00", "photo_url": null }, "geometry": { "type": "LineString", "coordinates": [ [ 19.0003183, 69.6276316 ], [ 19.0002546, 69.627622 ], [ 19.0002201, 69.6276056 ], [ 19.0001979, 69.627587 ], [ 19.0001647, 69.6275726 ], [ 19.000113, 69.6275654 ], [ 19.0000842, 69.6275487 ], [ 19.0000637, 69.6275246 ], [ 19.0000304, 69.6275076 ], [ 18.9999728, 69.6274952 ], [ 18.9999282, 69.6274799 ], [ 18.9998953, 69.6274636 ], [ 18.9998552, 69.627447 ], [ 18.999814, 69.6274299 ], [ 18.9998101, 69.6274114 ], [ 18.999791, 69.6273905 ], [ 18.9997689, 69.6273715 ], [ 18.9997436, 69.6273518 ], [ 18.9997364, 69.6273333 ] ] } },
{ "type": "Feature", "properties": { "id": 87, "group_name": "Group 1", "observation_type": "Track trail", "measurement": "0", "cairn_height": "", "cairn_diameter": "", "surface_condition": "", "trail_architecture": "", "note": "Very light trail following a ridge", "wet_trail_condition": "", "gps_accuracy": 3.0, "created_at": "2026-08-15T12:19:39.805392+00:00", "photo_url": null }, "geometry": { "type": "LineString", "coordinates": [ [ 18.9976117, 69.6273395 ], [ 18.9975766, 69.6273536 ], [ 18.9975216, 69.6273617 ], [ 18.9974479, 69.6273749 ], [ 18.9973764, 69.6273761 ], [ 18.9973129, 69.6273824 ], [ 18.9972549, 69.6273769 ], [ 18.9971983, 69.6273673 ], [ 18.9971546, 69.6273544 ], [ 18.9971081, 69.6273463 ], [ 18.997053, 69.6273371 ], [ 18.9969989, 69.6273307 ], [ 18.9969453, 69.6273199 ], [ 18.9969066, 69.6272996 ], [ 18.9968924, 69.6272756 ], [ 18.9968713, 69.627252 ], [ 18.9968314, 69.6272396 ], [ 18.9967767, 69.6272263 ], [ 18.9967297, 69.6272147 ], [ 18.9966696, 69.6271986 ], [ 18.996619, 69.6271921 ], [ 18.9965486, 69.6271885 ], [ 18.9964909, 69.627183 ], [ 18.996429, 69.6271725 ], [ 18.9963645, 69.6271659 ], [ 18.9962989, 69.6271605 ], [ 18.9962406, 69.6271445 ], [ 18.9961907, 69.6271307 ], [ 18.9961511, 69.6271127 ], [ 18.996114, 69.6270986 ], [ 18.9960651, 69.6270749 ] ] } },
{ "type": "Feature", "properties": { "id": 85, "group_name": "Group 1", "observation_type": "Track trail", "measurement": "0", "cairn_height": "", "cairn_diameter": "", "surface_condition": "", "trail_architecture": "", "note": "", "wet_trail_condition": "", "gps_accuracy": 8.4180002212524396, "created_at": "2026-08-15T12:17:03.736458+00:00", "photo_url": null }, "geometry": { "type": "LineString", "coordinates": [ [ 18.992975, 69.6270877 ], [ 18.9930356, 69.6270921 ], [ 18.9930918, 69.6270928 ], [ 18.9931518, 69.6270925 ], [ 18.9932107, 69.6270928 ], [ 18.9932562, 69.6271067 ], [ 18.9933131, 69.6271053 ], [ 18.9933724, 69.6271108 ], [ 18.9934293, 69.6271053 ], [ 18.9934859, 69.6271099 ] ] } },
{ "type": "Feature", "properties": { "id": 84, "group_name": "Group 1", "observation_type": "Track trail", "measurement": "0.75", "cairn_height": "", "cairn_diameter": "", "surface_condition": "", "trail_architecture": "", "note": "", "wet_trail_condition": "", "gps_accuracy": 3.0, "created_at": "2026-08-15T12:16:39.251844+00:00", "photo_url": null }, "geometry": { "type": "LineString", "coordinates": [ [ 19.0010916, 69.6278937 ], [ 19.0010287, 69.6278904 ], [ 19.000993, 69.6278768 ], [ 19.000932, 69.627863 ], [ 19.0008846, 69.627855 ], [ 19.0008297, 69.627849 ], [ 19.0007783, 69.6278425 ], [ 19.0002898, 69.6275568 ] ] } },
{ "type": "Feature", "properties": { "id": 81, "group_name": "Group 1", "observation_type": "Track trail", "measurement": "0.7", "cairn_height": "", "cairn_diameter": "", "surface_condition": "", "trail_architecture": "", "note": "", "wet_trail_condition": "", "gps_accuracy": 3.78999996185303, "created_at": "2026-08-15T12:15:00.419699+00:00", "photo_url": null }, "geometry": { "type": "LineString", "coordinates": [ [ 18.9853769, 69.626081 ], [ 18.9853697, 69.6260532 ], [ 18.9853686, 69.6260269 ], [ 18.9853532, 69.6259987 ], [ 18.9853497, 69.6259767 ], [ 18.9853648, 69.6259552 ], [ 18.9854025, 69.6259347 ], [ 18.9854541, 69.6259259 ], [ 18.9854761, 69.6259093 ], [ 18.9854766, 69.6258887 ], [ 18.98548, 69.6258621 ], [ 18.9854792, 69.62584 ], [ 18.9854901, 69.6258214 ], [ 18.9858794, 69.6256457 ], [ 18.9858226, 69.6256371 ], [ 18.9857896, 69.6256217 ], [ 18.985823, 69.6256064 ], [ 18.9858747, 69.6256097 ], [ 18.9859294, 69.6256114 ], [ 18.9860022, 69.625607 ], [ 18.9860689, 69.6256076 ], [ 18.986119, 69.6256127 ], [ 18.9861802, 69.6256198 ], [ 18.9862295, 69.6256135 ], [ 18.9862874, 69.6256051 ], [ 18.9863363, 69.6256144 ], [ 18.9864062, 69.6256212 ], [ 18.9864777, 69.6256141 ], [ 18.9865345, 69.6256092 ], [ 18.986594, 69.6256145 ], [ 18.9866455, 69.6256246 ], [ 18.9867047, 69.6256182 ], [ 18.9867417, 69.6256022 ], [ 18.9867854, 69.6255884 ], [ 18.9868384, 69.6255846 ], [ 18.9868958, 69.6255767 ], [ 18.9869631, 69.6255687 ], [ 18.9870391, 69.6255634 ], [ 18.9870886, 69.6255565 ], [ 18.9871624, 69.6255554 ], [ 18.9872262, 69.6255471 ], [ 18.9872792, 69.6255356 ], [ 18.98733, 69.6255235 ], [ 18.9873835, 69.6255152 ], [ 18.9874368, 69.6255058 ], [ 18.9874811, 69.6254964 ], [ 18.9875261, 69.6254863 ], [ 18.987572, 69.6254718 ], [ 18.9876292, 69.6254572 ], [ 18.9877014, 69.6254474 ], [ 18.9877726, 69.625438 ], [ 18.9878316, 69.625432 ], [ 18.9878836, 69.6254218 ], [ 18.9879351, 69.625418 ], [ 18.9880166, 69.6254118 ], [ 18.9880826, 69.6254073 ], [ 18.9881579, 69.6254036 ], [ 18.9882153, 69.6253985 ], [ 18.988265, 69.6253907 ], [ 18.9883381, 69.6253852 ], [ 18.9884106, 69.6253814 ], [ 18.9884777, 69.6253755 ], [ 18.9885535, 69.6253668 ], [ 18.9886112, 69.6253601 ], [ 18.988683, 69.6253577 ], [ 18.988747, 69.6253533 ], [ 18.9887936, 69.6253399 ], [ 18.9888463, 69.6253347 ], [ 18.9889068, 69.6253276 ], [ 18.9889597, 69.6253223 ], [ 18.9890347, 69.6253192 ] ] } },
{ "type": "Feature", "properties": { "id": 80, "group_name": "Group 1", "observation_type": "Track trail", "measurement": "0", "cairn_height": "", "cairn_diameter": "", "surface_condition": "", "trail_architecture": "", "note": "", "wet_trail_condition": "", "gps_accuracy": 3.0, "created_at": "2026-08-15T12:14:27.990652+00:00", "photo_url": null }, "geometry": { "type": "LineString", "coordinates": [ [ 18.9922253, 69.6273011 ], [ 18.9922395, 69.6272836 ], [ 18.9922857, 69.6272717 ], [ 18.9923093, 69.6272503 ], [ 18.992347, 69.627228 ], [ 18.9924056, 69.6272157 ], [ 18.9924608, 69.6272012 ], [ 18.9925118, 69.6271915 ], [ 18.9925611, 69.6271816 ], [ 18.9926139, 69.6271742 ], [ 18.9926636, 69.6271661 ], [ 18.9927028, 69.6271526 ], [ 18.9926847, 69.6271727 ] ] } },
{ "type": "Feature", "properties": { "id": 78, "group_name": "Group 1", "observation_type": "Track trail", "measurement": "0", "cairn_height": "", "cairn_diameter": "", "surface_condition": "", "trail_architecture": "", "note": "", "wet_trail_condition": "", "gps_accuracy": 3.0, "created_at": "2026-08-15T12:14:19.51863+00:00", "photo_url": null }, "geometry": { "type": "LineString", "coordinates": [ [ 18.9986684, 69.627117 ], [ 18.9986268, 69.6271277 ], [ 18.9985892, 69.6271427 ], [ 18.9985487, 69.6271627 ], [ 18.9985187, 69.6271806 ], [ 18.9984835, 69.6271986 ], [ 18.9984618, 69.6272178 ], [ 18.9984388, 69.6272371 ] ] } },
{ "type": "Feature", "properties": { "id": 77, "group_name": "Group 1", "observation_type": "Track trail", "measurement": "0.39", "cairn_height": "", "cairn_diameter": "", "surface_condition": "", "trail_architecture": "", "note": "", "wet_trail_condition": "", "gps_accuracy": 3.0, "created_at": "2026-08-15T12:14:12.089163+00:00", "photo_url": null }, "geometry": { "type": "LineString", "coordinates": [ [ 18.9989388, 69.6292931 ], [ 18.9989899, 69.6292893 ], [ 18.9990362, 69.6292788 ], [ 18.9990759, 69.6292667 ], [ 18.9991157, 69.6292547 ] ] } },
{ "type": "Feature", "properties": { "id": 76, "group_name": "Group 1", "observation_type": "Track trail", "measurement": "0.37", "cairn_height": "", "cairn_diameter": "", "surface_condition": "", "trail_architecture": "", "note": "", "wet_trail_condition": "", "gps_accuracy": 3.0, "created_at": "2026-08-15T12:13:56.000741+00:00", "photo_url": null }, "geometry": { "type": "LineString", "coordinates": [ [ 19.0011316, 69.6281614 ], [ 19.0011475, 69.6281385 ], [ 19.0011342, 69.6281178 ], [ 19.0011286, 69.628098 ], [ 19.0011245, 69.6280772 ], [ 19.0010876, 69.6280639 ], [ 19.0010434, 69.6280477 ], [ 19.001011, 69.6280315 ], [ 19.0010728, 69.6280261 ], [ 19.0012169, 69.6280097 ], [ 19.001241, 69.6279875 ], [ 19.0012362, 69.6279659 ], [ 19.0012218, 69.6279485 ], [ 19.0012183, 69.6279292 ], [ 19.0011673, 69.6279246 ], [ 19.001123, 69.6279139 ], [ 19.0010954, 69.6278932 ], [ 19.0010833, 69.627874 ] ] } },
{ "type": "Feature", "properties": { "id": 75, "group_name": "Group 1", "observation_type": "Track trail", "measurement": "0", "cairn_height": "", "cairn_diameter": "", "surface_condition": "", "trail_architecture": "", "note": "", "wet_trail_condition": "", "gps_accuracy": 3.0, "created_at": "2026-08-15T12:13:04.287754+00:00", "photo_url": null }, "geometry": { "type": "LineString", "coordinates": [ [ 18.9990828, 69.6277048 ], [ 18.9990586, 69.6276849 ], [ 18.9990948, 69.6276579 ], [ 18.9991093, 69.6276377 ], [ 18.9991097, 69.6276184 ], [ 18.9990998, 69.6275992 ], [ 18.9991307, 69.6275832 ], [ 18.9991573, 69.6275632 ], [ 18.9991667, 69.6275423 ], [ 18.9991417, 69.6275261 ], [ 18.9991231, 69.6275025 ], [ 18.9991114, 69.6274779 ], [ 18.9990721, 69.6274659 ], [ 18.9990329, 69.6274496 ], [ 18.9990061, 69.6274304 ], [ 18.9989916, 69.6274089 ], [ 18.9989749, 69.6273898 ], [ 18.9989616, 69.627371 ], [ 18.9989789, 69.6273535 ], [ 18.9989775, 69.6273325 ], [ 18.9989429, 69.6273148 ], [ 18.9989486, 69.6272952 ] ] } },
{ "type": "Feature", "properties": { "id": 74, "group_name": "Group 1", "observation_type": "Track trail", "measurement": "0.35", "cairn_height": "", "cairn_diameter": "", "surface_condition": "", "trail_architecture": "", "note": "", "wet_trail_condition": "", "gps_accuracy": 3.0, "created_at": "2026-08-15T12:12:05.295784+00:00", "photo_url": null }, "geometry": { "type": "LineString", "coordinates": [ [ 19.0009736, 69.6283046 ], [ 19.0009882, 69.6282836 ], [ 19.0009989, 69.6282631 ], [ 19.0010201, 69.6282452 ], [ 19.0010442, 69.6282274 ], [ 19.0010539, 69.6282072 ], [ 19.0010633, 69.6281891 ], [ 19.0010953, 69.6281729 ], [ 19.0011323, 69.6281552 ] ] } },
{ "type": "Feature", "properties": { "id": 73, "group_name": "Group 1", "observation_type": "Track trail", "measurement": "0", "cairn_height": "", "cairn_diameter": "", "surface_condition": "", "trail_architecture": "", "note": "", "wet_trail_condition": "", "gps_accuracy": 3.0, "created_at": "2026-08-15T12:11:44.353625+00:00", "photo_url": null }, "geometry": { "type": "LineString", "coordinates": [ [ 18.9979275, 69.6279244 ], [ 18.9979973, 69.6279202 ], [ 18.9980456, 69.6279107 ], [ 18.9980924, 69.6278993 ], [ 18.9981407, 69.6278913 ], [ 18.998196, 69.6278841 ], [ 18.9982553, 69.6278727 ], [ 18.9982937, 69.6278588 ], [ 18.9983192, 69.6278422 ], [ 18.9983556, 69.6278289 ], [ 18.9984152, 69.6278253 ], [ 18.9984786, 69.6278217 ], [ 18.9985129, 69.6278079 ], [ 18.9985783, 69.6277969 ], [ 18.9986323, 69.6277863 ], [ 18.9986909, 69.6277708 ], [ 18.99874, 69.627764 ], [ 18.9988155, 69.6277614 ], [ 18.99887, 69.6277593 ], [ 18.9989263, 69.6277618 ], [ 18.9989978, 69.6277544 ], [ 18.9990509, 69.6277477 ], [ 18.9990729, 69.6277274 ] ] } },
{ "type": "Feature", "properties": { "id": 72, "group_name": "Group 1", "observation_type": "Track trail", "measurement": "0.78", "cairn_height": "", "cairn_diameter": "", "surface_condition": "", "trail_architecture": "", "note": "", "wet_trail_condition": "", "gps_accuracy": 3.0, "created_at": "2026-08-15T12:11:31.60134+00:00", "photo_url": "https://oehndpyzeoywfypqtsjs.supabase.co/storage/v1/object/public/observation-photos/72/1786795891694.jpg" }, "geometry": { "type": "LineString", "coordinates": [ [ 18.9951885, 69.629924 ], [ 18.9952404, 69.6299118 ], [ 18.9952841, 69.6298931 ], [ 18.9953187, 69.6298742 ], [ 18.9953595, 69.6298631 ], [ 18.9954059, 69.6298537 ], [ 18.9954624, 69.6298497 ], [ 18.99552, 69.6298415 ], [ 18.9955734, 69.6298354 ], [ 18.9956316, 69.6298216 ], [ 18.9956771, 69.6298127 ], [ 18.9957277, 69.6297984 ], [ 18.9957723, 69.6297857 ], [ 18.9958152, 69.6297688 ], [ 18.9958574, 69.6297557 ], [ 18.9959036, 69.6297389 ], [ 18.995939, 69.6297206 ], [ 18.9959848, 69.6297082 ], [ 18.9960365, 69.6296946 ], [ 18.9960654, 69.6296738 ], [ 18.9961043, 69.6296553 ], [ 18.9961306, 69.6296384 ], [ 18.9961589, 69.6296217 ], [ 18.9961837, 69.6296056 ], [ 18.9962353, 69.6296029 ], [ 18.9963493, 69.6295846 ], [ 18.9963862, 69.6295641 ], [ 18.9964168, 69.6295493 ], [ 18.9964692, 69.6295376 ], [ 18.9965216, 69.629527 ], [ 18.9965693, 69.6295167 ], [ 18.9966253, 69.6295091 ], [ 18.9966815, 69.6295007 ], [ 18.9967261, 69.629491 ], [ 18.9967732, 69.6294814 ], [ 18.9968236, 69.6294753 ], [ 18.9968727, 69.6294687 ], [ 18.9969315, 69.6294596 ], [ 18.996992, 69.6294606 ], [ 18.9970556, 69.62946 ], [ 18.9970575, 69.6294392 ], [ 18.9971194, 69.629436 ], [ 18.9971855, 69.6294283 ], [ 18.9972456, 69.6294215 ], [ 18.9973155, 69.6294139 ], [ 18.9973743, 69.629413 ], [ 18.9974063, 69.6294305 ], [ 18.9974233, 69.6294475 ], [ 18.9974374, 69.6294693 ], [ 18.9974312, 69.6294486 ], [ 18.9973901, 69.6294365 ], [ 18.9973535, 69.62942 ], [ 18.997391, 69.6293976 ], [ 18.9974463, 69.6293892 ], [ 18.9974979, 69.6293808 ], [ 18.9975626, 69.6293725 ], [ 18.997603, 69.6293606 ], [ 18.9976585, 69.6293571 ], [ 18.9977035, 69.6293452 ], [ 18.9977066, 69.629325 ], [ 18.9976874, 69.6293076 ], [ 18.9975857, 69.6292933 ], [ 18.9975223, 69.6293022 ] ] } },
{ "type": "Feature", "properties": { "id": 71, "group_name": "Group 1", "observation_type": "Track trail", "measurement": "0", "cairn_height": "", "cairn_diameter": "", "surface_condition": "", "trail_architecture": "", "note": "", "wet_trail_condition": "", "gps_accuracy": 3.0, "created_at": "2026-08-15T12:10:38.601507+00:00", "photo_url": null }, "geometry": { "type": "LineString", "coordinates": [ [ 18.9992689, 69.6283705 ], [ 18.9992204, 69.6283553 ], [ 18.9991988, 69.6283372 ], [ 18.9991469, 69.6283201 ], [ 18.9990896, 69.6283138 ], [ 18.9990331, 69.6282992 ], [ 18.9989845, 69.6282868 ], [ 18.9989209, 69.6282774 ], [ 18.9988767, 69.628262 ], [ 18.9988435, 69.6282448 ], [ 18.9988046, 69.6282313 ], [ 18.9987561, 69.6282184 ], [ 18.9987283, 69.6282026 ], [ 18.9987043, 69.6281846 ], [ 18.9986376, 69.62818 ], [ 18.9985572, 69.6281757 ], [ 18.9985025, 69.6281676 ], [ 18.9984583, 69.628154 ], [ 18.9984131, 69.6281388 ], [ 18.9983884, 69.6281206 ], [ 18.998344, 69.6281039 ], [ 18.9982985, 69.6280883 ], [ 18.9982715, 69.6280694 ], [ 18.9982539, 69.628048 ], [ 18.9982442, 69.6280253 ], [ 18.9981992, 69.6280087 ], [ 18.9981726, 69.6279913 ], [ 18.9981163, 69.6279849 ], [ 18.9980612, 69.6279802 ], [ 18.9980371, 69.6279634 ], [ 18.9979978, 69.6279434 ], [ 18.9979625, 69.6279227 ] ] } },
{ "type": "Feature", "properties": { "id": 69, "group_name": "Group 1", "observation_type": "Track trail", "measurement": "0", "cairn_height": "", "cairn_diameter": "", "surface_condition": "", "trail_architecture": "", "note": "", "wet_trail_condition": "", "gps_accuracy": 3.0, "created_at": "2026-08-15T12:07:01.619831+00:00", "photo_url": null }, "geometry": { "type": "LineString", "coordinates": [ [ 18.9933861, 69.6280262 ], [ 18.9933383, 69.6280139 ], [ 18.9933032, 69.6279987 ], [ 18.9932771, 69.6279812 ], [ 18.9932612, 69.627964 ], [ 18.9932493, 69.6279426 ], [ 18.9932224, 69.6279245 ], [ 18.9931782, 69.6279094 ], [ 18.9931439, 69.6278897 ], [ 18.9931365, 69.6278693 ] ] } },
{ "type": "Feature", "properties": { "id": 65, "group_name": "Group 1", "observation_type": "Track trail", "measurement": "0", "cairn_height": "", "cairn_diameter": "", "surface_condition": "", "trail_architecture": "", "note": "", "wet_trail_condition": "", "gps_accuracy": 3.0, "created_at": "2026-08-15T12:05:23.06492+00:00", "photo_url": null }, "geometry": { "type": "LineString", "coordinates": [ [ 18.9934604, 69.6280927 ], [ 18.993444, 69.6280708 ], [ 18.9934589, 69.6280527 ], [ 18.9934867, 69.6280374 ], [ 18.9935487, 69.6280268 ], [ 18.9935922, 69.6280132 ], [ 18.9936212, 69.627997 ], [ 18.9936448, 69.627973 ], [ 18.9936826, 69.6279596 ], [ 18.9937042, 69.6279413 ], [ 18.9937075, 69.6279198 ], [ 18.9937361, 69.6279025 ] ] } },
{ "type": "Feature", "properties": { "id": 58, "group_name": "Group 1", "observation_type": "Track trail", "measurement": "0", "cairn_height": "", "cairn_diameter": "", "surface_condition": "", "trail_architecture": "", "note": "", "wet_trail_condition": "", "gps_accuracy": 4.65199995040894, "created_at": "2026-08-15T12:01:27.121437+00:00", "photo_url": null }, "geometry": { "type": "LineString", "coordinates": [ [ 18.9945829, 69.6292153 ], [ 18.9945787, 69.6291864 ], [ 18.9945605, 69.6291588 ], [ 18.9945579, 69.6291355 ], [ 18.9945586, 69.6291115 ], [ 18.9945621, 69.6290868 ], [ 18.9945527, 69.629069 ], [ 18.9945567, 69.6290474 ], [ 18.9946082, 69.6290265 ], [ 18.9946439, 69.629012 ], [ 18.9946948, 69.6289984 ], [ 18.9947475, 69.6289867 ], [ 18.9947792, 69.6289717 ], [ 18.9947971, 69.6289529 ], [ 18.9947915, 69.6289346 ], [ 18.994835, 69.6288355 ], [ 18.9948673, 69.6288089 ], [ 18.994894, 69.6287881 ] ] } },
{ "type": "Feature", "properties": { "id": 51, "group_name": "Group 1", "observation_type": "Track trail", "measurement": "0.5", "cairn_height": "", "cairn_diameter": "", "surface_condition": "", "trail_architecture": "", "note": "", "wet_trail_condition": "", "gps_accuracy": 3.0, "created_at": "2026-08-15T11:58:41.677675+00:00", "photo_url": null }, "geometry": { "type": "LineString", "coordinates": [ [ 18.9951873, 69.6322607 ], [ 18.995238, 69.6322708 ], [ 18.9952942, 69.6322746 ], [ 18.9953488, 69.6322746 ], [ 18.9954136, 69.6322663 ], [ 18.9954652, 69.6322536 ], [ 18.9955143, 69.6322386 ], [ 18.9955683, 69.632231 ], [ 18.9956209, 69.6322246 ], [ 18.9956927, 69.6322182 ], [ 18.9957502, 69.632217 ], [ 18.9958068, 69.6322121 ], [ 18.9965352, 69.6319738 ], [ 18.9965595, 69.6319466 ] ] } },
{ "type": "Feature", "properties": { "id": 50, "group_name": "Group 1", "observation_type": "Track trail", "measurement": "0", "cairn_height": "", "cairn_diameter": "", "surface_condition": "", "trail_architecture": "", "note": "", "wet_trail_condition": "", "gps_accuracy": 3.0, "created_at": "2026-08-15T11:58:37.429504+00:00", "photo_url": null }, "geometry": { "type": "LineString", "coordinates": [ [ 18.9941053, 69.6285981 ], [ 18.9940816, 69.6286163 ], [ 18.9940278, 69.6286402 ], [ 18.9939842, 69.6286535 ], [ 18.9939316, 69.6286666 ], [ 18.9938897, 69.6286805 ], [ 18.9938591, 69.6286955 ], [ 18.993806, 69.6287093 ], [ 18.9937517, 69.628717 ], [ 18.9936989, 69.6287274 ], [ 18.9936525, 69.6287405 ], [ 18.9935978, 69.6287421 ] ] } },
{ "type": "Feature", "properties": { "id": 48, "group_name": "Group 1", "observation_type": "Track trail", "measurement": "0.33", "cairn_height": "", "cairn_diameter": "", "surface_condition": "", "trail_architecture": "", "note": "", "wet_trail_condition": "", "gps_accuracy": 3.0, "created_at": "2026-08-15T11:57:30.929721+00:00", "photo_url": null }, "geometry": { "type": "LineString", "coordinates": [ [ 18.9949029, 69.6303556 ], [ 18.9948685, 69.6303389 ], [ 18.9948239, 69.6303251 ], [ 18.994789, 69.6303112 ], [ 18.9947586, 69.6302954 ], [ 18.9947218, 69.6302813 ] ] } },
{ "type": "Feature", "properties": { "id": 43, "group_name": "Group 1", "observation_type": "Track trail", "measurement": "0", "cairn_height": "", "cairn_diameter": "", "surface_condition": "", "trail_architecture": "", "note": "", "wet_trail_condition": "", "gps_accuracy": 3.0, "created_at": "2026-08-15T11:55:24.700532+00:00", "photo_url": null }, "geometry": { "type": "LineString", "coordinates": [ [ 18.9914262, 69.6279326 ], [ 18.9914685, 69.6279171 ], [ 18.9915081, 69.6278871 ], [ 18.9915362, 69.6278704 ], [ 18.9915884, 69.627843 ], [ 18.9916468, 69.6278253 ], [ 18.9917017, 69.6278135 ], [ 18.9917502, 69.6277998 ], [ 18.9917808, 69.6277809 ], [ 18.9917924, 69.6277587 ], [ 18.99181, 69.6277413 ], [ 18.9918254, 69.6277198 ], [ 18.9918376, 69.6276981 ], [ 18.9918729, 69.6276752 ], [ 18.9919068, 69.6276586 ], [ 18.991935, 69.6276363 ], [ 18.9919527, 69.6276092 ], [ 18.991983, 69.6275876 ], [ 18.9920146, 69.6275651 ], [ 18.9920552, 69.6275403 ], [ 18.9920866, 69.6275208 ], [ 18.9921105, 69.6275044 ], [ 18.9921398, 69.6274888 ], [ 18.992172, 69.6274656 ], [ 18.9922074, 69.6274425 ], [ 18.9922242, 69.6274216 ], [ 18.9922449, 69.6274026 ], [ 18.9922665, 69.6273812 ], [ 18.9922959, 69.6273635 ] ] } },
{ "type": "Feature", "properties": { "id": 41, "group_name": "Group 1", "observation_type": "Track trail", "measurement": "0.4", "cairn_height": "", "cairn_diameter": "", "surface_condition": "", "trail_architecture": "", "note": "", "wet_trail_condition": "", "gps_accuracy": 3.1689999103546098, "created_at": "2026-08-15T11:54:03.3785+00:00", "photo_url": null }, "geometry": { "type": "LineString", "coordinates": [ [ 18.9949552, 69.633166 ], [ 18.9949531, 69.6331437 ], [ 18.9949387, 69.6331256 ], [ 18.9949235, 69.6331053 ], [ 18.9949136, 69.6330847 ], [ 18.9948965, 69.6330631 ], [ 18.9948883, 69.6330416 ], [ 18.9948889, 69.6330216 ], [ 18.9949071, 69.6330032 ], [ 18.9949105, 69.6329851 ], [ 18.9948937, 69.6329258 ] ] } },
{ "type": "Feature", "properties": { "id": 39, "group_name": "Group 1", "observation_type": "Track trail", "measurement": "0", "cairn_height": "", "cairn_diameter": "", "surface_condition": "", "trail_architecture": "", "note": "", "wet_trail_condition": "", "gps_accuracy": 3.0, "created_at": "2026-08-15T11:53:22.756907+00:00", "photo_url": null }, "geometry": { "type": "LineString", "coordinates": [ [ 18.9926585, 69.6323299 ], [ 18.9946437, 69.6301155 ], [ 18.9946664, 69.6300762 ], [ 18.9947121, 69.6300559 ], [ 18.9947544, 69.6300427 ], [ 18.9948457, 69.630025 ], [ 18.9949086, 69.6300146 ], [ 18.9949528, 69.6300024 ], [ 18.9949926, 69.6299905 ] ] } },
{ "type": "Feature", "properties": { "id": 36, "group_name": "Group 1", "observation_type": "Track trail", "measurement": "0", "cairn_height": "", "cairn_diameter": "", "surface_condition": "", "trail_architecture": "", "note": "", "wet_trail_condition": "", "gps_accuracy": 3.0, "created_at": "2026-08-15T11:50:36.719075+00:00", "photo_url": null }, "geometry": { "type": "LineString", "coordinates": [ [ 18.9919171, 69.630886 ], [ 18.991953, 69.630865 ], [ 18.9920074, 69.6308598 ], [ 18.9920758, 69.6308518 ], [ 18.9921239, 69.6308446 ], [ 18.992167, 69.6308311 ], [ 18.9922148, 69.6308145 ], [ 18.9922771, 69.6307977 ], [ 18.9923252, 69.6307872 ], [ 18.9923358, 69.630764 ], [ 18.9923659, 69.6307428 ], [ 18.9923932, 69.6307233 ], [ 18.9924341, 69.6307067 ], [ 18.9924775, 69.6306962 ], [ 18.9925321, 69.6306828 ], [ 18.992582, 69.6306697 ], [ 18.9924955, 69.6306758 ], [ 18.992456, 69.6306923 ], [ 18.9925081, 69.6306873 ], [ 18.9925672, 69.6306789 ], [ 18.9926302, 69.6306515 ], [ 18.9926647, 69.630628 ], [ 18.9926988, 69.6306092 ], [ 18.9927534, 69.6305925 ], [ 18.9928183, 69.6306075 ] ] } },
{ "type": "Feature", "properties": { "id": 35, "group_name": "Group 1", "observation_type": "Track trail", "measurement": "0.44", "cairn_height": "", "cairn_diameter": "", "surface_condition": "", "trail_architecture": "", "note": "Barely visible, probably the start of a new route, more like flat roots than a proper route", "wet_trail_condition": "", "gps_accuracy": 3.28600001335144, "created_at": "2026-08-15T11:50:17.991408+00:00", "photo_url": null }, "geometry": { "type": "LineString", "coordinates": [ [ 18.9944367, 69.63254 ], [ 18.9944944, 69.6325349 ], [ 18.9945425, 69.632527 ], [ 18.994578, 69.6325123 ], [ 18.9946242, 69.6325028 ], [ 18.9946773, 69.6324964 ], [ 18.994957, 69.6324912 ], [ 18.9948925, 69.632472 ], [ 18.9948391, 69.6324613 ], [ 18.9948653, 69.6324445 ], [ 18.9949136, 69.6324346 ] ] } },
{ "type": "Feature", "properties": { "id": 34, "group_name": "Group 1", "observation_type": "Track trail", "measurement": "0.65", "cairn_height": "", "cairn_diameter": "", "surface_condition": "", "trail_architecture": "", "note": "", "wet_trail_condition": "", "gps_accuracy": 3.78999996185303, "created_at": "2026-08-15T11:49:15.215426+00:00", "photo_url": null }, "geometry": { "type": "LineString", "coordinates": [ [ 18.9909703, 69.6312171 ], [ 18.9909262, 69.6311923 ], [ 18.9908716, 69.6311759 ], [ 18.9908201, 69.6311569 ], [ 18.9907749, 69.6311378 ], [ 18.9907505, 69.6311175 ], [ 18.9907371, 69.6310993 ], [ 18.9907078, 69.6310737 ], [ 18.9906596, 69.6310518 ], [ 18.9906097, 69.6310348 ], [ 18.9905402, 69.63102 ], [ 18.9904898, 69.6310042 ], [ 18.9904651, 69.6309863 ], [ 18.9904405, 69.6309661 ], [ 18.9904083, 69.6309486 ], [ 18.9903808, 69.6309333 ], [ 18.9903572, 69.6309063 ], [ 18.990331, 69.6308863 ], [ 18.9903039, 69.6308664 ], [ 18.9902865, 69.6308482 ], [ 18.9902599, 69.630829 ], [ 18.9902435, 69.6308116 ], [ 18.9902305, 69.6307928 ], [ 18.9902233, 69.6307698 ], [ 18.9902024, 69.6307487 ], [ 18.9901771, 69.6307281 ], [ 18.9901621, 69.6307063 ], [ 18.9901515, 69.6306886 ], [ 18.9901315, 69.6306673 ], [ 18.9901232, 69.6306475 ], [ 18.990114, 69.630624 ], [ 18.9901115, 69.6306027 ], [ 18.9901115, 69.6305791 ], [ 18.9901073, 69.6305555 ], [ 18.9900967, 69.6305293 ], [ 18.990092, 69.6305099 ], [ 18.9900867, 69.6304858 ], [ 18.9900797, 69.6304661 ], [ 18.9900582, 69.6304455 ], [ 18.9900383, 69.6304243 ], [ 18.9900162, 69.6304031 ], [ 18.9899951, 69.6303847 ], [ 18.9899841, 69.6303579 ], [ 18.989981, 69.6303287 ], [ 18.9899766, 69.6303054 ], [ 18.989963, 69.6302809 ], [ 18.9899539, 69.6302604 ], [ 18.9899378, 69.6302408 ], [ 18.9899052, 69.6302224 ], [ 18.9898669, 69.6302009 ], [ 18.9898378, 69.6301787 ], [ 18.9898141, 69.6301579 ], [ 18.9897814, 69.6301317 ], [ 18.9897583, 69.6301139 ], [ 18.9897294, 69.6300949 ], [ 18.9896907, 69.6300757 ], [ 18.989672, 69.6300576 ], [ 18.9896566, 69.6300363 ], [ 18.9896285, 69.6300161 ], [ 18.9895998, 69.6299913 ], [ 18.9895784, 69.6299681 ], [ 18.9895705, 69.6299455 ], [ 18.9895424, 69.6299263 ], [ 18.9895295, 69.6299088 ], [ 18.9895068, 69.6298898 ], [ 18.9894783, 69.6298708 ], [ 18.9894527, 69.6298515 ], [ 18.9894361, 69.6298325 ], [ 18.9894295, 69.6298104 ], [ 18.9894211, 69.6297885 ], [ 18.9894035, 69.6297657 ], [ 18.9893798, 69.6297425 ], [ 18.9893644, 69.6297206 ], [ 18.9893489, 69.6296942 ], [ 18.9893297, 69.6296702 ], [ 18.9893304, 69.6296495 ], [ 18.9893497, 69.6296262 ], [ 18.9893687, 69.6296037 ], [ 18.9893805, 69.6295755 ], [ 18.9893544, 69.6295528 ], [ 18.9893382, 69.6295353 ], [ 18.9893355, 69.6295109 ], [ 18.9893164, 69.6294859 ], [ 18.9893041, 69.6294624 ], [ 18.9893024, 69.6294437 ] ] } },
{ "type": "Feature", "properties": { "id": 28, "group_name": "Group 1", "observation_type": "Track trail", "measurement": "0", "cairn_height": "", "cairn_diameter": "", "surface_condition": "", "trail_architecture": "", "note": "", "wet_trail_condition": "", "gps_accuracy": 3.0, "created_at": "2026-08-15T11:46:25.68607+00:00", "photo_url": null }, "geometry": { "type": "LineString", "coordinates": [ [ 18.9931677, 69.6329225 ], [ 18.9932186, 69.6329126 ], [ 18.9932387, 69.6328837 ], [ 18.9932558, 69.632865 ], [ 18.9932469, 69.6328458 ], [ 18.9932359, 69.6328199 ], [ 18.9932246, 69.6327942 ], [ 18.9931854, 69.6327671 ], [ 18.9931718, 69.6327406 ], [ 18.9931403, 69.6327247 ], [ 18.9931106, 69.6327038 ], [ 18.9930725, 69.6326902 ], [ 18.9930597, 69.632672 ], [ 18.9930296, 69.6326469 ], [ 18.9930115, 69.6326264 ], [ 18.9929954, 69.6326072 ], [ 18.9929651, 69.6325877 ], [ 18.9929576, 69.6325549 ], [ 18.9929977, 69.6325338 ], [ 18.9930147, 69.6325055 ], [ 18.9929832, 69.6324867 ], [ 18.9929361, 69.6324715 ], [ 18.9929101, 69.6324548 ], [ 18.9929422, 69.6324397 ], [ 18.9929198, 69.6324227 ], [ 18.9928746, 69.6324126 ], [ 18.9928263, 69.6324038 ], [ 18.9927811, 69.6323926 ], [ 18.9928294, 69.6324009 ], [ 18.9928653, 69.6324146 ], [ 18.9928386, 69.6323964 ], [ 18.9928103, 69.6323745 ], [ 18.9927993, 69.6323567 ], [ 18.9927585, 69.6323448 ], [ 18.9927282, 69.6323268 ], [ 18.9927072, 69.6323074 ], [ 18.9926546, 69.6322978 ], [ 18.992605, 69.6322846 ], [ 18.9925777, 69.6322691 ], [ 18.9925723, 69.6322483 ], [ 18.9925466, 69.6322279 ], [ 18.9924948, 69.632214 ], [ 18.9924536, 69.632199 ], [ 18.9924292, 69.6321779 ], [ 18.9924132, 69.6321575 ], [ 18.992408, 69.6321364 ], [ 18.9923895, 69.6321174 ], [ 18.9923564, 69.6321019 ], [ 18.9923039, 69.6321021 ], [ 18.9922714, 69.632084 ], [ 18.9922534, 69.6320611 ], [ 18.9922395, 69.63204 ], [ 18.9922387, 69.6320204 ], [ 18.9922179, 69.6320011 ], [ 18.992164, 69.631976 ], [ 18.9921134, 69.6319605 ], [ 18.9920746, 69.6319423 ], [ 18.9920702, 69.6319207 ], [ 18.9920537, 69.6319028 ], [ 18.9920104, 69.6318909 ], [ 18.991972, 69.6319061 ], [ 18.9920227, 69.6319021 ], [ 18.9920341, 69.6318841 ], [ 18.9920306, 69.631861 ], [ 18.9920122, 69.6318435 ], [ 18.9919797, 69.6318269 ], [ 18.9919456, 69.6318079 ], [ 18.9919125, 69.6317936 ], [ 18.9918739, 69.6317731 ], [ 18.9918438, 69.6317584 ], [ 18.9917959, 69.6317369 ], [ 18.9918005, 69.6317179 ], [ 18.9918093, 69.6316916 ], [ 18.991786, 69.6316707 ], [ 18.9917483, 69.631652 ], [ 18.991739, 69.631634 ], [ 18.9917185, 69.6316159 ], [ 18.9916788, 69.6315917 ], [ 18.9916554, 69.6315755 ], [ 18.9916167, 69.6315541 ], [ 18.9915955, 69.6315346 ], [ 18.9915733, 69.6315117 ], [ 18.9915576, 69.6314931 ], [ 18.9915499, 69.6314747 ], [ 18.9916143, 69.631461 ], [ 18.99165, 69.6314753 ], [ 18.9917031, 69.6314788 ], [ 18.991715, 69.6314571 ], [ 18.9916993, 69.6314345 ], [ 18.9916617, 69.6314127 ], [ 18.9916167, 69.6313959 ], [ 18.9916235, 69.6313777 ], [ 18.9916286, 69.631351 ], [ 18.991678, 69.6313322 ], [ 18.991716, 69.6313143 ], [ 18.9917651, 69.6313028 ], [ 18.9917995, 69.6312796 ], [ 18.9918222, 69.6312577 ], [ 18.9918412, 69.6312407 ], [ 18.9918687, 69.631223 ], [ 18.991897, 69.6311978 ], [ 18.991923, 69.6311792 ] ] } },
{ "type": "Feature", "properties": { "id": 27, "group_name": "Group 1", "observation_type": "Track trail", "measurement": "0.51", "cairn_height": "", "cairn_diameter": "", "surface_condition": "", "trail_architecture": "", "note": "", "wet_trail_condition": "", "gps_accuracy": 3.78999996185303, "created_at": "2026-08-15T11:44:36.770928+00:00", "photo_url": "https://oehndpyzeoywfypqtsjs.supabase.co/storage/v1/object/public/observation-photos/27/1786794277438.jpg" }, "geometry": { "type": "LineString", "coordinates": [ [ 18.9919261, 69.6334674 ], [ 18.9919372, 69.633449 ], [ 18.9919551, 69.6334206 ], [ 18.9919817, 69.6333934 ], [ 18.9920141, 69.6333755 ], [ 18.9920561, 69.633359 ], [ 18.9921057, 69.6333453 ], [ 18.9921472, 69.633328 ], [ 18.9921958, 69.6333099 ], [ 18.9922505, 69.6332963 ], [ 18.9923163, 69.6332876 ], [ 18.9923758, 69.6332738 ], [ 18.9924241, 69.6332618 ], [ 18.9924578, 69.6332442 ], [ 18.9924992, 69.6332296 ], [ 18.9925433, 69.6332097 ], [ 18.992538, 69.633186 ], [ 18.9925278, 69.6331628 ], [ 18.9925034, 69.6331403 ], [ 18.9924882, 69.6331174 ], [ 18.9924847, 69.6330986 ], [ 18.9924925, 69.6330777 ], [ 18.9925056, 69.6330563 ], [ 18.9925101, 69.633035 ], [ 18.9925059, 69.6330157 ], [ 18.9925012, 69.6329941 ], [ 18.9924952, 69.6329725 ], [ 18.992493, 69.6329531 ], [ 18.9924878, 69.6329295 ], [ 18.9924768, 69.6329066 ], [ 18.992453, 69.6328831 ], [ 18.992423, 69.6328588 ], [ 18.9924006, 69.6328355 ], [ 18.9923918, 69.6328122 ], [ 18.9923981, 69.6327905 ], [ 18.992386, 69.6327665 ], [ 18.9923673, 69.6327429 ], [ 18.9923545, 69.632723 ], [ 18.9923484, 69.6327008 ], [ 18.9923382, 69.6326798 ], [ 18.9923262, 69.6326569 ], [ 18.9923132, 69.6326335 ], [ 18.9922961, 69.6326123 ], [ 18.9922829, 69.6325914 ], [ 18.9922689, 69.6325687 ], [ 18.9922516, 69.6325457 ], [ 18.9922318, 69.632528 ], [ 18.9922065, 69.6325113 ], [ 18.9921762, 69.6324926 ], [ 18.9921393, 69.6324757 ], [ 18.9921017, 69.6324606 ], [ 18.992046, 69.6324501 ], [ 18.9919785, 69.6324409 ], [ 18.9919195, 69.6324421 ], [ 18.991847, 69.6324343 ], [ 18.9917919, 69.6324205 ], [ 18.9917531, 69.6324079 ], [ 18.9917055, 69.632391 ], [ 18.9916573, 69.6323745 ], [ 18.9916176, 69.6323605 ], [ 18.9915624, 69.6323459 ], [ 18.991513, 69.6323302 ], [ 18.9914753, 69.6323097 ], [ 18.9914652, 69.6322868 ], [ 18.9914415, 69.6322595 ], [ 18.9914183, 69.6322412 ], [ 18.9914004, 69.6322175 ], [ 18.9913819, 69.632197 ], [ 18.9913656, 69.6321758 ], [ 18.9913567, 69.6321559 ], [ 18.9913685, 69.6321357 ], [ 18.9913459, 69.6321133 ], [ 18.9913395, 69.6320943 ], [ 18.9913576, 69.6320702 ], [ 18.9913477, 69.6320466 ], [ 18.9913216, 69.6320307 ], [ 18.9913251, 69.6320105 ], [ 18.9913312, 69.6319916 ], [ 18.9913354, 69.6319666 ], [ 18.9913399, 69.6319475 ], [ 18.9912971, 69.6319279 ], [ 18.9912567, 69.6319158 ], [ 18.9912294, 69.6318918 ], [ 18.9912061, 69.6318698 ], [ 18.9911793, 69.6318451 ], [ 18.9911465, 69.6318201 ], [ 18.991111, 69.6317976 ], [ 18.9910705, 69.6317851 ], [ 18.9910251, 69.6317706 ], [ 18.991009, 69.631753 ], [ 18.9909848, 69.6317364 ], [ 18.9909577, 69.6317174 ], [ 18.9909202, 69.6317043 ], [ 18.9908664, 69.6316898 ], [ 18.99083, 69.6316768 ], [ 18.9907857, 69.6316589 ], [ 18.9907479, 69.6316391 ], [ 18.99073, 69.631621 ], [ 18.9907187, 69.6315966 ], [ 18.9907145, 69.6315731 ], [ 18.9907216, 69.6315521 ], [ 18.9907347, 69.6315332 ], [ 18.9907379, 69.6315072 ], [ 18.9907512, 69.6314822 ], [ 18.990778, 69.631463 ], [ 18.9908342, 69.6314648 ], [ 18.9908122, 69.6314409 ], [ 18.9908247, 69.6314156 ], [ 18.9908201, 69.6313913 ], [ 18.9907983, 69.6313664 ], [ 18.9907999, 69.6313438 ], [ 18.9908019, 69.6313177 ], [ 18.9908198, 69.631293 ], [ 18.9908366, 69.631275 ], [ 18.9908759, 69.6312502 ], [ 18.9909283, 69.6312331 ], [ 18.9909666, 69.6312143 ] ] } },
{ "type": "Feature", "properties": { "id": 26, "group_name": "Group 1", "observation_type": "Track trail", "measurement": "1.2", "cairn_height": "", "cairn_diameter": "", "surface_condition": "", "trail_architecture": "", "note": "", "wet_trail_condition": "", "gps_accuracy": 3.0, "created_at": "2026-08-15T11:44:30.888208+00:00", "photo_url": null }, "geometry": { "type": "LineString", "coordinates": [ [ 18.9954859, 69.6337077 ], [ 18.9954847, 69.6336883 ], [ 18.9954949, 69.6336701 ], [ 18.9954961, 69.633646 ], [ 18.9954883, 69.6336282 ], [ 18.9954674, 69.6336045 ], [ 18.9954549, 69.633587 ], [ 18.9954405, 69.6335684 ], [ 18.9954188, 69.6335504 ], [ 18.9954081, 69.6335304 ], [ 18.9953926, 69.6335082 ], [ 18.9953718, 69.6334904 ], [ 18.99536, 69.6334696 ], [ 18.9953427, 69.6334512 ], [ 18.9952524, 69.633393 ] ] } },
{ "type": "Feature", "properties": { "id": 21, "group_name": "Group 1", "observation_type": "Track trail", "measurement": "0", "cairn_height": "", "cairn_diameter": "", "surface_condition": "", "trail_architecture": "", "note": "", "wet_trail_condition": "", "gps_accuracy": 4.90100002288818, "created_at": "2026-08-15T11:42:44.772757+00:00", "photo_url": null }, "geometry": { "type": "LineString", "coordinates": [ [ 18.9919336, 69.632464 ], [ 18.9919097, 69.6324452 ], [ 18.9918663, 69.632428 ], [ 18.9918395, 69.632407 ], [ 18.9918081, 69.6323886 ], [ 18.9917781, 69.6323731 ], [ 18.9918188, 69.6323518 ], [ 18.9918747, 69.6323521 ] ] } },
{ "type": "Feature", "properties": { "id": 19, "group_name": "Group 1", "observation_type": "Track trail", "measurement": "0", "cairn_height": "", "cairn_diameter": "", "surface_condition": "", "trail_architecture": "", "note": "", "wet_trail_condition": "", "gps_accuracy": 3.0069999694824201, "created_at": "2026-08-15T11:41:43.11739+00:00", "photo_url": null }, "geometry": { "type": "LineString", "coordinates": [ [ 18.9924271, 69.6328818 ], [ 18.9924067, 69.6328627 ], [ 18.9923971, 69.6328443 ], [ 18.9923756, 69.6328128 ], [ 18.992357, 69.6327906 ], [ 18.9923363, 69.6327722 ], [ 18.9923251, 69.6327504 ], [ 18.9923255, 69.6327298 ], [ 18.9923171, 69.6327099 ], [ 18.9923033, 69.6326919 ], [ 18.9922859, 69.6326715 ], [ 18.9922796, 69.6326526 ], [ 18.9922768, 69.6326302 ], [ 18.9922799, 69.632605 ], [ 18.9922746, 69.6325857 ] ] } },
{ "type": "Feature", "properties": { "id": 17, "group_name": "Group 1", "observation_type": "Track trail", "measurement": "0", "cairn_height": "", "cairn_diameter": "", "surface_condition": "", "trail_architecture": "", "note": "", "wet_trail_condition": "", "gps_accuracy": 4.1820001602172896, "created_at": "2026-08-15T11:40:47.881456+00:00", "photo_url": null }, "geometry": { "type": "LineString", "coordinates": [ [ 18.993242, 69.6329936 ], [ 18.9932303, 69.6329722 ], [ 18.9931977, 69.6329569 ], [ 18.9931503, 69.6329401 ], [ 18.9931199, 69.6329197 ], [ 18.9930957, 69.6328991 ], [ 18.9930833, 69.6328743 ], [ 18.9930718, 69.6328506 ], [ 18.9930389, 69.6328354 ], [ 18.9930388, 69.6328168 ], [ 18.9929858, 69.6328255 ], [ 18.9929483, 69.6328403 ], [ 18.9929065, 69.6328548 ], [ 18.9928608, 69.6328713 ], [ 18.9928129, 69.6328826 ], [ 18.9927685, 69.6328961 ], [ 18.9925324, 69.6329533 ] ] } },
{ "type": "Feature", "properties": { "id": 14, "group_name": "Group 1", "observation_type": "Track trail", "measurement": "1.1", "cairn_height": "", "cairn_diameter": "", "surface_condition": "", "trail_architecture": "", "note": "", "wet_trail_condition": "", "gps_accuracy": 3.0, "created_at": "2026-08-15T11:38:50.207755+00:00", "photo_url": null }, "geometry": { "type": "LineString", "coordinates": [ [ 18.9957202, 69.6341123 ], [ 18.995647, 69.6341132 ], [ 18.9955844, 69.634121 ], [ 18.995522, 69.6341298 ], [ 18.9954689, 69.6341341 ], [ 18.9954092, 69.634134 ], [ 18.9953568, 69.6341369 ], [ 18.9953267, 69.6341522 ], [ 18.9953076, 69.6341698 ], [ 18.9952582, 69.6341823 ], [ 18.9952139, 69.6341957 ], [ 18.9947707, 69.634295 ] ] } },
{ "type": "Feature", "properties": { "id": 10, "group_name": "Group 1", "observation_type": "Track trail", "measurement": "0", "cairn_height": "", "cairn_diameter": "", "surface_condition": "", "trail_architecture": "", "note": "", "wet_trail_condition": "", "gps_accuracy": 4.1820001602172896, "created_at": "2026-08-15T11:36:00.866169+00:00", "photo_url": null }, "geometry": { "type": "LineString", "coordinates": [ [ 18.9937985, 69.6338653 ], [ 18.9937415, 69.6338637 ], [ 18.9936992, 69.6338484 ], [ 18.9936766, 69.6338301 ], [ 18.9936585, 69.6338122 ], [ 18.9936495, 69.6337885 ], [ 18.993653, 69.6337697 ], [ 18.9936653, 69.6337443 ], [ 18.993662, 69.6337231 ], [ 18.9936572, 69.6336996 ], [ 18.9936655, 69.6336814 ], [ 18.9936738, 69.6336596 ], [ 18.9936829, 69.6336401 ], [ 18.9937038, 69.6336184 ], [ 18.9937178, 69.6335957 ], [ 18.9937286, 69.6335732 ], [ 18.9937241, 69.6335539 ], [ 18.9937279, 69.6334993 ], [ 18.9937275, 69.6334679 ] ] } },
{ "type": "Feature", "properties": { "id": 9, "group_name": "Group 1", "observation_type": "Track trail", "measurement": "1.05", "cairn_height": "", "cairn_diameter": "", "surface_condition": "", "trail_architecture": "", "note": "", "wet_trail_condition": "", "gps_accuracy": 3.78999996185303, "created_at": "2026-08-15T11:35:49.067358+00:00", "photo_url": null }, "geometry": { "type": "LineString", "coordinates": [ [ 18.9911898, 69.6342362 ], [ 18.9911911, 69.6342169 ], [ 18.9911921, 69.6341908 ], [ 18.9911859, 69.6341703 ], [ 18.9911754, 69.6341459 ], [ 18.9911633, 69.63412 ], [ 18.9911504, 69.634097 ], [ 18.9911492, 69.6340758 ] ] } },
{ "type": "Feature", "properties": { "id": 8, "group_name": "Group 1", "observation_type": "Track trail", "measurement": "0", "cairn_height": "", "cairn_diameter": "", "surface_condition": "", "trail_architecture": "", "note": "", "wet_trail_condition": "", "gps_accuracy": 3.0, "created_at": "2026-08-15T11:35:48.9439+00:00", "photo_url": null }, "geometry": { "type": "LineString", "coordinates": [ [ 18.9940202, 69.6343984 ], [ 18.9939791, 69.6343808 ], [ 18.9939273, 69.6343678 ], [ 18.9938839, 69.6343499 ], [ 18.9938555, 69.6343313 ], [ 18.9938177, 69.6343162 ], [ 18.9937909, 69.634294 ], [ 18.9937718, 69.634273 ], [ 18.9937397, 69.6342523 ], [ 18.9936973, 69.6342383 ], [ 18.9936824, 69.6342205 ], [ 18.9936804, 69.6342013 ], [ 18.9936632, 69.6341765 ], [ 18.9936523, 69.6341567 ], [ 18.9936241, 69.6341388 ], [ 18.9936106, 69.6341205 ], [ 18.9936338, 69.634101 ], [ 18.9936366, 69.6340802 ], [ 18.9936058, 69.634062 ], [ 18.993577, 69.6340403 ], [ 18.9935479, 69.6340205 ], [ 18.9935248, 69.634 ], [ 18.993487, 69.6339841 ], [ 18.9934425, 69.6339651 ], [ 18.9934231, 69.6339437 ], [ 18.9934039, 69.6339235 ], [ 18.9934621, 69.633921 ], [ 18.9934818, 69.6339021 ], [ 18.9934432, 69.6338862 ], [ 18.9934055, 69.633872 ], [ 18.9933545, 69.6338625 ], [ 18.9932904, 69.6338597 ], [ 18.9932379, 69.6338549 ], [ 18.9931917, 69.633846 ], [ 18.9931461, 69.633833 ], [ 18.9931045, 69.633812 ], [ 18.9930697, 69.633791 ], [ 18.9930478, 69.6337744 ], [ 18.9930375, 69.6337548 ], [ 18.9930343, 69.6337319 ], [ 18.9929862, 69.6337235 ], [ 18.992957, 69.6337032 ], [ 18.9929219, 69.6336824 ], [ 18.9928989, 69.633664 ], [ 18.9928567, 69.633653 ], [ 18.9928525, 69.6336337 ], [ 18.992847, 69.6336121 ], [ 18.99283, 69.6335945 ] ] } },
{ "type": "Feature", "properties": { "id": 6, "group_name": "Group 1", "observation_type": "Track trail", "measurement": "0", "cairn_height": "", "cairn_diameter": "", "surface_condition": "", "trail_architecture": "", "note": "", "wet_trail_condition": "", "gps_accuracy": 3.0, "created_at": "2026-08-15T11:34:42.839773+00:00", "photo_url": null }, "geometry": { "type": "LineString", "coordinates": [ [ 18.9939338, 69.6344002 ], [ 18.9939474, 69.6343797 ], [ 18.9939306, 69.6343554 ], [ 18.9939119, 69.6343352 ], [ 18.9939299, 69.6343179 ], [ 18.9939382, 69.6342948 ], [ 18.993928, 69.6342749 ], [ 18.9939179, 69.6342564 ], [ 18.9939257, 69.6342321 ], [ 18.9939321, 69.6342091 ], [ 18.9939608, 69.6341872 ] ] } },
{ "type": "Feature", "properties": { "id": 4, "group_name": "Group 1", "observation_type": "Track trail", "measurement": "0.88", "cairn_height": "", "cairn_diameter": "", "surface_condition": "", "trail_architecture": "", "note": "", "wet_trail_condition": "", "gps_accuracy": 3.78999996185303, "created_at": "2026-08-15T11:32:33.253229+00:00", "photo_url": "https://oehndpyzeoywfypqtsjs.supabase.co/storage/v1/object/public/observation-photos/4/1786793554163.jpg" }, "geometry": { "type": "LineString", "coordinates": [ [ 18.9926908, 69.6344485 ], [ 18.9927196, 69.6344329 ], [ 18.9926811, 69.6344536 ], [ 18.992628, 69.6344769 ], [ 18.9925842, 69.6345007 ], [ 18.9925461, 69.6345264 ], [ 18.9925284, 69.6345516 ], [ 18.9925055, 69.6345715 ] ] } },
{ "type": "Feature", "properties": { "id": 3, "group_name": "Group 1", "observation_type": "Track trail", "measurement": "0.46", "cairn_height": "", "cairn_diameter": "", "surface_condition": "", "trail_architecture": "", "note": "", "wet_trail_condition": "", "gps_accuracy": 3.0, "created_at": "2026-08-15T11:31:50.513623+00:00", "photo_url": null }, "geometry": { "type": "LineString", "coordinates": [ [ 18.9942602, 69.6347882 ], [ 18.994254, 69.634763 ], [ 18.9942249, 69.6347466 ], [ 18.9942004, 69.6347303 ], [ 18.9941826, 69.6347091 ], [ 18.994146, 69.6346927 ], [ 18.9941233, 69.6346744 ], [ 18.9941248, 69.6346499 ], [ 18.9940598, 69.6346566 ] ] } },
{ "type": "Feature", "properties": { "id": 2, "group_name": "Group 1", "observation_type": "Track trail", "measurement": "0.57", "cairn_height": "", "cairn_diameter": "", "surface_condition": "", "trail_architecture": "", "note": "", "wet_trail_condition": "", "gps_accuracy": 3.0, "created_at": "2026-08-15T11:31:46.196055+00:00", "photo_url": null }, "geometry": { "type": "LineString", "coordinates": [ [ 18.994683, 69.6348274 ], [ 18.9947436, 69.6348248 ], [ 18.9947984, 69.6348274 ], [ 18.9948593, 69.6348305 ], [ 18.9949121, 69.6348275 ], [ 18.9949707, 69.6348237 ] ] } }
]
}
