{
"type": "FeatureCollection",
"name": "20260815_trailwidth",
"crs": { "type": "name", "properties": { "name": "urn:ogc:def:crs:OGC:1.3:CRS84" } },
"features": [
{ "type": "Feature", "properties": { "observation_id": 7, "trail_width (m)": 1.34, "surface_condition": "Barren Core", "trail_architecture": "Braided/Parallel trail", "note": "", "gps_accuracy": 3.4579999446868901, "created_at": "2026-08-15T11:34:51.713Z", "photo_url": "https://oehndpyzeoywfypqtsjs.supabase.co/storage/v1/object/public/observation-photos/7/1786793691829.jpg" }, "geometry": { "type": "Point", "coordinates": [ 18.9958192, 69.6344546 ] } },
{ "type": "Feature", "properties": { "observation_id": 15, "trail_width (m)": 54.0, "surface_condition": "Lightly Worn", "trail_architecture": "Single trail", "note": "", "gps_accuracy": 3.0, "created_at": "2026-08-15T11:39:09.142Z", "photo_url": null }, "geometry": { "type": "Point", "coordinates": [ 18.9933104, 69.6332809 ] } },
{ "type": "Feature", "properties": { "observation_id": 16, "trail_width (m)": 1.51, "surface_condition": "Barren Core", "trail_architecture": "Braided/Parallel trail", "note": "", "gps_accuracy": 3.0, "created_at": "2026-08-15T11:40:19.287Z", "photo_url": "https://oehndpyzeoywfypqtsjs.supabase.co/storage/v1/object/public/observation-photos/16/1786794022008.jpg" }, "geometry": { "type": "Point", "coordinates": [ 18.9948751, 69.6340643 ] } },
{ "type": "Feature", "properties": { "observation_id": 23, "trail_width (m)": 0.38, "surface_condition": "Root Exposed", "trail_architecture": "Single trail", "note": "", "gps_accuracy": 2.0821928754144698, "created_at": "2026-08-15T11:43:46.999Z", "photo_url": "https://oehndpyzeoywfypqtsjs.supabase.co/storage/v1/object/public/observation-photos/23/1786794227675.jpg" }, "geometry": { "type": "Point", "coordinates": [ 18.990786777470301, 69.631506870777997 ] } },
{ "type": "Feature", "properties": { "observation_id": 29, "trail_width (m)": 0.61, "surface_condition": "Lightly Worn", "trail_architecture": "Single trail", "note": "", "gps_accuracy": 3.0030000209808301, "created_at": "2026-08-15T11:46:45.957Z", "photo_url": null }, "geometry": { "type": "Point", "coordinates": [ 18.9917311, 69.6311112 ] } },
{ "type": "Feature", "properties": { "observation_id": 32, "trail_width (m)": 1.41, "surface_condition": "Barren Core", "trail_architecture": "Braided/Parallel trail", "note": "", "gps_accuracy": 3.0969998836517298, "created_at": "2026-08-15T11:47:58.346Z", "photo_url": "https://oehndpyzeoywfypqtsjs.supabase.co/storage/v1/object/public/observation-photos/32/1786794480976.jpg" }, "geometry": { "type": "Point", "coordinates": [ 18.9944082, 69.6325848 ] } },
{ "type": "Feature", "properties": { "observation_id": 37, "trail_width (m)": 4.0, "surface_condition": "Mixed grass and bare soil", "trail_architecture": "Braided/Parallel trail", "note": "", "gps_accuracy": 3.0, "created_at": "2026-08-15T11:52:19.942Z", "photo_url": null }, "geometry": { "type": "Point", "coordinates": [ 18.9950834, 69.6333481 ] } },
{ "type": "Feature", "properties": { "observation_id": 40, "trail_width (m)": 1.46, "surface_condition": "", "trail_architecture": "", "note": "", "gps_accuracy": 3.0, "created_at": "2026-08-15T11:53:53.569Z", "photo_url": null }, "geometry": { "type": "Point", "coordinates": [ 18.9945323, 69.6299341 ] } },
{ "type": "Feature", "properties": { "observation_id": 49, "trail_width (m)": 0.9, "surface_condition": "Barren Core", "trail_architecture": "Single trail", "note": "", "gps_accuracy": 2.6272044943041202, "created_at": "2026-08-15T11:57:33.097Z", "photo_url": "https://oehndpyzeoywfypqtsjs.supabase.co/storage/v1/object/public/observation-photos/49/1786795053334.jpg" }, "geometry": { "type": "Point", "coordinates": [ 18.9888059934115, 69.628773164480904 ] } },
{ "type": "Feature", "properties": { "observation_id": 54, "trail_width (m)": 3.6, "surface_condition": "Mixed grass and bare soil", "trail_architecture": "Single trail", "note": "", "gps_accuracy": 3.0, "created_at": "2026-08-15T12:00:16.529Z", "photo_url": null }, "geometry": { "type": "Point", "coordinates": [ 18.9950583, 69.6299595 ] } },
{ "type": "Feature", "properties": { "observation_id": 61, "trail_width (m)": 2.49, "surface_condition": "Barren Core", "trail_architecture": "Braided/Parallel trail", "note": "", "gps_accuracy": 3.0, "created_at": "2026-08-15T12:02:09.122Z", "photo_url": null }, "geometry": { "type": "Point", "coordinates": [ 18.9950219, 69.6321803 ] } },
{ "type": "Feature", "properties": { "observation_id": 63, "trail_width (m)": 0.16, "surface_condition": "", "trail_architecture": "", "note": "", "gps_accuracy": 3.0, "created_at": "2026-08-15T12:03:50.989Z", "photo_url": null }, "geometry": { "type": "Point", "coordinates": [ 18.9940454, 69.6283175 ] } },
{ "type": "Feature", "properties": { "observation_id": 68, "trail_width (m)": 2.55, "surface_condition": "Barren Core", "trail_architecture": "", "note": "", "gps_accuracy": 3.78999996185303, "created_at": "2026-08-15T12:06:59.626Z", "photo_url": null }, "geometry": { "type": "Point", "coordinates": [ 18.9850366, 69.6264221 ] } },
{ "type": "Feature", "properties": { "observation_id": 70, "trail_width (m)": 4.0, "surface_condition": "Barren Core", "trail_architecture": "Single trail", "note": "", "gps_accuracy": 2.61199998855591, "created_at": "2026-08-15T12:09:05.523Z", "photo_url": "https://oehndpyzeoywfypqtsjs.supabase.co/storage/v1/object/public/observation-photos/70/1786795747749.jpg" }, "geometry": { "type": "Point", "coordinates": [ 18.9999091, 69.6284494 ] } },
{ "type": "Feature", "properties": { "observation_id": 82, "trail_width (m)": 0.5, "surface_condition": "", "trail_architecture": "", "note": "", "gps_accuracy": 3.0820000171661399, "created_at": "2026-08-15T12:15:43.810Z", "photo_url": null }, "geometry": { "type": "Point", "coordinates": [ 18.9948079, 69.6271465 ] } },
{ "type": "Feature", "properties": { "observation_id": 83, "trail_width (m)": 0.75, "surface_condition": "Mixed grass and bare soil", "trail_architecture": "Single trail", "note": "", "gps_accuracy": 3.0, "created_at": "2026-08-15T12:16:08.160Z", "photo_url": "https://oehndpyzeoywfypqtsjs.supabase.co/storage/v1/object/public/observation-photos/83/1786796170579.jpg" }, "geometry": { "type": "Point", "coordinates": [ 19.0009828, 69.6278783 ] } },
{ "type": "Feature", "properties": { "observation_id": 86, "trail_width (m)": 1.03, "surface_condition": "Barren Core", "trail_architecture": "Single trail", "note": "", "gps_accuracy": 2.13079370218873, "created_at": "2026-08-15T12:17:17.473Z", "photo_url": null }, "geometry": { "type": "Point", "coordinates": [ 18.991130230210899, 69.625074693221706 ] } },
{ "type": "Feature", "properties": { "observation_id": 96, "trail_width (m)": 1.9, "surface_condition": "Barren Core", "trail_architecture": "Braided/Parallel trail", "note": "", "gps_accuracy": 3.0, "created_at": "2026-08-15T12:27:16.737Z", "photo_url": "https://oehndpyzeoywfypqtsjs.supabase.co/storage/v1/object/public/observation-photos/96/1786796839356.jpg" }, "geometry": { "type": "Point", "coordinates": [ 18.9982568, 69.6261304 ] } },
{ "type": "Feature", "properties": { "observation_id": 98, "trail_width (m)": 2.9, "surface_condition": "Mixed grass and bare soil", "trail_architecture": "Braided/Parallel trail", "note": "", "gps_accuracy": 3.0, "created_at": "2026-08-15T12:28:51.969Z", "photo_url": null }, "geometry": { "type": "Point", "coordinates": [ 18.9941133, 69.6255546 ] } },
{ "type": "Feature", "properties": { "observation_id": 106, "trail_width (m)": 5.0, "surface_condition": "Mixed grass and bare soil", "trail_architecture": "Braided/Parallel trail", "note": "", "gps_accuracy": 3.0, "created_at": "2026-08-15T12:40:23.170Z", "photo_url": null }, "geometry": { "type": "Point", "coordinates": [ 18.9973004, 69.6254412 ] } },
{ "type": "Feature", "properties": { "observation_id": 146, "trail_width (m)": 0.47, "surface_condition": "Barren Core", "trail_architecture": "Single trail", "note": "", "gps_accuracy": 3.0, "created_at": "2026-08-15T13:57:33.407Z", "photo_url": null }, "geometry": { "type": "Point", "coordinates": [ 18.9954347, 69.6260413 ] } },
{ "type": "Feature", "properties": { "observation_id": 171, "trail_width (m)": 1.17, "surface_condition": "Barren Core", "trail_architecture": "Braided/Parallel trail", "note": "", "gps_accuracy": 3.0, "created_at": "2026-08-15T14:19:14.383Z", "photo_url": null }, "geometry": { "type": "Point", "coordinates": [ 18.9940351, 69.6317933 ] } }
]
}
