{
"type": "FeatureCollection",
"name": "20260815_wettrails",
"crs": { "type": "name", "properties": { "name": "urn:ogc:def:crs:OGC:1.3:CRS84" } },
"features": [
{ "type": "Feature", "properties": { "observation_id": 1, "wet_trail_condition": "Muddy", "note": "", "gps_accuracy": 4.1529998779296902, "created_at": "2026-08-15T11:29:19.803Z", "photo_url": "https://oehndpyzeoywfypqtsjs.supabase.co/storage/v1/object/public/observation-photos/1/1786793360234.jpg" }, "geometry": { "type": "Point", "coordinates": [ 18.9945588, 69.6349461 ] } },
{ "type": "Feature", "properties": { "observation_id": 5, "wet_trail_condition": "Muddy", "note": "", "gps_accuracy": 3.9059998989105198, "created_at": "2026-08-15T11:33:11.315Z", "photo_url": "https://oehndpyzeoywfypqtsjs.supabase.co/storage/v1/object/public/observation-photos/5/1786793591770.jpg" }, "geometry": { "type": "Point", "coordinates": [ 18.9939853, 69.6344306 ] } },
{ "type": "Feature", "properties": { "observation_id": 11, "wet_trail_condition": "Water standing", "note": "Wet trail", "gps_accuracy": 3.0, "created_at": "2026-08-15T11:36:35.961Z", "photo_url": null }, "geometry": { "type": "Point", "coordinates": [ 18.9936873, 69.6334666 ] } },
{ "type": "Feature", "properties": { "observation_id": 12, "wet_trail_condition": "Muddy", "note": "", "gps_accuracy": 4.2309999465942401, "created_at": "2026-08-15T11:38:14.453Z", "photo_url": "https://oehndpyzeoywfypqtsjs.supabase.co/storage/v1/object/public/observation-photos/12/1786793897053.jpg" }, "geometry": { "type": "Point", "coordinates": [ 18.9948898, 69.6340579 ] } },
{ "type": "Feature", "properties": { "observation_id": 22, "wet_trail_condition": "Muddy", "note": "", "gps_accuracy": 3.0, "created_at": "2026-08-15T11:42:51.348Z", "photo_url": "https://oehndpyzeoywfypqtsjs.supabase.co/storage/v1/object/public/observation-photos/22/1786794174363.jpg" }, "geometry": { "type": "Point", "coordinates": [ 18.9941395, 69.6333863 ] } },
{ "type": "Feature", "properties": { "observation_id": 24, "wet_trail_condition": "Muddy", "note": "", "gps_accuracy": 4.69700002670288, "created_at": "2026-08-15T11:43:55.141Z", "photo_url": null }, "geometry": { "type": "Point", "coordinates": [ 18.9925279, 69.6322494 ] } },
{ "type": "Feature", "properties": { "observation_id": 25, "wet_trail_condition": "Muddy", "note": "", "gps_accuracy": 3.09899997711182, "created_at": "2026-08-15T11:44:22.432Z", "photo_url": null }, "geometry": { "type": "Point", "coordinates": [ 18.9924113, 69.6321605 ] } },
{ "type": "Feature", "properties": { "observation_id": 30, "wet_trail_condition": "Muddy", "note": "", "gps_accuracy": 3.78999996185303, "created_at": "2026-08-15T11:46:47.805Z", "photo_url": null }, "geometry": { "type": "Point", "coordinates": [ 18.9918388, 69.6311694 ] } },
{ "type": "Feature", "properties": { "observation_id": 31, "wet_trail_condition": "Muddy", "note": "", "gps_accuracy": 3.0, "created_at": "2026-08-15T11:47:16.732Z", "photo_url": "https://oehndpyzeoywfypqtsjs.supabase.co/storage/v1/object/public/observation-photos/31/1786794436858.jpg" }, "geometry": { "type": "Point", "coordinates": [ 18.9951186, 69.6333819 ] } },
{ "type": "Feature", "properties": { "observation_id": 38, "wet_trail_condition": "Muddy", "note": "", "gps_accuracy": 3.0, "created_at": "2026-08-15T11:52:59.773Z", "photo_url": "https://oehndpyzeoywfypqtsjs.supabase.co/storage/v1/object/public/observation-photos/38/1786794780434.jpg" }, "geometry": { "type": "Point", "coordinates": [ 18.9916079, 69.6309975 ] } },
{ "type": "Feature", "properties": { "observation_id": 42, "wet_trail_condition": "Water running", "note": "", "gps_accuracy": 4.7486515301917596, "created_at": "2026-08-15T11:55:08.983Z", "photo_url": "https://oehndpyzeoywfypqtsjs.supabase.co/storage/v1/object/public/observation-photos/42/1786794909245.jpg" }, "geometry": { "type": "Point", "coordinates": [ 18.9889571222316, 69.629058263290702 ] } },
{ "type": "Feature", "properties": { "observation_id": 44, "wet_trail_condition": "Water standing", "note": "", "gps_accuracy": 2.5920000076293901, "created_at": "2026-08-15T11:55:32.208Z", "photo_url": "https://oehndpyzeoywfypqtsjs.supabase.co/storage/v1/object/public/observation-photos/44/1786794934336.jpg" }, "geometry": { "type": "Point", "coordinates": [ 18.9949161, 69.6306899 ] } },
{ "type": "Feature", "properties": { "observation_id": 45, "wet_trail_condition": "Water standing", "note": "", "gps_accuracy": 3.0, "created_at": "2026-08-15T11:56:24.189Z", "photo_url": "https://oehndpyzeoywfypqtsjs.supabase.co/storage/v1/object/public/observation-photos/45/1786794984018.jpg" }, "geometry": { "type": "Point", "coordinates": [ 18.992915, 69.6277844 ] } },
{ "type": "Feature", "properties": { "observation_id": 46, "wet_trail_condition": "Water standing", "note": "", "gps_accuracy": 2.3550000190734899, "created_at": "2026-08-15T11:56:34.633Z", "photo_url": "https://oehndpyzeoywfypqtsjs.supabase.co/storage/v1/object/public/observation-photos/46/1786794996879.jpg" }, "geometry": { "type": "Point", "coordinates": [ 18.9949387, 69.6303458 ] } },
{ "type": "Feature", "properties": { "observation_id": 47, "wet_trail_condition": "Water running", "note": "Part of a small stream", "gps_accuracy": 3.0, "created_at": "2026-08-15T11:56:59.090Z", "photo_url": "https://oehndpyzeoywfypqtsjs.supabase.co/storage/v1/object/public/observation-photos/47/1786795018815.jpg" }, "geometry": { "type": "Point", "coordinates": [ 18.993105, 69.6278729 ] } },
{ "type": "Feature", "properties": { "observation_id": 52, "wet_trail_condition": "Water standing", "note": "", "gps_accuracy": 3.78999996185303, "created_at": "2026-08-15T11:58:48.468Z", "photo_url": "https://oehndpyzeoywfypqtsjs.supabase.co/storage/v1/object/public/observation-photos/52/1786795129252.jpg" }, "geometry": { "type": "Point", "coordinates": [ 18.9944892, 69.6295799 ] } },
{ "type": "Feature", "properties": { "observation_id": 53, "wet_trail_condition": "Water standing", "note": "", "gps_accuracy": 3.0, "created_at": "2026-08-15T11:59:59.507Z", "photo_url": "https://oehndpyzeoywfypqtsjs.supabase.co/storage/v1/object/public/observation-photos/53/1786795199181.jpg" }, "geometry": { "type": "Point", "coordinates": [ 18.9951414, 69.6290362 ] } },
{ "type": "Feature", "properties": { "observation_id": 55, "wet_trail_condition": "Water standing", "note": "", "gps_accuracy": 7.06599998474121, "created_at": "2026-08-15T12:00:18.991Z", "photo_url": null }, "geometry": { "type": "Point", "coordinates": [ 18.9943159, 69.6292358 ] } },
{ "type": "Feature", "properties": { "observation_id": 56, "wet_trail_condition": "Water standing", "note": "", "gps_accuracy": 4.3039999008178702, "created_at": "2026-08-15T12:00:59.527Z", "photo_url": "https://oehndpyzeoywfypqtsjs.supabase.co/storage/v1/object/public/observation-photos/56/1786795260314.jpg" }, "geometry": { "type": "Point", "coordinates": [ 18.9944943, 69.628994 ] } },
{ "type": "Feature", "properties": { "observation_id": 57, "wet_trail_condition": "Muddy", "note": "", "gps_accuracy": 21.537000656127901, "created_at": "2026-08-15T12:01:23.820Z", "photo_url": "https://oehndpyzeoywfypqtsjs.supabase.co/storage/v1/object/public/observation-photos/57/1786795286010.jpg" }, "geometry": { "type": "Point", "coordinates": [ 18.9957329, 69.629625 ] } },
{ "type": "Feature", "properties": { "observation_id": 59, "wet_trail_condition": "Muddy", "note": "", "gps_accuracy": 3.0, "created_at": "2026-08-15T12:01:39.268Z", "photo_url": null }, "geometry": { "type": "Point", "coordinates": [ 18.9949584, 69.6287947 ] } },
{ "type": "Feature", "properties": { "observation_id": 60, "wet_trail_condition": "Water standing", "note": "", "gps_accuracy": 3.8310000896453902, "created_at": "2026-08-15T12:02:00.624Z", "photo_url": "https://oehndpyzeoywfypqtsjs.supabase.co/storage/v1/object/public/observation-photos/60/1786795323082.jpg" }, "geometry": { "type": "Point", "coordinates": [ 18.9959679, 69.6295867 ] } },
{ "type": "Feature", "properties": { "observation_id": 62, "wet_trail_condition": "Muddy", "note": "", "gps_accuracy": 4.7189998626709002, "created_at": "2026-08-15T12:02:56.639Z", "photo_url": "https://oehndpyzeoywfypqtsjs.supabase.co/storage/v1/object/public/observation-photos/62/1786795377281.jpg" }, "geometry": { "type": "Point", "coordinates": [ 18.9939787, 69.6284418 ] } },
{ "type": "Feature", "properties": { "observation_id": 64, "wet_trail_condition": "Muddy", "note": "", "gps_accuracy": 3.0, "created_at": "2026-08-15T12:04:31.366Z", "photo_url": "https://oehndpyzeoywfypqtsjs.supabase.co/storage/v1/object/public/observation-photos/64/1786795473774.jpg" }, "geometry": { "type": "Point", "coordinates": [ 18.9988261, 69.629213 ] } },
{ "type": "Feature", "properties": { "observation_id": 66, "wet_trail_condition": "Water running", "note": "", "gps_accuracy": 3.0, "created_at": "2026-08-15T12:05:36.426Z", "photo_url": "https://oehndpyzeoywfypqtsjs.supabase.co/storage/v1/object/public/observation-photos/66/1786795537100.jpg" }, "geometry": { "type": "Point", "coordinates": [ 18.9940792, 69.6280883 ] } },
{ "type": "Feature", "properties": { "observation_id": 67, "wet_trail_condition": "Muddy", "note": "", "gps_accuracy": 3.0, "created_at": "2026-08-15T12:05:56.218Z", "photo_url": null }, "geometry": { "type": "Point", "coordinates": [ 18.9933848, 69.628028 ] } },
{ "type": "Feature", "properties": { "observation_id": 79, "wet_trail_condition": "Water running", "note": "", "gps_accuracy": 4.2989997863769496, "created_at": "2026-08-15T12:14:25.457Z", "photo_url": "https://oehndpyzeoywfypqtsjs.supabase.co/storage/v1/object/public/observation-photos/79/1786796066112.jpg" }, "geometry": { "type": "Point", "coordinates": [ 18.9947649, 69.6274036 ] } },
{ "type": "Feature", "properties": { "observation_id": 90, "wet_trail_condition": "Muddy", "note": "", "gps_accuracy": 3.9040000438690199, "created_at": "2026-08-15T12:22:30.611Z", "photo_url": "https://oehndpyzeoywfypqtsjs.supabase.co/storage/v1/object/public/observation-photos/90/1786796552971.jpg" }, "geometry": { "type": "Point", "coordinates": [ 18.9987048, 69.62705 ] } },
{ "type": "Feature", "properties": { "observation_id": 141, "wet_trail_condition": "Muddy", "note": "", "gps_accuracy": 3.1819302849692499, "created_at": "2026-08-15T13:53:11.941Z", "photo_url": "https://oehndpyzeoywfypqtsjs.supabase.co/storage/v1/object/public/observation-photos/141/1786801992222.jpg" }, "geometry": { "type": "Point", "coordinates": [ 18.999563363576701, 69.625897424240605 ] } },
{ "type": "Feature", "properties": { "observation_id": 143, "wet_trail_condition": "Water running", "note": "", "gps_accuracy": 3.4839999675750701, "created_at": "2026-08-15T13:54:50.573Z", "photo_url": "https://oehndpyzeoywfypqtsjs.supabase.co/storage/v1/object/public/observation-photos/143/1786802090392.jpg" }, "geometry": { "type": "Point", "coordinates": [ 18.9960512, 69.6255479 ] } },
{ "type": "Feature", "properties": { "observation_id": 150, "wet_trail_condition": "Muddy", "note": "", "gps_accuracy": 3.0, "created_at": "2026-08-15T14:01:36.187Z", "photo_url": null }, "geometry": { "type": "Point", "coordinates": [ 18.995989, 69.6270522 ] } },
{ "type": "Feature", "properties": { "observation_id": 160, "wet_trail_condition": "Muddy", "note": "", "gps_accuracy": 3.0, "created_at": "2026-08-15T14:11:13.995Z", "photo_url": "https://oehndpyzeoywfypqtsjs.supabase.co/storage/v1/object/public/observation-photos/160/1786803073729.jpg" }, "geometry": { "type": "Point", "coordinates": [ 18.9947591, 69.6287373 ] } },
{ "type": "Feature", "properties": { "observation_id": 161, "wet_trail_condition": "Water running", "note": "", "gps_accuracy": 2.1162008528094902, "created_at": "2026-08-15T14:11:24.447Z", "photo_url": "https://oehndpyzeoywfypqtsjs.supabase.co/storage/v1/object/public/observation-photos/161/1786803084711.jpg" }, "geometry": { "type": "Point", "coordinates": [ 18.999737593548499, 69.631275215699802 ] } },
{ "type": "Feature", "properties": { "observation_id": 162, "wet_trail_condition": "Water running", "note": "", "gps_accuracy": 2.1001042854640599, "created_at": "2026-08-15T14:12:13.810Z", "photo_url": "https://oehndpyzeoywfypqtsjs.supabase.co/storage/v1/object/public/observation-photos/162/1786803134060.jpg" }, "geometry": { "type": "Point", "coordinates": [ 18.99960234437, 69.631734233444007 ] } },
{ "type": "Feature", "properties": { "observation_id": 163, "wet_trail_condition": "Water standing", "note": "", "gps_accuracy": 3.0, "created_at": "2026-08-15T14:12:20.592Z", "photo_url": "https://oehndpyzeoywfypqtsjs.supabase.co/storage/v1/object/public/observation-photos/163/1786803140250.jpg" }, "geometry": { "type": "Point", "coordinates": [ 18.9944714, 69.6290121 ] } },
{ "type": "Feature", "properties": { "observation_id": 168, "wet_trail_condition": "Water standing", "note": "", "gps_accuracy": 3.1760001182556201, "created_at": "2026-08-15T14:16:40.882Z", "photo_url": "https://oehndpyzeoywfypqtsjs.supabase.co/storage/v1/object/public/observation-photos/168/1786803400558.jpg" }, "geometry": { "type": "Point", "coordinates": [ 18.9942575, 69.6306928 ] } },
{ "type": "Feature", "properties": { "observation_id": 169, "wet_trail_condition": "Water standing", "note": "", "gps_accuracy": 3.0, "created_at": "2026-08-15T14:17:28.392Z", "photo_url": "https://oehndpyzeoywfypqtsjs.supabase.co/storage/v1/object/public/observation-photos/169/1786803448108.jpg" }, "geometry": { "type": "Point", "coordinates": [ 18.9938652, 69.6310689 ] } },
{ "type": "Feature", "properties": { "observation_id": 176, "wet_trail_condition": "Muddy", "note": "", "gps_accuracy": 3.0869998931884801, "created_at": "2026-08-15T14:24:38.006Z", "photo_url": "https://oehndpyzeoywfypqtsjs.supabase.co/storage/v1/object/public/observation-photos/176/1786803877789.jpg" }, "geometry": { "type": "Point", "coordinates": [ 18.9955779, 69.6338649 ] } }
]
}
