{
"type": "FeatureCollection",
"name": "track_trails",
"crs": { "type": "name", "properties": { "name": "urn:ogc:def:crs:OGC:1.3:CRS84" } },
"features": [
{ "type": "Feature", "properties": { "id": 67, "group_name": "Group 1", "observation_type": "Track faint trails", "measurement": "", "note": "", "wet_trail_condition": "", "erosion_feature": "", "gps_accuracy": 3.0, "created_at": "2026-09-24T09:51:19.447036+00:00", "photo_url": null }, "geometry": { "type": "LineString", "coordinates": [ [ 18.9927263, 69.6347002 ], [ 18.9927964, 69.6346999 ], [ 18.9928568, 69.6346934 ], [ 18.9929078, 69.6346879 ], [ 18.9929585, 69.634679 ], [ 18.9930209, 69.634667 ], [ 18.9931064, 69.6346585 ], [ 18.9931704, 69.6346543 ], [ 18.9932425, 69.6346481 ], [ 18.993301, 69.6346429 ], [ 18.9933573, 69.6346383 ], [ 18.9934128, 69.6346348 ], [ 18.9934814, 69.6346303 ], [ 18.9935533, 69.6346322 ], [ 18.9936049, 69.6346351 ], [ 18.9936614, 69.6346458 ], [ 18.9937242, 69.6346536 ], [ 18.993768, 69.6346638 ] ] } },
{ "type": "Feature", "properties": { "id": 66, "group_name": "Group 1", "observation_type": "Track faint trails", "measurement": "", "note": "", "wet_trail_condition": "", "erosion_feature": "", "gps_accuracy": 3.0, "created_at": "2026-09-24T09:49:24.364415+00:00", "photo_url": null }, "geometry": { "type": "LineString", "coordinates": [ [ 18.9930777, 69.6346566 ], [ 18.99308, 69.6346382 ], [ 18.9930586, 69.6346212 ], [ 18.9930579, 69.6345974 ], [ 18.9930282, 69.6345778 ], [ 18.9930005, 69.6345608 ], [ 18.9929507, 69.6345416 ], [ 18.9929132, 69.6345271 ], [ 18.9928833, 69.6345111 ], [ 18.9928523, 69.6344941 ], [ 18.9928096, 69.6344797 ], [ 18.9927653, 69.6344665 ], [ 18.9927491, 69.6344431 ], [ 18.9927438, 69.6344249 ], [ 18.9927306, 69.6344066 ], [ 18.9927175, 69.6343865 ], [ 18.9927344, 69.6343688 ], [ 18.9927591, 69.6343426 ], [ 18.9927768, 69.6343181 ], [ 18.992791, 69.634299 ] ] } },
{ "type": "Feature", "properties": { "id": 65, "group_name": "Group 1", "observation_type": "Track faint trails", "measurement": "", "note": "", "wet_trail_condition": "", "erosion_feature": "", "gps_accuracy": 3.0, "created_at": "2026-09-24T09:47:55.091718+00:00", "photo_url": null }, "geometry": { "type": "LineString", "coordinates": [ [ 18.9942378, 69.6346033 ], [ 18.9941726, 69.6346126 ], [ 18.9941105, 69.6346213 ], [ 18.9940368, 69.6346322 ], [ 18.9939771, 69.6346414 ], [ 18.993917, 69.6346483 ], [ 18.9938643, 69.6346549 ], [ 18.9937937, 69.6346587 ] ] } },
{ "type": "Feature", "properties": { "id": 64, "group_name": "Group 1", "observation_type": "Track faint trails", "measurement": "", "note": "", "wet_trail_condition": "", "erosion_feature": "", "gps_accuracy": 3.0, "created_at": "2026-09-24T09:07:09.85926+00:00", "photo_url": null }, "geometry": { "type": "LineString", "coordinates": [ [ 18.9946313, 69.6287767 ], [ 18.9946653, 69.6287955 ], [ 18.9947158, 69.6288043 ], [ 18.9947941, 69.6288056 ], [ 18.9948451, 69.6288093 ] ] } },
{ "type": "Feature", "properties": { "id": 62, "group_name": "Group 1", "observation_type": "Track faint trails", "measurement": "", "note": "", "wet_trail_condition": "", "erosion_feature": "", "gps_accuracy": 3.0, "created_at": "2026-09-24T09:03:36.830982+00:00", "photo_url": null }, "geometry": { "type": "LineString", "coordinates": [ [ 18.9958343, 69.6296934 ], [ 18.9957838, 69.629684 ], [ 18.9957499, 69.6296671 ], [ 18.9957321, 69.629645 ], [ 18.9957107, 69.6296238 ], [ 18.9956832, 69.6296022 ], [ 18.9956367, 69.6295773 ], [ 18.9955979, 69.6295584 ], [ 18.9955496, 69.6295252 ], [ 18.9955094, 69.629504 ], [ 18.9954687, 69.6294877 ], [ 18.9954363, 69.6294731 ], [ 18.9953895, 69.6294599 ], [ 18.9953432, 69.6294468 ], [ 18.9952896, 69.6294361 ], [ 18.995229, 69.6294345 ] ] } },
{ "type": "Feature", "properties": { "id": 61, "group_name": "Group 1", "observation_type": "Track faint trails", "measurement": "", "note": "", "wet_trail_condition": "", "erosion_feature": "", "gps_accuracy": 3.0, "created_at": "2026-09-24T08:43:36.083987+00:00", "photo_url": null }, "geometry": { "type": "LineString", "coordinates": [ [ 18.9936909, 69.6334254 ], [ 18.9937371, 69.633435 ], [ 18.9938027, 69.6334395 ], [ 18.9938646, 69.6334428 ], [ 18.9939288, 69.6334447 ], [ 18.9939831, 69.6334466 ] ] } },
{ "type": "Feature", "properties": { "id": 60, "group_name": "Group 1", "observation_type": "Track faint trails", "measurement": "", "note": "", "wet_trail_condition": "", "erosion_feature": "", "gps_accuracy": 3.0, "created_at": "2026-09-24T08:42:56.362313+00:00", "photo_url": null }, "geometry": { "type": "LineString", "coordinates": [ [ 18.9933604, 69.633086 ], [ 18.9933679, 69.6331059 ], [ 18.9933814, 69.6331302 ], [ 18.9934016, 69.633148 ], [ 18.9934275, 69.6331727 ], [ 18.9934471, 69.6331973 ], [ 18.9934666, 69.6332143 ], [ 18.9934902, 69.6332401 ], [ 18.9935031, 69.6332624 ], [ 18.9934937, 69.6332856 ], [ 18.9935066, 69.6333053 ], [ 18.9935261, 69.6333335 ], [ 18.9935341, 69.6333559 ], [ 18.9935396, 69.6333767 ], [ 18.993551, 69.6333944 ], [ 18.9935838, 69.6334162 ], [ 18.9936078, 69.6334346 ], [ 18.9936641, 69.6334386 ], [ 18.993724, 69.6334428 ], [ 18.9937534, 69.6334578 ], [ 18.9937885, 69.6334735 ], [ 18.9938207, 69.6334894 ], [ 18.993865, 69.6335087 ], [ 18.9938945, 69.6335303 ], [ 18.9939262, 69.6335463 ], [ 18.9939659, 69.6335585 ], [ 18.994022, 69.6335528 ], [ 18.9940347, 69.6335327 ], [ 18.9940421, 69.6335126 ] ] } },
{ "type": "Feature", "properties": { "id": 59, "group_name": "Group 1", "observation_type": "Track faint trails", "measurement": "", "note": "", "wet_trail_condition": "", "erosion_feature": "", "gps_accuracy": 3.0, "created_at": "2026-09-24T08:41:48.80935+00:00", "photo_url": null }, "geometry": { "type": "LineString", "coordinates": [ [ 18.9932022, 69.6333567 ], [ 18.993236, 69.6333415 ], [ 18.9932303, 69.6333191 ], [ 18.9932222, 69.6332954 ], [ 18.9932164, 69.6332734 ], [ 18.9932188, 69.633253 ], [ 18.9932153, 69.6332243 ], [ 18.9932251, 69.6332001 ], [ 18.9932453, 69.633176 ], [ 18.9932664, 69.6331561 ], [ 18.9932794, 69.6331376 ], [ 18.9932945, 69.6331192 ], [ 18.9933134, 69.633102 ], [ 18.9933395, 69.6330827 ], [ 18.9933538, 69.6330603 ], [ 18.9933291, 69.6330367 ], [ 18.9933021, 69.6330167 ], [ 18.9932887, 69.6329931 ], [ 18.9932741, 69.6329743 ] ] } },
{ "type": "Feature", "properties": { "id": 58, "group_name": "Group 1", "observation_type": "Track faint trails", "measurement": "", "note": "", "wet_trail_condition": "", "erosion_feature": "", "gps_accuracy": 3.0, "created_at": "2026-09-24T08:40:07.942822+00:00", "photo_url": null }, "geometry": { "type": "LineString", "coordinates": [ [ 18.9942901, 69.6345175 ], [ 18.9942353, 69.6344951 ], [ 18.9941947, 69.6344829 ], [ 18.9941338, 69.634474 ], [ 18.9940842, 69.6344664 ], [ 18.9940365, 69.6344573 ], [ 18.9939822, 69.634445 ], [ 18.9939297, 69.6344368 ], [ 18.9938818, 69.6344262 ], [ 18.993832, 69.6344156 ], [ 18.9937817, 69.6344017 ], [ 18.9937379, 69.6343846 ], [ 18.9936939, 69.6343621 ], [ 18.9936841, 69.6343439 ], [ 18.9936766, 69.634321 ], [ 18.9936675, 69.6342995 ], [ 18.9936487, 69.6342814 ], [ 18.9936178, 69.6342615 ], [ 18.9936, 69.6342399 ], [ 18.9936013, 69.6342171 ], [ 18.9935868, 69.6341941 ], [ 18.9935396, 69.634173 ], [ 18.9935058, 69.6341561 ], [ 18.9935058, 69.6341325 ], [ 18.9935243, 69.6341147 ], [ 18.9934867, 69.6341004 ], [ 18.9934735, 69.6340827 ], [ 18.9934371, 69.6340638 ], [ 18.9934161, 69.6340467 ], [ 18.9933853, 69.6340264 ], [ 18.9933442, 69.6340057 ], [ 18.9933296, 69.6339824 ], [ 18.9933061, 69.6339615 ], [ 18.9932682, 69.6339352 ], [ 18.9932224, 69.6339146 ], [ 18.9931939, 69.6338983 ], [ 18.9931593, 69.6338838 ], [ 18.9931198, 69.6338688 ], [ 18.9930803, 69.6338538 ], [ 18.9930228, 69.6338486 ], [ 18.9929889, 69.6338321 ], [ 18.9929493, 69.6338185 ], [ 18.9929059, 69.6337979 ], [ 18.9928942, 69.6337754 ], [ 18.9928736, 69.6337575 ], [ 18.992864, 69.6337356 ], [ 18.9928181, 69.6337195 ], [ 18.9927894, 69.6337038 ], [ 18.9927592, 69.6336846 ], [ 18.9927347, 69.6336635 ], [ 18.992711, 69.6336468 ], [ 18.9926903, 69.6336301 ], [ 18.9926805, 69.6336099 ], [ 18.9926523, 69.6335938 ], [ 18.9926507, 69.6335694 ], [ 18.9926604, 69.6335489 ] ] } },
{ "type": "Feature", "properties": { "id": 57, "group_name": "Group 1", "observation_type": "Track faint trails", "measurement": "", "note": "", "wet_trail_condition": "", "erosion_feature": "", "gps_accuracy": 4.7040551025340802, "created_at": "2026-09-20T12:44:14.006592+00:00", "photo_url": null }, "geometry": { "type": "LineString", "coordinates": [ [ 18.994671875051402, 69.634426210628462 ], [ 18.994637784275735, 69.634443436947677 ], [ 18.994604698163787, 69.634463536918332 ], [ 18.994584099581257, 69.634483231757386 ], [ 18.994555182109362, 69.634507841705542 ], [ 18.994512039236639, 69.634529159185391 ], [ 18.994477424108222, 69.634546001237041 ] ] } },
{ "type": "Feature", "properties": { "id": 56, "group_name": "Group 1", "observation_type": "Track faint trails", "measurement": "", "note": "", "wet_trail_condition": "", "erosion_feature": "", "gps_accuracy": 4.6847407447446203, "created_at": "2026-09-20T12:41:41.350392+00:00", "photo_url": null }, "geometry": { "type": "LineString", "coordinates": [ [ 18.994390796768748, 69.633102167360946 ], [ 18.994408716295048, 69.633125905018986 ], [ 18.994424984774192, 69.633143830343585 ], [ 18.994441851795361, 69.63316930554079 ], [ 18.994455786685918, 69.633195860749495 ], [ 18.994465358729887, 69.633218795713319 ], [ 18.994484502328287, 69.633244531810504 ], [ 18.994501965734745, 69.633266606168021 ], [ 18.994533575112545, 69.633287341645612 ], [ 18.994525648176619, 69.633314912161495 ], [ 18.994558377915901, 69.633339698533575 ], [ 18.99457536827445, 69.633365349820551 ], [ 18.994597847453512, 69.633390449325503 ], [ 18.994622878500074, 69.633415055918903 ], [ 18.994655174353209, 69.633438056732629 ], [ 18.994677437198145, 69.633462250850272 ], [ 18.994706219511762, 69.633484993019295 ] ] } },
{ "type": "Feature", "properties": { "id": 54, "group_name": "Group 1", "observation_type": "Track faint trails", "measurement": "", "note": "", "wet_trail_condition": "", "erosion_feature": "", "gps_accuracy": 3.0, "created_at": "2026-09-20T12:23:01.219983+00:00", "photo_url": null }, "geometry": { "type": "LineString", "coordinates": [ [ 18.9966716, 69.6259272 ], [ 18.9967337, 69.6259261 ], [ 18.9967726, 69.625939 ], [ 18.9967957, 69.6259563 ], [ 18.9967739, 69.6259733 ], [ 18.9967727, 69.6259914 ], [ 18.9967679, 69.6260096 ], [ 18.9967094, 69.6260183 ], [ 18.9966551, 69.6260241 ], [ 18.9966097, 69.6260349 ], [ 18.9965785, 69.6260532 ], [ 18.9965617, 69.6260713 ], [ 18.9965786, 69.6260885 ], [ 18.9966137, 69.6261063 ], [ 18.9966168, 69.6261314 ], [ 18.9965495, 69.6261364 ], [ 18.9964942, 69.6261464 ], [ 18.996456, 69.6261647 ], [ 18.9964353, 69.6261818 ], [ 18.9963828, 69.6261799 ], [ 18.9963284, 69.6261892 ], [ 18.9962639, 69.6261911 ], [ 18.9962002, 69.626191 ], [ 18.9961541, 69.6262089 ] ] } },
{ "type": "Feature", "properties": { "id": 53, "group_name": "Group 1", "observation_type": "Track faint trails", "measurement": "", "note": "", "wet_trail_condition": "", "erosion_feature": "", "gps_accuracy": 4.7170677982172604, "created_at": "2026-09-20T12:22:24.656398+00:00", "photo_url": null }, "geometry": { "type": "LineString", "coordinates": [ [ 18.994662006037338, 69.628767745202822 ], [ 18.994734666607265, 69.628774985714159 ], [ 18.994785902768644, 69.628792515152099 ], [ 18.994836545197074, 69.628799961092838 ], [ 18.994893066321101, 69.628803150670933 ], [ 18.994949779012376, 69.628807698999751 ] ] } },
{ "type": "Feature", "properties": { "id": 52, "group_name": "Group 1", "observation_type": "Track faint trails", "measurement": "", "note": "", "wet_trail_condition": "", "erosion_feature": "", "gps_accuracy": 3.0, "created_at": "2026-09-20T12:21:21.787621+00:00", "photo_url": null }, "geometry": { "type": "LineString", "coordinates": [ [ 18.9960777, 69.6257981 ], [ 18.9961054, 69.625815 ], [ 18.9961184, 69.6258328 ], [ 18.9960705, 69.6258475 ], [ 18.9960189, 69.6258446 ], [ 18.9960543, 69.6258593 ], [ 18.9961126, 69.625864 ], [ 18.9961677, 69.6258728 ], [ 18.9962261, 69.6258779 ], [ 18.9962785, 69.6258719 ], [ 18.9963408, 69.6258664 ], [ 18.9963882, 69.6258542 ] ] } },
{ "type": "Feature", "properties": { "id": 50, "group_name": "Group 1", "observation_type": "Track faint trails", "measurement": "", "note": "", "wet_trail_condition": "", "erosion_feature": "", "gps_accuracy": 3.0, "created_at": "2026-09-20T12:18:15.544114+00:00", "photo_url": null }, "geometry": { "type": "LineString", "coordinates": [ [ 18.996295, 69.6256707 ], [ 18.9963547, 69.6256773 ], [ 18.9964104, 69.6256892 ], [ 18.9964565, 69.6256976 ], [ 18.9964827, 69.6257199 ], [ 18.9964882, 69.6257395 ], [ 18.9965162, 69.625763 ], [ 18.9965609, 69.6257725 ], [ 18.9966044, 69.6257873 ], [ 18.9966528, 69.6257988 ], [ 18.9966997, 69.6258075 ] ] } },
{ "type": "Feature", "properties": { "id": 49, "group_name": "Group 1", "observation_type": "Track faint trails", "measurement": "", "note": "", "wet_trail_condition": "", "erosion_feature": "", "gps_accuracy": 6.9119065277162202, "created_at": "2026-09-20T12:17:36.939932+00:00", "photo_url": null }, "geometry": { "type": "LineString", "coordinates": [ [ 18.996709186494087, 69.624790142572309 ], [ 18.996692842789795, 69.624808654525452 ], [ 18.996721715674418, 69.624824400207174 ], [ 18.996776805854676, 69.624834710903031 ], [ 18.996787383750029, 69.624859821431698 ], [ 18.996846323583565, 69.62487769525265 ] ] } },
{ "type": "Feature", "properties": { "id": 48, "group_name": "Group 1", "observation_type": "Track faint trails", "measurement": "", "note": "", "wet_trail_condition": "", "erosion_feature": "", "gps_accuracy": 6.7525245397514704, "created_at": "2026-09-20T12:17:16.113205+00:00", "photo_url": null }, "geometry": { "type": "LineString", "coordinates": [ [ 18.99656647736419, 69.624361572819197 ], [ 18.996622332964009, 69.624408101073513 ], [ 18.996560816841498, 69.624367261053479 ], [ 18.996563406876007, 69.624388604716756 ], [ 18.996524084296453, 69.624407753572598 ], [ 18.996539388734288, 69.624429166578182 ], [ 18.996495621369938, 69.624446921625932 ], [ 18.996456352893063, 69.624466141942477 ], [ 18.996486520666647, 69.624492722824144 ], [ 18.996522362830799, 69.624517748799306 ], [ 18.996523189755035, 69.624544237453421 ], [ 18.996537782071009, 69.624573503478715 ], [ 18.996596286280504, 69.624594642486741 ], [ 18.996593341276753, 69.624617799944502 ], [ 18.996630027828751, 69.62463911435546 ], [ 18.996613527123671, 69.624663882669893 ], [ 18.996625485821774, 69.624686644340656 ], [ 18.99660753566204, 69.624705432571218 ], [ 18.996618093399544, 69.624728264517913 ], [ 18.996652430968979, 69.624755683967152 ], [ 18.996697823266608, 69.624772822713723 ], [ 18.9967417590587, 69.624796647755659 ] ] } },
{ "type": "Feature", "properties": { "id": 47, "group_name": "Group 1", "observation_type": "Track faint trails", "measurement": "", "note": "", "wet_trail_condition": "", "erosion_feature": "", "gps_accuracy": 3.0, "created_at": "2026-09-20T12:17:10.221471+00:00", "photo_url": null }, "geometry": { "type": "LineString", "coordinates": [ [ 18.9970329, 69.6250862 ], [ 18.9970265, 69.6251062 ], [ 18.9970112, 69.6251239 ], [ 18.9969848, 69.6251453 ], [ 18.9969532, 69.6251617 ], [ 18.9969117, 69.6251727 ], [ 18.9968586, 69.625183 ], [ 18.9968104, 69.625191 ], [ 18.9968581, 69.6252064 ], [ 18.9969089, 69.6252194 ], [ 18.9969662, 69.6252296 ], [ 18.9970168, 69.6252373 ], [ 18.997045, 69.6252598 ], [ 18.9970535, 69.6252885 ], [ 18.9970285, 69.6253056 ], [ 18.997016, 69.6253232 ], [ 18.9970168, 69.6253417 ], [ 18.9970198, 69.6253599 ], [ 18.9970132, 69.6253845 ], [ 18.9970127, 69.6254061 ], [ 18.997018, 69.6254256 ], [ 18.9970341, 69.6254432 ], [ 18.9970385, 69.6254638 ], [ 18.9970445, 69.6254829 ], [ 18.9970665, 69.6255026 ], [ 18.9970998, 69.6255214 ], [ 18.9971108, 69.625539 ], [ 18.997126, 69.6255584 ], [ 18.997124, 69.6255764 ], [ 18.9971213, 69.6255962 ], [ 18.9971227, 69.625615 ], [ 18.9971364, 69.6256414 ], [ 18.9971712, 69.6256619 ], [ 18.9971879, 69.6256802 ], [ 18.9971873, 69.6256997 ], [ 18.997207, 69.6257165 ], [ 18.9972509, 69.6257344 ], [ 18.9973102, 69.6257423 ] ] } },
{ "type": "Feature", "properties": { "id": 46, "group_name": "Group 1", "observation_type": "Track faint trails", "measurement": "", "note": "", "wet_trail_condition": "", "erosion_feature": "", "gps_accuracy": 3.0, "created_at": "2026-09-20T12:12:03.448157+00:00", "photo_url": null }, "geometry": { "type": "LineString", "coordinates": [ [ 18.9889045, 69.6292586 ], [ 18.9887788, 69.6292608 ], [ 18.9886913, 69.6292533 ], [ 18.9887833, 69.6292471 ], [ 18.9888486, 69.6292442 ], [ 18.988919, 69.6292366 ], [ 18.9889716, 69.6292239 ], [ 18.9890357, 69.6292126 ], [ 18.9891062, 69.6292032 ], [ 18.9891706, 69.6292169 ], [ 18.9892472, 69.6292264 ], [ 18.9893174, 69.6292172 ], [ 18.989375, 69.629204 ], [ 18.9894159, 69.6291856 ], [ 18.989442, 69.6291576 ], [ 18.9895015, 69.6291456 ], [ 18.9895538, 69.6291572 ], [ 18.9896395, 69.6291573 ] ] } },
{ "type": "Feature", "properties": { "id": 45, "group_name": "Group 1", "observation_type": "Track faint trails", "measurement": "", "note": "", "wet_trail_condition": "", "erosion_feature": "", "gps_accuracy": 3.0, "created_at": "2026-09-20T12:09:47.119826+00:00", "photo_url": null }, "geometry": { "type": "LineString", "coordinates": [ [ 18.9860812, 69.6283623 ], [ 18.9861256, 69.6283786 ], [ 18.9861615, 69.6283948 ], [ 18.9861973, 69.6284105 ], [ 18.9862356, 69.6284325 ], [ 18.9862536, 69.6284582 ], [ 18.9862598, 69.628483 ], [ 18.9862823, 69.6285079 ], [ 18.9862848, 69.6285325 ], [ 18.9863014, 69.6285572 ], [ 18.9863197, 69.6285807 ], [ 18.9863578, 69.6286054 ], [ 18.9863779, 69.6286303 ], [ 18.9864092, 69.6286462 ], [ 18.9864171, 69.6286654 ], [ 18.9864108, 69.6286866 ], [ 18.9863901, 69.6287031 ], [ 18.9864341, 69.6287225 ], [ 18.9864658, 69.6287446 ], [ 18.9864975, 69.6287653 ], [ 18.9865436, 69.6287742 ], [ 18.9865885, 69.6287858 ], [ 18.986628, 69.6288004 ], [ 18.986661, 69.6288224 ], [ 18.9866906, 69.6288385 ], [ 18.9867154, 69.6288567 ], [ 18.9867512, 69.6288732 ], [ 18.9868099, 69.6288968 ], [ 18.9868442, 69.6289123 ], [ 18.986865, 69.6289305 ], [ 18.98688, 69.6289573 ], [ 18.9869194, 69.6289748 ], [ 18.9869736, 69.6289914 ], [ 18.9870054, 69.6290106 ], [ 18.9870731, 69.629026 ], [ 18.9871301, 69.6290342 ], [ 18.9871689, 69.6290491 ], [ 18.9872088, 69.6290653 ], [ 18.9872586, 69.6290786 ], [ 18.9873124, 69.629096 ], [ 18.9873661, 69.6291146 ], [ 18.9874346, 69.6291289 ], [ 18.9874832, 69.6291414 ], [ 18.9875353, 69.6291523 ], [ 18.9876183, 69.62918 ], [ 18.9877527, 69.6292163 ], [ 18.9878886, 69.6292454 ], [ 18.988006, 69.6292633 ], [ 18.9880683, 69.6292684 ], [ 18.9881276, 69.6292706 ], [ 18.9881844, 69.6292618 ], [ 18.9882712, 69.6292759 ], [ 18.9883582, 69.6292774 ], [ 18.9884226, 69.6292761 ], [ 18.9884833, 69.6292692 ], [ 18.9885352, 69.6292606 ], [ 18.988522, 69.629241 ], [ 18.9885113, 69.6292208 ], [ 18.9884937, 69.6291993 ], [ 18.9885184, 69.6291804 ], [ 18.9885588, 69.629168 ], [ 18.9886256, 69.6291637 ], [ 18.9886734, 69.6291468 ], [ 18.9887263, 69.6291318 ], [ 18.9887088, 69.6291114 ], [ 18.9886658, 69.6290974 ] ] } },
{ "type": "Feature", "properties": { "id": 44, "group_name": "Group 1", "observation_type": "Track faint trails", "measurement": "", "note": "", "wet_trail_condition": "", "erosion_feature": "", "gps_accuracy": 3.0, "created_at": "2026-09-20T12:07:03.664153+00:00", "photo_url": null }, "geometry": { "type": "LineString", "coordinates": [ [ 19.0002642, 69.6272627 ], [ 19.0003193, 69.6272442 ], [ 19.0003186, 69.6272256 ], [ 19.0003041, 69.6272061 ], [ 19.0002744, 69.6271881 ], [ 19.0002359, 69.6271658 ], [ 19.0002025, 69.6271495 ], [ 19.0001426, 69.6271391 ] ] } },
{ "type": "Feature", "properties": { "id": 43, "group_name": "Group 1", "observation_type": "Track faint trails", "measurement": "", "note": "", "wet_trail_condition": "", "erosion_feature": "", "gps_accuracy": 3.7969999313354501, "created_at": "2026-09-20T12:06:24.306938+00:00", "photo_url": null }, "geometry": { "type": "LineString", "coordinates": [ [ 18.9858344, 69.6281744 ], [ 18.9858551, 69.6281986 ], [ 18.9858906, 69.6282178 ], [ 18.9859362, 69.6282287 ], [ 18.9859996, 69.6282329 ], [ 18.9860623, 69.6282409 ], [ 18.9861091, 69.6282521 ], [ 18.98614, 69.6282679 ], [ 18.9861485, 69.6282877 ], [ 18.9861358, 69.6283109 ], [ 18.9860962, 69.6283298 ], [ 18.9860857, 69.6283478 ], [ 18.9860535, 69.6283645 ], [ 18.9860263, 69.6283826 ], [ 18.9860684, 69.6284032 ], [ 18.9861125, 69.6284166 ], [ 18.9861445, 69.6284313 ], [ 18.9861479, 69.6284499 ], [ 18.986141, 69.6284695 ], [ 18.9861436, 69.6284882 ], [ 18.9861685, 69.6285044 ], [ 18.9862289, 69.6285292 ] ] } },
{ "type": "Feature", "properties": { "id": 40, "group_name": "Group 1", "observation_type": "Track faint trails", "measurement": "", "note": "", "wet_trail_condition": "", "erosion_feature": "", "gps_accuracy": 3.0, "created_at": "2026-09-20T12:03:51.390413+00:00", "photo_url": null }, "geometry": { "type": "LineString", "coordinates": [ [ 19.000733, 69.6278371 ], [ 19.0006876, 69.6278274 ], [ 19.0006194, 69.6278166 ], [ 19.0005646, 69.6278037 ], [ 19.0005141, 69.6277848 ], [ 19.0004664, 69.6277679 ], [ 19.0004278, 69.6277517 ], [ 19.0003862, 69.6277392 ], [ 19.0003659, 69.6277151 ], [ 19.0003581, 69.6276931 ], [ 19.0003392, 69.6276718 ], [ 19.0003094, 69.627648 ] ] } },
{ "type": "Feature", "properties": { "id": 38, "group_name": "Group 1", "observation_type": "Track faint trails", "measurement": "", "note": "", "wet_trail_condition": "", "erosion_feature": "", "gps_accuracy": 3.0, "created_at": "2026-09-20T12:02:22.308634+00:00", "photo_url": null }, "geometry": { "type": "LineString", "coordinates": [ [ 18.9856109, 69.6275462 ], [ 18.9856374, 69.6275273 ], [ 18.9856551, 69.627507 ], [ 18.9856589, 69.6274868 ], [ 18.9856569, 69.6274486 ], [ 18.9856491, 69.627413 ], [ 18.9856366, 69.6273836 ], [ 18.9856673, 69.6273646 ], [ 18.9857392, 69.627366 ], [ 18.9857062, 69.6273455 ], [ 18.9856478, 69.6273664 ], [ 18.985638, 69.6273474 ], [ 18.9856256, 69.6273283 ], [ 18.9855976, 69.6273089 ], [ 18.9855555, 69.6272962 ], [ 18.9855048, 69.6272869 ], [ 18.9854482, 69.6272793 ] ] } },
{ "type": "Feature", "properties": { "id": 37, "group_name": "Group 1", "observation_type": "Track faint trails", "measurement": "", "note": "", "wet_trail_condition": "", "erosion_feature": "", "gps_accuracy": 3.0, "created_at": "2026-09-20T12:01:14.86117+00:00", "photo_url": null }, "geometry": { "type": "LineString", "coordinates": [ [ 19.0016418, 69.6285479 ], [ 19.0016937, 69.628536 ], [ 19.0017316, 69.628522 ], [ 19.0017322, 69.6284997 ], [ 19.0017006, 69.6284808 ], [ 19.0016628, 69.6284665 ], [ 19.0016439, 69.6284496 ], [ 19.0016225, 69.6284328 ], [ 19.0016003, 69.6284135 ], [ 19.0015676, 69.6283907 ], [ 19.0015224, 69.6283784 ], [ 19.0014894, 69.6283633 ], [ 19.0014356, 69.6283441 ], [ 19.0013826, 69.6283338 ], [ 19.0013216, 69.6283224 ], [ 19.0012585, 69.6283154 ], [ 19.0011984, 69.628315 ], [ 19.001147, 69.6283118 ], [ 19.0010909, 69.6283121 ], [ 19.0010389, 69.6283156 ], [ 19.0009752, 69.6283143 ], [ 19.0009235, 69.6283181 ] ] } },
{ "type": "Feature", "properties": { "id": 36, "group_name": "Group 1", "observation_type": "Track >1 m wide sections", "measurement": "", "note": "", "wet_trail_condition": "", "erosion_feature": "", "gps_accuracy": 3.0160000324249299, "created_at": "2026-09-20T12:01:03.665242+00:00", "photo_url": null }, "geometry": { "type": "LineString", "coordinates": [ [ 18.98664, 69.6280002 ], [ 18.9865997, 69.628019 ], [ 18.9865794, 69.6280363 ], [ 18.9865579, 69.6280561 ], [ 18.9865329, 69.6280748 ], [ 18.9865123, 69.628093 ], [ 18.9864815, 69.6281172 ], [ 18.9864513, 69.6281373 ], [ 18.9864286, 69.6281571 ], [ 18.9864103, 69.628174 ], [ 18.9863743, 69.6281906 ], [ 18.9863184, 69.6281979 ], [ 18.9862641, 69.6281945 ], [ 18.9862011, 69.6281915 ], [ 18.9861491, 69.6281845 ], [ 18.9860903, 69.6281775 ], [ 18.9860374, 69.6281743 ], [ 18.9859626, 69.6281683 ], [ 18.985907, 69.6281658 ], [ 18.9858407, 69.6281646 ], [ 18.9857876, 69.6281636 ], [ 18.9857451, 69.6281529 ], [ 18.9856959, 69.6281394 ], [ 18.9856428, 69.6281218 ], [ 18.9855936, 69.6281033 ], [ 18.98556, 69.6280888 ], [ 18.9855328, 69.6280683 ], [ 18.9855007, 69.6280468 ], [ 18.9854594, 69.6280292 ], [ 18.9854369, 69.6280084 ], [ 18.9854194, 69.6279877 ], [ 18.9854166, 69.6279683 ], [ 18.9853944, 69.6279474 ], [ 18.9853598, 69.6279245 ], [ 18.9853233, 69.6279059 ], [ 18.9853033, 69.6278859 ], [ 18.9853012, 69.6278662 ], [ 18.9853099, 69.6278422 ], [ 18.9853104, 69.627819 ], [ 18.9853161, 69.6277978 ], [ 18.9853203, 69.6277782 ], [ 18.9853163, 69.6277566 ], [ 18.9853098, 69.6277366 ], [ 18.985314, 69.6277167 ], [ 18.9853246, 69.6276942 ], [ 18.9853349, 69.627672 ], [ 18.9853435, 69.6276534 ], [ 18.9853445, 69.6276325 ], [ 18.9853547, 69.6276091 ], [ 18.9853572, 69.6275889 ] ] } },
{ "type": "Feature", "properties": { "id": 35, "group_name": "Group 1", "observation_type": "Track faint trails", "measurement": "", "note": "", "wet_trail_condition": "", "erosion_feature": "", "gps_accuracy": 3.0, "created_at": "2026-09-20T12:00:39.661006+00:00", "photo_url": null }, "geometry": { "type": "LineString", "coordinates": [ [ 18.9857539, 69.6276901 ], [ 18.98581, 69.6276743 ], [ 18.9858267, 69.627653 ], [ 18.9858376, 69.6276336 ], [ 18.9858633, 69.6276149 ] ] } },
{ "type": "Feature", "properties": { "id": 33, "group_name": "Group 1", "observation_type": "Track faint trails", "measurement": "", "note": "", "wet_trail_condition": "", "erosion_feature": "", "gps_accuracy": 4.7078154271081996, "created_at": "2026-09-20T12:00:01.9496+00:00", "photo_url": null }, "geometry": { "type": "LineString", "coordinates": [ [ 18.99259793206658, 69.633222219982571 ], [ 18.992667310273099, 69.633214677170713 ], [ 18.99272188164187, 69.633214194202651 ], [ 18.992773329253005, 69.633207871507693 ], [ 18.99282620362321, 69.633206055619596 ], [ 18.99289239616833, 69.633205277167946 ], [ 18.992985851641627, 69.633206030736673 ] ] } },
{ "type": "Feature", "properties": { "id": 32, "group_name": "Group 1", "observation_type": "Track faint trails", "measurement": "", "note": "", "wet_trail_condition": "", "erosion_feature": "", "gps_accuracy": 3.0, "created_at": "2026-09-20T11:59:44.044315+00:00", "photo_url": null }, "geometry": { "type": "LineString", "coordinates": [ [ 19.0014228, 69.6292569 ], [ 19.0014222, 69.6292344 ], [ 19.0014098, 69.6292099 ], [ 19.0014018, 69.6291896 ], [ 19.0013981, 69.6291661 ], [ 19.0014089, 69.629145 ], [ 19.0014244, 69.6291264 ], [ 19.0014449, 69.6291025 ], [ 19.0014914, 69.629079 ], [ 19.0015105, 69.6290594 ], [ 19.0015093, 69.6290396 ], [ 19.0014835, 69.6290178 ], [ 19.0014983, 69.6289962 ], [ 19.0015368, 69.6289787 ], [ 19.0015596, 69.6289605 ], [ 19.0015486, 69.6289406 ], [ 19.0015335, 69.6289206 ], [ 19.0015103, 69.628899 ], [ 19.0014809, 69.6288815 ], [ 19.0015012, 69.6288596 ], [ 19.0015271, 69.6288432 ], [ 19.0015312, 69.6288173 ], [ 19.0015157, 69.628799 ], [ 19.0014983, 69.6287754 ], [ 19.001494, 69.6287511 ], [ 19.0014919, 69.6287296 ], [ 19.0014991, 69.6287093 ], [ 19.0014975, 69.6286886 ], [ 19.0015013, 69.6286659 ], [ 19.0014994, 69.6286471 ], [ 19.0014926, 69.6286242 ], [ 19.0014782, 69.6285979 ], [ 19.0015059, 69.628577 ] ] } },
{ "type": "Feature", "properties": { "id": 31, "group_name": "Group 1", "observation_type": "Track faint trails", "measurement": "", "note": "", "wet_trail_condition": "", "erosion_feature": "", "gps_accuracy": 3.0, "created_at": "2026-09-20T11:59:43.986644+00:00", "photo_url": null }, "geometry": { "type": "LineString", "coordinates": [ [ 18.9866837, 69.6280173 ], [ 18.98662, 69.6280022 ], [ 18.9865723, 69.6279942 ], [ 18.9864962, 69.6279808 ], [ 18.9864364, 69.6279694 ], [ 18.9863581, 69.6279575 ], [ 18.9862989, 69.6279433 ], [ 18.9862441, 69.6279331 ], [ 18.9861689, 69.6279173 ], [ 18.9861135, 69.6279012 ], [ 18.9860515, 69.6278914 ], [ 18.9860248, 69.6278706 ], [ 18.9860021, 69.6278482 ], [ 18.9859737, 69.6278278 ], [ 18.9859474, 69.6278039 ], [ 18.9859369, 69.6277808 ] ] } },
{ "type": "Feature", "properties": { "id": 30, "group_name": "Group 1", "observation_type": "Track faint trails", "measurement": "", "note": "", "wet_trail_condition": "", "erosion_feature": "", "gps_accuracy": 4.700905662007, "created_at": "2026-09-20T11:57:55.041847+00:00", "photo_url": null }, "geometry": { "type": "LineString", "coordinates": [ [ 18.992638917142298, 69.63409788496871 ], [ 18.992583728817529, 69.634085514070392 ], [ 18.992525493609751, 69.634067699095212 ], [ 18.992466121661796, 69.634058763397945 ], [ 18.992409201895338, 69.634043225842646 ], [ 18.992363824271735, 69.634031052460628 ], [ 18.992317996929629, 69.634012097792237 ], [ 18.992270956356627, 69.633999939442887 ], [ 18.992223037203509, 69.633972212212001 ] ] } },
{ "type": "Feature", "properties": { "id": 29, "group_name": "Group 1", "observation_type": "Track >1 m wide sections", "measurement": "", "note": "", "wet_trail_condition": "", "erosion_feature": "", "gps_accuracy": 3.0139999389648402, "created_at": "2026-09-20T11:57:54.413785+00:00", "photo_url": null }, "geometry": { "type": "LineString", "coordinates": [ [ 18.9881348, 69.628492 ], [ 18.9880873, 69.6284842 ], [ 18.9880269, 69.6284879 ], [ 18.987983, 69.6284975 ], [ 18.987925, 69.6285046 ], [ 18.9878704, 69.628509 ], [ 18.9878162, 69.6285111 ], [ 18.9877645, 69.6285117 ], [ 18.9877103, 69.6285077 ], [ 18.987667, 69.6284944 ], [ 18.987607, 69.6284803 ], [ 18.9875631, 69.628462 ], [ 18.9875617, 69.6284424 ], [ 18.9875675, 69.6284173 ], [ 18.9875416, 69.6283907 ], [ 18.9875206, 69.6283709 ], [ 18.9874909, 69.628355 ], [ 18.9874481, 69.6283349 ], [ 18.9873989, 69.6283156 ], [ 18.9873713, 69.6282977 ], [ 18.9873512, 69.6282808 ], [ 18.9873302, 69.6282607 ], [ 18.9873093, 69.6282383 ], [ 18.9872901, 69.62822 ], [ 18.9872676, 69.6282011 ], [ 18.9872437, 69.6281761 ] ] } },
{ "type": "Feature", "properties": { "id": 28, "group_name": "Group 1", "observation_type": "Track faint trails", "measurement": "", "note": "", "wet_trail_condition": "", "erosion_feature": "", "gps_accuracy": 3.0, "created_at": "2026-09-20T11:57:42.499658+00:00", "photo_url": null }, "geometry": { "type": "LineString", "coordinates": [ [ 18.9876395, 69.6283702 ], [ 18.9876022, 69.628383 ], [ 18.9875397, 69.6283874 ], [ 18.9874856, 69.628388 ], [ 18.9874328, 69.6283863 ] ] } },
{ "type": "Feature", "properties": { "id": 27, "group_name": "Group 1", "observation_type": "Track faint trails", "measurement": "", "note": "", "wet_trail_condition": "", "erosion_feature": "", "gps_accuracy": 4.69669094897443, "created_at": "2026-09-20T11:57:27.710716+00:00", "photo_url": null }, "geometry": { "type": "LineString", "coordinates": [ [ 18.992083308077962, 69.634384657792651 ], [ 18.992149680475993, 69.63437739312198 ], [ 18.992215156421384, 69.634368415387925 ], [ 18.99227599885111, 69.634356229202496 ], [ 18.992314783841756, 69.634343076003873 ], [ 18.992355892342871, 69.634324701235542 ], [ 18.992396074376192, 69.634308388985019 ], [ 18.99243885107607, 69.634292226995967 ], [ 18.992489829379117, 69.634274067617795 ], [ 18.992521096172002, 69.634252147806095 ], [ 18.992541892300647, 69.634227014429385 ], [ 18.992563205741746, 69.63420646357558 ], [ 18.992589161218255, 69.634180849123254 ], [ 18.992593235231723, 69.634161631312352 ], [ 18.992612887730029, 69.634136990552804 ], [ 18.992636387264131, 69.634113841160485 ] ] } },
{ "type": "Feature", "properties": { "id": 25, "group_name": "Group 1", "observation_type": "Track faint trails", "measurement": "", "note": "", "wet_trail_condition": "", "erosion_feature": "", "gps_accuracy": 3.0, "created_at": "2026-09-20T11:56:21.268143+00:00", "photo_url": null }, "geometry": { "type": "LineString", "coordinates": [ [ 18.9889448, 69.6288212 ], [ 18.9889002, 69.6288105 ], [ 18.9888486, 69.6287973 ], [ 18.9887939, 69.6287852 ], [ 18.9887265, 69.6287653 ], [ 18.9886806, 69.6287453 ], [ 18.9886421, 69.6287278 ], [ 18.9886014, 69.6287116 ], [ 18.988561, 69.6286938 ], [ 18.9885378, 69.628672 ], [ 18.9884741, 69.6286482 ], [ 18.9884277, 69.6286301 ], [ 18.9883623, 69.6286198 ] ] } },
{ "type": "Feature", "properties": { "id": 24, "group_name": "Group 1", "observation_type": "Track faint trails", "measurement": "", "note": "", "wet_trail_condition": "", "erosion_feature": "", "gps_accuracy": 4.7016719003769802, "created_at": "2026-09-20T11:56:10.839737+00:00", "photo_url": null }, "geometry": { "type": "LineString", "coordinates": [ [ 18.992340852927523, 69.634641567755409 ], [ 18.992284896120324, 69.634636666672648 ], [ 18.992233089889947, 69.634619675406398 ], [ 18.992169219468536, 69.634607856654995 ], [ 18.992104038109503, 69.634604155396289 ], [ 18.992039192801084, 69.634591120198635 ], [ 18.991976856008662, 69.634577771834898 ], [ 18.991920730210975, 69.634566282759494 ], [ 18.991857946290228, 69.63455296416177 ] ] } },
{ "type": "Feature", "properties": { "id": 22, "group_name": "Group 1", "observation_type": "Track >1 m wide sections", "measurement": "", "note": "", "wet_trail_condition": "", "erosion_feature": "", "gps_accuracy": 3.0, "created_at": "2026-09-20T11:55:43.246997+00:00", "photo_url": null }, "geometry": { "type": "LineString", "coordinates": [ [ 18.9892908, 69.6288997 ], [ 18.9893525, 69.6289079 ], [ 18.9893882, 69.6289217 ], [ 18.9894038, 69.6289395 ], [ 18.9894229, 69.6289621 ], [ 18.989444, 69.6289823 ], [ 18.9894839, 69.6289981 ] ] } },
{ "type": "Feature", "properties": { "id": 21, "group_name": "Group 1", "observation_type": "Track faint trails", "measurement": "", "note": "", "wet_trail_condition": "", "erosion_feature": "", "gps_accuracy": 3.0, "created_at": "2026-09-20T11:54:17.913809+00:00", "photo_url": null }, "geometry": { "type": "LineString", "coordinates": [ [ 19.0020084, 69.6302253 ], [ 19.0020216, 69.6302452 ], [ 19.002043, 69.6302707 ], [ 19.0020596, 69.6302885 ], [ 19.0020786, 69.6303075 ], [ 19.0020945, 69.6303262 ], [ 19.0021182, 69.6303422 ], [ 19.0021441, 69.6303589 ], [ 19.0021409, 69.6303772 ] ] } },
{ "type": "Feature", "properties": { "id": 20, "group_name": "Group 1", "observation_type": "Track faint trails", "measurement": "", "note": "", "wet_trail_condition": "", "erosion_feature": "", "gps_accuracy": 3.0, "created_at": "2026-09-20T11:51:46.12278+00:00", "photo_url": null }, "geometry": { "type": "LineString", "coordinates": [ [ 19.0008183, 69.6313601 ], [ 19.0008819, 69.6313496 ], [ 19.0009453, 69.6313457 ], [ 19.0010066, 69.6313373 ], [ 19.0010752, 69.6313252 ], [ 19.0011265, 69.6313082 ], [ 19.0011813, 69.6312885 ], [ 19.0012207, 69.6312757 ], [ 19.0012737, 69.6312701 ], [ 19.0013062, 69.6312548 ], [ 19.0013244, 69.6312368 ], [ 19.0013529, 69.6312167 ], [ 19.0013907, 69.6311979 ], [ 19.0014318, 69.6311831 ], [ 19.0014663, 69.6311687 ], [ 19.0015115, 69.6311591 ], [ 19.0015597, 69.6311449 ], [ 19.0016128, 69.6311275 ], [ 19.0016656, 69.6311158 ], [ 19.0017081, 69.6311002 ], [ 19.0017481, 69.6310843 ], [ 19.0018177, 69.631077 ], [ 19.0018599, 69.6310655 ], [ 19.0019192, 69.6310586 ] ] } },
{ "type": "Feature", "properties": { "id": 19, "group_name": "Group 1", "observation_type": "Track faint trails", "measurement": "", "note": "", "wet_trail_condition": "", "erosion_feature": "", "gps_accuracy": 3.0, "created_at": "2026-09-20T11:48:13.37422+00:00", "photo_url": null }, "geometry": { "type": "LineString", "coordinates": [ [ 18.999001, 69.6321983 ], [ 18.998959, 69.6321871 ], [ 18.998931, 69.6321619 ], [ 18.9989093, 69.6321445 ], [ 18.998897, 69.6321251 ], [ 18.9988987, 69.6321026 ], [ 18.9988964, 69.6320744 ], [ 18.9988825, 69.6320558 ], [ 18.9988848, 69.6320294 ], [ 18.9988777, 69.6320077 ], [ 18.9988686, 69.6319832 ], [ 18.998854, 69.6319619 ], [ 18.9988437, 69.631943 ] ] } },
{ "type": "Feature", "properties": { "id": 16, "group_name": "Group 1", "observation_type": "Track faint trails", "measurement": "", "note": "", "wet_trail_condition": "", "erosion_feature": "", "gps_accuracy": 3.0, "created_at": "2026-09-20T11:44:16.490013+00:00", "photo_url": null }, "geometry": { "type": "LineString", "coordinates": [ [ 18.9981336, 69.6296411 ], [ 18.998186, 69.6296285 ], [ 18.9981479, 69.6296541 ], [ 18.9980869, 69.6296676 ], [ 18.9980381, 69.629682 ], [ 18.9980149, 69.629704 ], [ 18.9979905, 69.6297278 ], [ 18.9979563, 69.629748 ], [ 18.9979197, 69.6297686 ], [ 18.9978951, 69.6297867 ], [ 18.997884, 69.6298052 ], [ 18.9978881, 69.6298252 ], [ 18.9979037, 69.6298473 ], [ 18.9978966, 69.6298658 ], [ 18.997884, 69.629884 ], [ 18.997866, 69.6299056 ], [ 18.9978516, 69.6299308 ], [ 18.9978357, 69.6299551 ], [ 18.9978229, 69.6299733 ], [ 18.9978026, 69.6299933 ], [ 18.9977959, 69.6300132 ], [ 18.9977835, 69.6300326 ], [ 18.9977657, 69.6300544 ], [ 18.9977439, 69.6300748 ], [ 18.9977278, 69.6300989 ], [ 18.9977052, 69.6301196 ], [ 18.9976758, 69.6301502 ], [ 18.9976682, 69.6301736 ], [ 18.9976816, 69.6301943 ], [ 18.9976935, 69.630213 ], [ 18.9976903, 69.6302327 ], [ 18.9976916, 69.6302511 ], [ 18.9977051, 69.6302733 ], [ 18.9977057, 69.6302941 ], [ 18.9976932, 69.6303186 ], [ 18.9976796, 69.6303434 ], [ 18.9976625, 69.6303669 ], [ 18.9976741, 69.6303908 ], [ 18.9976838, 69.6304088 ], [ 18.9976641, 69.630427 ], [ 18.9976379, 69.6304492 ], [ 18.9976241, 69.6304726 ], [ 18.9976207, 69.6305024 ], [ 18.9976238, 69.6305211 ], [ 18.9976305, 69.6305458 ], [ 18.9976338, 69.6305728 ], [ 18.9976358, 69.6305969 ], [ 18.9976549, 69.6306244 ], [ 18.9976759, 69.6306498 ], [ 18.997713, 69.6306678 ], [ 18.9977712, 69.630681 ], [ 18.9978097, 69.6306952 ], [ 18.9978262, 69.6307165 ], [ 18.9978077, 69.6307365 ], [ 18.997788, 69.6307593 ], [ 18.9977783, 69.6307786 ], [ 18.9977719, 69.6308008 ], [ 18.9977756, 69.6308197 ], [ 18.9977946, 69.6308441 ], [ 18.9978282, 69.6308673 ], [ 18.9978332, 69.6308863 ], [ 18.9978267, 69.6309068 ], [ 18.9978531, 69.6309245 ], [ 18.9978738, 69.6309435 ], [ 18.9979034, 69.6309625 ], [ 18.9979193, 69.6309857 ], [ 18.997922, 69.6310074 ], [ 18.9979173, 69.6310321 ], [ 18.9978801, 69.6310538 ], [ 18.9978436, 69.6310743 ], [ 18.9978019, 69.6310942 ], [ 18.9977593, 69.6311081 ], [ 18.9977248, 69.6311241 ], [ 18.9976793, 69.6311434 ], [ 18.9976341, 69.6311557 ], [ 18.9975844, 69.6311679 ], [ 18.997536, 69.6311815 ], [ 18.9975076, 69.6311984 ], [ 18.9974882, 69.6312152 ], [ 18.9974553, 69.6312338 ], [ 18.997461, 69.6312562 ] ] } },
{ "type": "Feature", "properties": { "id": 15, "group_name": "Group 1", "observation_type": "Track faint trails", "measurement": "", "note": "", "wet_trail_condition": "", "erosion_feature": "", "gps_accuracy": 3.0069999694824201, "created_at": "2026-09-20T11:44:06.414644+00:00", "photo_url": null }, "geometry": { "type": "LineString", "coordinates": [ [ 18.9948651, 69.6286682 ], [ 18.9948339, 69.6286886 ], [ 18.9947977, 69.6287022 ], [ 18.9947516, 69.6287161 ], [ 18.9947093, 69.6287274 ], [ 18.994652, 69.6287405 ], [ 18.9946239, 69.6287598 ], [ 18.9945839, 69.6287742 ], [ 18.9945367, 69.6287894 ], [ 18.9944913, 69.628801 ], [ 18.9944547, 69.6288147 ] ] } },
{ "type": "Feature", "properties": { "id": 14, "group_name": "Group 1", "observation_type": "Track faint trails", "measurement": "", "note": "", "wet_trail_condition": "", "erosion_feature": "", "gps_accuracy": 4.6617595890426502, "created_at": "2026-09-20T11:43:23.871329+00:00", "photo_url": "https://oehndpyzeoywfypqtsjs.supabase.co/storage/v1/object/public/observation-photos/14/1789904604159.jpg" }, "geometry": { "type": "LineString", "coordinates": [ [ 18.995453984347652, 69.630268543082906 ], [ 18.995397288031366, 69.630268785296181 ], [ 18.995376810805151, 69.630291845573623 ], [ 18.995422894278004, 69.630310910542391 ], [ 18.995437844211185, 69.630336264835236 ], [ 18.995443345015534, 69.630360061650094 ], [ 18.995442282602809, 69.630385144079057 ], [ 18.995439366038095, 69.630409377761353 ], [ 18.995443699887989, 69.630431742144211 ], [ 18.995455382144151, 69.630453333218881 ], [ 18.995465566678305, 69.630472497599825 ], [ 18.99546624105237, 69.630499338558522 ], [ 18.995452982243439, 69.630530284043203 ], [ 18.995468191973885, 69.630550754039717 ], [ 18.995460129117738, 69.630575566088083 ], [ 18.995424303343864, 69.630600429124542 ], [ 18.995433040832438, 69.630623227069378 ], [ 18.995445763100214, 69.630642683998943 ], [ 18.995443559189141, 69.630669886312987 ], [ 18.995462136988273, 69.630695361080882 ], [ 18.995459376791811, 69.630717012805064 ], [ 18.995427270437808, 69.630739994030776 ], [ 18.995428865558626, 69.630762539963001 ], [ 18.995421351499285, 69.630788551576558 ], [ 18.995394079839116, 69.630811709444274 ], [ 18.995400150114186, 69.630835589914085 ], [ 18.995378752687998, 69.630852063200905 ], [ 18.995384916052036, 69.630878902957832 ], [ 18.995388660196706, 69.630907851667615 ], [ 18.995381770768059, 69.63092797707499 ], [ 18.995355744628583, 69.630954526996376 ], [ 18.995324607857441, 69.630972279746729 ], [ 18.995306420017531, 69.630995981117536 ], [ 18.995297125865079, 69.631020646181625 ], [ 18.995308496830887, 69.631042385415853 ], [ 18.99530572805379, 69.631069392585133 ], [ 18.995294067442249, 69.631094242273633 ], [ 18.995293564756814, 69.631116491153321 ], [ 18.995269717278148, 69.631138602196927 ], [ 18.9952369044527, 69.631161740197257 ], [ 18.995225646623904, 69.631183728191957 ], [ 18.995201112594188, 69.631205090509837 ], [ 18.995205275400526, 69.631225305124929 ], [ 18.99520296718006, 69.631255383748424 ], [ 18.99519248976986, 69.631279870945377 ], [ 18.995179797614412, 69.631305584601833 ], [ 18.995181971781808, 69.631328696873283 ], [ 18.995177149991346, 69.631349156084639 ], [ 18.995183999750662, 69.631372698266674 ], [ 18.995185102044154, 69.631392390287232 ], [ 18.995170343367047, 69.631416813461058 ], [ 18.995161472035175, 69.631445438817366 ], [ 18.995176265335974, 69.631467934074635 ], [ 18.995188891594491, 69.631488648033482 ], [ 18.995194270346726, 69.63151626780467 ], [ 18.995213683350261, 69.631548578999841 ], [ 18.995228035631271, 69.631567331509245 ], [ 18.99521237172176, 69.631592425138763 ], [ 18.995218172592352, 69.631614252129097 ], [ 18.995201106480909, 69.631635439421672 ], [ 18.995176769068454, 69.631659521453471 ], [ 18.995163962141426, 69.631684644083336 ], [ 18.995136908838667, 69.631717064299934 ], [ 18.995136913170057, 69.631740461502986 ], [ 18.995122667688783, 69.631762283525703 ], [ 18.995127724466112, 69.631780335039835 ], [ 18.995127107188072, 69.631801955740684 ], [ 18.995132953799505, 69.631825873229488 ], [ 18.995142468298411, 69.631845069523393 ], [ 18.995092523011134, 69.631867193455449 ] ] } },
{ "type": "Feature", "properties": { "id": 13, "group_name": "Group 1", "observation_type": "Track faint trails", "measurement": "", "note": "", "wet_trail_condition": "", "erosion_feature": "", "gps_accuracy": 2.57660379287071, "created_at": "2026-09-20T11:43:14.122071+00:00", "photo_url": null }, "geometry": { "type": "LineString", "coordinates": [ [ 18.999799709289597, 69.628528704983424 ], [ 18.999835263336493, 69.628514857244767 ], [ 18.999857158022355, 69.628494965033596 ], [ 18.999896090337796, 69.628476369888133 ], [ 18.999917466227735, 69.628457603815988 ], [ 18.999957596211789, 69.628442983880333 ], [ 18.999990768542276, 69.628428605602082 ], [ 19.000037312002018, 69.628415591610874 ], [ 19.000166914344504, 69.628418450736987 ], [ 19.000324890754502, 69.628402453514568 ], [ 19.000334812218462, 69.628382876344205 ], [ 19.000363399204268, 69.628362070568798 ], [ 19.000403192961127, 69.628347613736935 ] ] } },
{ "type": "Feature", "properties": { "id": 12, "group_name": "Group 1", "observation_type": "Track faint trails", "measurement": "", "note": "", "wet_trail_condition": "", "erosion_feature": "", "gps_accuracy": 4.7037694426513799, "created_at": "2026-09-20T11:39:56.23316+00:00", "photo_url": null }, "geometry": { "type": "LineString", "coordinates": [ [ 18.995600909092822, 69.630218784615494 ], [ 18.995624204701052, 69.630191220421949 ], [ 18.995639010234751, 69.630169660155971 ], [ 18.995670580013989, 69.630147811833524 ], [ 18.995700942527851, 69.630131452030426 ], [ 18.995734071922101, 69.63011663063719 ], [ 18.995769684208931, 69.630095268286169 ], [ 18.995813934708689, 69.63008416769155 ], [ 18.995845396492903, 69.63005992424047 ], [ 18.99585591317307, 69.630036416785089 ], [ 18.995840421698038, 69.630014545477579 ], [ 18.995837953940004, 69.629992426398431 ], [ 18.995834627249671, 69.629970779866724 ], [ 18.995864789865539, 69.629954070661782 ], [ 18.995904642242426, 69.629930627113779 ], [ 18.995954071281972, 69.629916307595622 ], [ 18.995982942116157, 69.62990043526348 ], [ 18.996019456074464, 69.629885356394752 ] ] } },
{ "type": "Feature", "properties": { "id": 11, "group_name": "Group 1", "observation_type": "Track faint trails", "measurement": "", "note": "", "wet_trail_condition": "", "erosion_feature": "", "gps_accuracy": 3.0, "created_at": "2026-09-20T11:38:57.573934+00:00", "photo_url": null }, "geometry": { "type": "LineString", "coordinates": [ [ 18.996134, 69.6291488 ], [ 18.9961102, 69.6291284 ], [ 18.996088, 69.6291115 ], [ 18.9960604, 69.6290885 ], [ 18.9960364, 69.6290699 ], [ 18.9960083, 69.6290523 ], [ 18.9959844, 69.629028 ], [ 18.9959647, 69.6290034 ], [ 18.9959469, 69.6289832 ], [ 18.9958939, 69.628966 ], [ 18.9958682, 69.628949 ], [ 18.9958784, 69.6289236 ], [ 18.9958215, 69.6289109 ], [ 18.9957723, 69.6289018 ], [ 18.9957172, 69.6288917 ], [ 18.9956631, 69.6288739 ] ] } },
{ "type": "Feature", "properties": { "id": 10, "group_name": "Group 1", "observation_type": "Track faint trails", "measurement": "", "note": "", "wet_trail_condition": "", "erosion_feature": "", "gps_accuracy": 3.0, "created_at": "2026-09-20T11:37:39.704732+00:00", "photo_url": null }, "geometry": { "type": "LineString", "coordinates": [ [ 18.9952838, 69.6292585 ], [ 18.9953604, 69.6292495 ], [ 18.9954129, 69.6292427 ], [ 18.9954625, 69.6292366 ], [ 18.9955261, 69.6292329 ], [ 18.9955828, 69.6292264 ], [ 18.9956314, 69.6292149 ], [ 18.9956782, 69.6291998 ], [ 18.9957212, 69.629185 ], [ 18.9957646, 69.6291683 ], [ 18.9958008, 69.6291529 ], [ 18.9958425, 69.6291406 ], [ 18.995894, 69.6291326 ], [ 18.9959445, 69.6291273 ], [ 18.9959968, 69.6291234 ], [ 18.9960534, 69.6291203 ], [ 18.9961113, 69.6291135 ], [ 18.9961659, 69.6291069 ] ] } },
{ "type": "Feature", "properties": { "id": 9, "group_name": "Group 1", "observation_type": "Track faint trails", "measurement": "", "note": "", "wet_trail_condition": "", "erosion_feature": "", "gps_accuracy": 5.2366814911726403, "created_at": "2026-09-20T11:37:32.169118+00:00", "photo_url": null }, "geometry": { "type": "LineString", "coordinates": [ [ 18.9957043981575, 69.629649684111627 ], [ 18.99575835575115, 69.629637590181673 ], [ 18.995841758405547, 69.629623316205937 ], [ 18.995894513193736, 69.629609776941351 ], [ 18.99594487201967, 69.629598121684126 ], [ 18.996003445937664, 69.629601309004727 ], [ 18.99606575498666, 69.629587930386833 ], [ 18.996099439898906, 69.629572112978266 ], [ 18.996148769893018, 69.629566628091794 ], [ 18.996200771088368, 69.629548628451403 ], [ 18.996257309673116, 69.629540472385628 ], [ 18.996300510088588, 69.629527600052086 ], [ 18.996250443087543, 69.629533351067565 ], [ 18.996162588729824, 69.629535199234567 ], [ 18.996108143167636, 69.629540395541824 ], [ 18.996072597876086, 69.629526676067982 ], [ 18.996136346817114, 69.62952881340361 ], [ 18.996186632188621, 69.629505126771406 ], [ 18.996259938094425, 69.629506132619895 ], [ 18.996317085000591, 69.629516835120285 ], [ 18.996349796955304, 69.629501563931157 ], [ 18.996422041830112, 69.629491956138324 ], [ 18.996477356903256, 69.629481367482271 ], [ 18.996541916248884, 69.629463482464971 ], [ 18.996588351445425, 69.629448128887958 ], [ 18.996654277190519, 69.629438224524392 ], [ 18.996707522883032, 69.629434746465677 ], [ 18.996770604689903, 69.629421648826224 ], [ 18.996819213367186, 69.629407708899677 ], [ 18.996874802682047, 69.629399566238263 ], [ 18.996935279374757, 69.629391962817138 ], [ 18.996984282447293, 69.629385761590996 ], [ 18.997043733495129, 69.629381647904211 ], [ 18.997100103428703, 69.629386211389829 ], [ 18.997049311703353, 69.629382346377824 ], [ 18.997098495755075, 69.629375889339826 ], [ 18.99716426829842, 69.62936595725489 ], [ 18.997215501276806, 69.629357349122088 ], [ 18.997267065581493, 69.629349768238129 ], [ 18.997323796697021, 69.629347630558257 ], [ 18.997384286829913, 69.629338238262036 ], [ 18.99743528808332, 69.629332127987169 ], [ 18.997491180744682, 69.62932932869785 ], [ 18.997550714448423, 69.629322228543046 ], [ 18.997609848109427, 69.629316089973983 ], [ 18.997672352191639, 69.629318832118813 ], [ 18.997742146356288, 69.629324410234446 ], [ 18.997797327587964, 69.629328395539005 ], [ 18.997853433893859, 69.629331656981151 ], [ 18.997919090849489, 69.629334419899735 ], [ 18.997989947254975, 69.629333756979392 ], [ 18.998077355755026, 69.629327452456295 ], [ 18.998141845807623, 69.629318822260856 ], [ 18.998197804645738, 69.629311621144666 ], [ 18.998270591087341, 69.62930325295622 ], [ 18.998337072523615, 69.62929663018906 ], [ 18.998398021044277, 69.629290543864599 ], [ 18.998462473124864, 69.629292358352473 ], [ 18.998529484242532, 69.629288349784957 ], [ 18.998587914558492, 69.629284081766329 ], [ 18.998648320322911, 69.629280791561101 ], [ 18.998700370299517, 69.629274959285397 ] ] } },
{ "type": "Feature", "properties": { "id": 8, "group_name": "Group 1", "observation_type": "Track faint trails", "measurement": "", "note": "", "wet_trail_condition": "", "erosion_feature": "", "gps_accuracy": 3.0, "created_at": "2026-09-20T11:36:11.406605+00:00", "photo_url": null }, "geometry": { "type": "LineString", "coordinates": [ [ 18.9970389, 69.629381 ], [ 18.9969787, 69.629376 ], [ 18.9969201, 69.6293673 ], [ 18.9968611, 69.6293564 ], [ 18.9968214, 69.6293428 ], [ 18.9967697, 69.6293338 ], [ 18.9967081, 69.6293363 ], [ 18.9966658, 69.6293242 ] ] } },
{ "type": "Feature", "properties": { "id": 7, "group_name": "Group 1", "observation_type": "Track faint trails", "measurement": "", "note": "", "wet_trail_condition": "", "erosion_feature": "", "gps_accuracy": 3.0, "created_at": "2026-09-20T11:35:37.741934+00:00", "photo_url": null }, "geometry": { "type": "LineString", "coordinates": [ [ 18.9952911, 69.6296411 ], [ 18.9952902, 69.629623 ], [ 18.995254, 69.629644 ], [ 18.9952232, 69.6296695 ], [ 18.9951869, 69.6296946 ], [ 18.9951482, 69.6297073 ], [ 18.9951245, 69.6297237 ], [ 18.995095, 69.6297451 ], [ 18.995087, 69.6297709 ], [ 18.9951573, 69.6297677 ], [ 18.9952001, 69.6297552 ], [ 18.9952416, 69.629742 ], [ 18.995281, 69.6297276 ], [ 18.9952999, 69.6297098 ], [ 18.9953164, 69.6296908 ] ] } },
{ "type": "Feature", "properties": { "id": 6, "group_name": "Group 1", "observation_type": "Track faint trails", "measurement": "", "note": "", "wet_trail_condition": "", "erosion_feature": "", "gps_accuracy": 3.0079998970031698, "created_at": "2026-09-20T11:34:55.978049+00:00", "photo_url": null }, "geometry": { "type": "LineString", "coordinates": [ [ 18.9953165, 69.6294934 ], [ 18.9953351, 69.6294741 ], [ 18.995387, 69.6294663 ], [ 18.9954406, 69.6294629 ], [ 18.9955008, 69.6294644 ], [ 18.9955559, 69.6294666 ], [ 18.9956168, 69.6294736 ], [ 18.9956719, 69.6294849 ], [ 18.995703, 69.6295007 ], [ 18.9957524, 69.6295138 ], [ 18.9957899, 69.6295298 ] ] } },
{ "type": "Feature", "properties": { "id": 5, "group_name": "Group 1", "observation_type": "Track >1 m wide sections", "measurement": "", "note": "", "wet_trail_condition": "", "erosion_feature": "", "gps_accuracy": 4.2532061643563202, "created_at": "2026-09-20T11:31:55.370631+00:00", "photo_url": null }, "geometry": { "type": "LineString", "coordinates": [ [ 18.997880454833219, 69.629333898699016 ], [ 18.998541767324859, 69.629250735498573 ], [ 18.99866239943168, 69.629246033980237 ], [ 18.998796661258112, 69.629278432992365 ], [ 18.998881740414049, 69.629281853994826 ], [ 18.998966837408677, 69.629283153085808 ], [ 18.99902344062372, 69.62929647659638 ], [ 18.999059864700524, 69.629315709562775 ], [ 18.999114218158994, 69.629318211667552 ] ] } },
{ "type": "Feature", "properties": { "id": 4, "group_name": "Group 1", "observation_type": "Track faint trails", "measurement": "", "note": "", "wet_trail_condition": "", "erosion_feature": "", "gps_accuracy": 4.70629250428936, "created_at": "2026-09-20T11:30:27.512872+00:00", "photo_url": null }, "geometry": { "type": "LineString", "coordinates": [ [ 18.995459160305597, 69.629726476018348 ], [ 18.995494537080507, 69.629708400918261 ], [ 18.995544464376479, 69.629689513970547 ], [ 18.995593621731, 69.629675201974663 ], [ 18.995656397614766, 69.629658463477057 ], [ 18.99570444861569, 69.629647675835585 ], [ 18.995749078556823, 69.629635754242457 ], [ 18.995810800743243, 69.629614199030513 ], [ 18.995877877840812, 69.629605088130575 ], [ 18.995930051796137, 69.629598393833632 ], [ 18.995987746332368, 69.629587841260133 ], [ 18.996044038892123, 69.62957154313699 ], [ 18.996098043291212, 69.629556087113897 ], [ 18.996149821958419, 69.62954225019098 ], [ 18.996211522710325, 69.629530286036243 ], [ 18.996267829413849, 69.629515632865591 ], [ 18.996310841903757, 69.629498761617114 ], [ 18.99637154829556, 69.629489004906858 ], [ 18.996431636686754, 69.629480446074595 ], [ 18.996484343541464, 69.629460495019771 ], [ 18.99653193180399, 69.629449595632593 ], [ 18.996588453452663, 69.629437364243032 ], [ 18.996659863445309, 69.62942850284692 ], [ 18.996718576119083, 69.629417966641924 ], [ 18.996774839281088, 69.629406791144618 ], [ 18.996842017387898, 69.629396540121263 ], [ 18.996912902187304, 69.629392924431656 ], [ 18.996972687271935, 69.629382604518682 ], [ 18.99704216954466, 69.6293753625352 ], [ 18.997111022585727, 69.629366488051886 ], [ 18.997166929123562, 69.62935317897778 ], [ 18.997231937906129, 69.629343921668323 ], [ 18.99729245085064, 69.629339400053709 ], [ 18.997350748357768, 69.629324360899162 ], [ 18.997414481440405, 69.629318823994225 ], [ 18.997481767298876, 69.629313466502822 ], [ 18.997537986931619, 69.629310179484122 ], [ 18.997611641031213, 69.629308581342812 ], [ 18.997680604304673, 69.629318775435991 ], [ 18.997733977767229, 69.629320905030553 ], [ 18.997813443496177, 69.62932559350844 ], [ 18.997869489363428, 69.629332604178543 ] ] } },
{ "type": "Feature", "properties": { "id": 3, "group_name": "Group 1", "observation_type": "Track faint trails", "measurement": "", "note": "", "wet_trail_condition": "", "erosion_feature": "", "gps_accuracy": 4.7131965290467699, "created_at": "2026-09-20T11:27:47.792514+00:00", "photo_url": null }, "geometry": { "type": "LineString", "coordinates": [ [ 18.994651251833417, 69.630084113828119 ], [ 18.994711724905397, 69.630067798379969 ], [ 18.994775961378803, 69.630053217104006 ], [ 18.994835703256012, 69.630037665455916 ], [ 18.99489140270607, 69.630021204913064 ], [ 18.994940617565597, 69.630010338589855 ], [ 18.994985496963785, 69.629994373186406 ] ] } },
{ "type": "Feature", "properties": { "id": 2, "group_name": "Group 1", "observation_type": "Track faint trails", "measurement": "", "note": "", "wet_trail_condition": "", "erosion_feature": "", "gps_accuracy": 18.258488536199199, "created_at": "2026-09-20T11:25:28.506967+00:00", "photo_url": "https://oehndpyzeoywfypqtsjs.supabase.co/storage/v1/object/public/observation-photos/2/1789903529145.jpg" }, "geometry": { "type": "LineString", "coordinates": [ [ 18.994620804547203, 69.630081213183615 ], [ 18.994577723261795, 69.630093233062041 ], [ 18.994508575321802, 69.630108547084916 ], [ 18.994443734688247, 69.630122974990854 ], [ 18.994365854450596, 69.630138045163648 ], [ 18.994311836416163, 69.630153854406785 ], [ 18.99426931196443, 69.630168307389539 ], [ 18.994201539140455, 69.630183762658291 ], [ 18.994158050113285, 69.630194541314864 ], [ 18.994102445722092, 69.630211156714196 ], [ 18.994034096379725, 69.630223675892466 ], [ 18.993992515846116, 69.63023461356164 ], [ 18.993930346231295, 69.630246618152256 ], [ 18.993872774624229, 69.630245165662558 ], [ 18.99382110758906, 69.630251684387801 ], [ 18.99376366218614, 69.630264883984339 ], [ 18.993700484159397, 69.630274980342861 ], [ 18.993645707435952, 69.630283990908936 ], [ 18.993600728923134, 69.630302795870406 ], [ 18.993543387808064, 69.630317046342483 ], [ 18.993479834137471, 69.63032466096881 ], [ 18.993423390342912, 69.630333574749841 ], [ 18.993382498564372, 69.63034663339559 ], [ 18.993337512896844, 69.630362887220642 ], [ 18.99329805321273, 69.630375142231586 ], [ 18.993269772764279, 69.630392670031526 ], [ 18.99322521044914, 69.63040676187866 ], [ 18.993155814239536, 69.630419982665103 ], [ 18.993117951404866, 69.630439816155189 ], [ 18.993093440843001, 69.630461422707612 ], [ 18.993071145383727, 69.630485194823493 ], [ 18.993037010623453, 69.630502491554779 ], [ 18.992999858012535, 69.630520640281546 ], [ 18.992977621651026, 69.630537206442099 ], [ 18.992929580493961, 69.630557302149739 ], [ 18.992886114536223, 69.630578449487174 ], [ 18.992836464087965, 69.630595741800278 ], [ 18.992774660984853, 69.630612246695065 ], [ 18.992718097829055, 69.630631672934157 ], [ 18.992667704336522, 69.630649154178414 ], [ 18.992609287081454, 69.6306732897865 ], [ 18.992555632738522, 69.630697413406935 ], [ 18.992502591322449, 69.630715178110137 ], [ 18.992440389685342, 69.630730257399236 ], [ 18.992374006959363, 69.63074565546556 ], [ 18.992323146761478, 69.630765116906858 ], [ 18.992284047435771, 69.630783372509669 ], [ 18.992252182979925, 69.630805289331335 ], [ 18.992204605522929, 69.630824041375988 ], [ 18.992167688976892, 69.630840085028723 ], [ 18.992104940131011, 69.630858244072812 ], [ 18.99204703105308, 69.630870822021905 ], [ 18.992005546649676, 69.630883878564092 ], [ 18.991951283587888, 69.630895019000349 ] ] } }
]
}
