{
"type": "FeatureCollection",
"name": "20260912_erosionfeatures",
"crs": { "type": "name", "properties": { "name": "urn:ogc:def:crs:OGC:1.3:CRS84" } },
"features": [
{ "type": "Feature", "properties": { "observation_id": "20260912_20", "erosion_feature": "Other", "note": "Firepit", "gps_accuracy": 3.1040000915527299, "created_at": "2026-09-12T11:45:30.605Z", "photo_url": "https://oehndpyzeoywfypqtsjs.supabase.co/storage/v1/object/public/observation-photos/20/1789213531279.jpg" }, "geometry": { "type": "Point", "coordinates": [ 18.9940838, 69.6336874 ] } },
{ "type": "Feature", "properties": { "observation_id": "20260912_34", "erosion_feature": "Other", "note": "hole/rock in trail", "gps_accuracy": 4.8246866786774296, "created_at": "2026-09-12T11:51:40.693Z", "photo_url": "https://oehndpyzeoywfypqtsjs.supabase.co/storage/v1/object/public/observation-photos/34/1789213900951.jpg" }, "geometry": { "type": "Point", "coordinates": [ 18.996057932535098, 69.635106997146906 ] } },
{ "type": "Feature", "properties": { "observation_id": "20260912_40", "erosion_feature": "Big hole", "note": "Hole in start of lower trail.", "gps_accuracy": 5.7232859642883502, "created_at": "2026-09-12T11:54:24.962Z", "photo_url": "https://oehndpyzeoywfypqtsjs.supabase.co/storage/v1/object/public/observation-photos/40/1789214065217.jpg" }, "geometry": { "type": "Point", "coordinates": [ 18.995964258886598, 69.635492815244007 ] } },
{ "type": "Feature", "properties": { "observation_id": "20260912_57", "erosion_feature": "Other", "note": "Creation of bigger path, with different varietes of eroded widhts", "gps_accuracy": 7.4907966435410804, "created_at": "2026-09-12T12:01:28.276Z", "photo_url": "https://oehndpyzeoywfypqtsjs.supabase.co/storage/v1/object/public/observation-photos/57/1789214488498.jpg" }, "geometry": { "type": "Point", "coordinates": [ 18.9974997581532, 69.635059667593794 ] } },
{ "type": "Feature", "properties": { "observation_id": "20260912_59", "erosion_feature": "Big rock on trail", "note": "", "gps_accuracy": 3.0, "created_at": "2026-09-12T12:03:05.484Z", "photo_url": null }, "geometry": { "type": "Point", "coordinates": [ 18.9941522, 69.6324042 ] } },
{ "type": "Feature", "properties": { "observation_id": "20260912_83", "erosion_feature": "Big hole", "note": "0.5m hole", "gps_accuracy": 6.2073043043874101, "created_at": "2026-09-12T12:22:09.319Z", "photo_url": "https://oehndpyzeoywfypqtsjs.supabase.co/storage/v1/object/public/observation-photos/83/1789215729581.jpg" }, "geometry": { "type": "Point", "coordinates": [ 19.005757629210699, 69.633761179484196 ] } },
{ "type": "Feature", "properties": { "observation_id": "20260912_90", "erosion_feature": "Other", "note": "Used to be running water, which is probably the reason for the hole (Mechanical weathering). Likely not from trampled erosion, as some of the trails here are under 1m.", "gps_accuracy": 2.96482367417565, "created_at": "2026-09-12T12:27:17.999Z", "photo_url": "https://oehndpyzeoywfypqtsjs.supabase.co/storage/v1/object/public/observation-photos/90/1789216038182.jpg" }, "geometry": { "type": "Point", "coordinates": [ 19.004297902959301, 69.634134733329503 ] } },
{ "type": "Feature", "properties": { "observation_id": "20260912_101", "erosion_feature": "Other", "note": "Steep eroded", "gps_accuracy": 3.0, "created_at": "2026-09-12T12:31:02.833Z", "photo_url": null }, "geometry": { "type": "Point", "coordinates": [ 18.9993832, 69.6283216 ] } },
{ "type": "Feature", "properties": { "observation_id": "20260912_106", "erosion_feature": "Other", "note": "Firepot", "gps_accuracy": 3.0220000743865998, "created_at": "2026-09-12T12:34:15.437Z", "photo_url": "https://oehndpyzeoywfypqtsjs.supabase.co/storage/v1/object/public/observation-photos/106/1789216455993.jpg" }, "geometry": { "type": "Point", "coordinates": [ 18.9974533, 69.6293136 ] } },
{ "type": "Feature", "properties": { "observation_id": "20260912_111", "erosion_feature": "Other", "note": "Loose soil and rocks", "gps_accuracy": 4.5060000419616699, "created_at": "2026-09-12T12:36:52.416Z", "photo_url": "https://oehndpyzeoywfypqtsjs.supabase.co/storage/v1/object/public/observation-photos/111/1789216611173.jpg" }, "geometry": { "type": "Point", "coordinates": [ 18.9995425, 69.627632 ] } },
{ "type": "Feature", "properties": { "observation_id": "20260912_186", "erosion_feature": "Other", "note": "Large eroded patch around a cairn", "gps_accuracy": 3.0, "created_at": "2026-09-12T14:14:08.185Z", "photo_url": null }, "geometry": { "type": "Point", "coordinates": [ 18.9919001, 69.6308694 ] } }
]
}
